nom,note,prix,categories,adresse,latitude,longitude
Le Comptoir de la Gastronomie,4.5,€€,French,34 rue Montmartre 75001 Paris France,48.8645157999652,2.34540185646608
Bistro des Augustins,4.4,€€,"Bistros, Wine Bars",39 quai des Grands Augustins 75006 Paris France,48.854754,2.342119
Café Blanc,4.4,N/A,"French, Coffee & Tea, Breakfast & Brunch",10 rue Croix des Petits Champs 75001 Paris France,48.8627362423863,2.339585
Café de la Régence,4.1,€€,French,167 rue Saint-Honoré 75001 Paris France,48.863613,2.334516
LouLou,3.7,€€€,Italian,107 rue de Rivoli 75001 Paris France,48.86322,2.3333
Marcelle,5.0,N/A,French,9 rue Antoine Vollon 75012 Paris France,48.864111,2.345627
La Cordonnerie,4.7,€€€,French,20 rue Saint Roch 75001 Paris France,48.86543,2.33237
Victoires,4.0,€€,French,6 rue la Vrillière 75001 Paris France,48.865569,2.340286
Chez Georges,3.8,€€€,French,1 rue du Mail 75002 Paris France,48.8666718,2.341457
Le P'tit Bistro,4.6,€€,"Brasseries, Bars",8 rue Saint-Martin 75004 Paris France,48.85755,2.34938
Zébulon,4.4,€€€,"Bistros, Modern European, French",10 rue de Richelieu 75001 Paris France,48.8642006,2.33617
Grand Hôtel du Palais Royal,4.7,€€€,"Hotels, Restaurants, Beauty & Spas",4 rue de Valois 75001 Paris France,48.8631096,2.33779
La Régalade,4.5,€€€,French,106 rue Saint-Honoré 75001 Paris France,48.8616441182389,2.34201570904084
Café de Paris,3.9,€€,Brasseries,3 rue de l'Échelle 75001 Paris France,48.863662,2.33385
Bistrot Valois,3.2,€€€,Bistros,1 place de Valois 75001 Paris 01 France,48.86319,2.3381
Le Relais du Louvre,4.1,€€,French,3 rue Saint-Honoré 75001 Paris France,48.861651,2.34094
Sanukiya,4.5,€€,Japanese,9 rue d'Argenteuil 75001 Paris France,48.8647,2.3338199
De Voltaire à Rousseau,4.7,N/A,"Pubs, Bistros",4 rue Jean-Jacques Rousseau 75001 Paris France,48.8621712,2.3399601
Le Corner Saint Germain,4.7,N/A,French,92 boulevard Saint-Germain 75005 Paris France,48.85126,2.34432
Angelina,4.0,€€€,"Breakfast & Brunch, Tea Rooms, Patisserie/Cake Shop",226 rue de Rivoli 75001 Paris France,48.865092,2.328464
Bistrot Richelieu,4.2,€€€,"French, Breakfast & Brunch",45 rue de Richelieu 75001 Paris France,48.866218,2.337011
Juvéniles,4.2,€€€€,"French, Wine Bars",47 rue de Richelieu 75001 Paris France,48.86624,2.33717
La Brasserie du Louvre,3.9,N/A,French,1 Place André Malraux 75001 Paris France,48.86377,2.33469
Anticafé,4.5,€,Cafes,10 rue de Richelieu 75001 Paris France,48.864178,2.336246
Le Soufflé,4.3,€€€,French,36 rue du Mont Thabor 75001 Paris France,48.86645,2.32647
Sacré Frenchy !,4.5,N/A,"French, Bars",58 boulevard de Sebastopol 75003 Paris France,48.86319,2.35106
Kodawari Ramen,4.2,N/A,Ramen,12 rue de Richelieu 75001 Paris France,48.864387,2.3362552
L'Escargot,3.9,€€€,French,38 rue Montorgueil 75001 Paris France,48.864206,2.3467
Gambino,4.4,€€,Italian,6 rue Gomboust 75001 Paris France,48.86736,2.33298
Ô Chateau,4.4,€€,"Wine Bars, French",68 rue Jean-Jacques Rousseau 75001 Paris France,48.86434,2.34405
Le Brun,4.8,N/A,French,95 rue Saint Honoré 75001 Paris France,48.86128,2.3432
Brasserie de la Bourse,4.4,€€,"French, Brasseries",27 Rue Jean Jacques Rousseau 75001 Paris France,48.86289,2.34125
Pho 14 Opera,4.1,€€,"Vietnamese, Chinese, Pan Asian",17 rue Molière 75001 Paris France,48.8653294112064,2.33612495646429
Chez Fernand,4.4,€€€,French,9 rue Christine 75006 Paris France,48.85461,2.33954
Big Mamma,4.5,€,Pizza,111 Rue Réaumur 75002 Paris France,48.86813,2.34329
L'Oratoire,4.6,N/A,"Brasseries, Bars",143 rue Saint-Honoré 75001 Paris France,48.8618043,2.3406102
Frenchie,4.3,€€€€,"French, Modern European",5 rue du Nil 75002 Paris France,48.867754322367,2.3477420774331
Poulette,4.4,€€€,French,3 Rue Etienne Marcel 75001 Paris France,48.8634,2.35068
Le Comptoir des Petits Champs,4.1,€€€,French,17 rue des Petits Champs 75001 Paris France,48.86645,2.33792
Balagan,4.4,€€,"Middle Eastern, Cocktail Bars",9 rue d'Alger 75001 Paris France,48.86543,2.32979
Canard Street,4.4,€€,"French Southwest, Delicatessen",16 rue des Petits Champs 75002 Paris France,48.86674,2.33716
Iovine's,4.6,€€,"Pizza, Italian",7 bis rue du Colonel Driant 75001 Paris France,48.86334,2.34049
Le TUB,4.8,N/A,"Pizza, Salad, Burgers",26 rue de Beaujolais 75001 Paris France,48.8664,2.33761
Verjus,4.5,€€,"Wine Bars, Tapas/Small Plates",47 rue Montpensier 75001 Paris France,48.8663726668237,2.33731901374335
La Poule au Pot,4.2,€€€,French,9 rue Vauvilliers 75001 Paris France,48.861797,2.343306
Bistrot Vivienne,3.9,€€€,Bistros,4 rue des Petits Champs 75002 Paris France,48.86621,2.33947
Restaurant Véro-Dodat,4.5,€€,French,19 Galerie Véro-Dodat 75001 Paris France,48.86284558,2.33993117
L'Entente,4.5,€€,"British, Modern European",13 rue Monsigny 75002 Paris France,48.869145,2.335391
La Jacobine,4.5,€€€,"Tea Rooms, French",59-61 rue Saint-André des Arts 75006 Paris France,48.8532345157095,2.33900494873524
L'Officine du Louvre,4.3,N/A,"Tapas/Small Plates, Cocktail Bars",1 place André Malraux 75001 Paris France,48.863004,2.335723
Loup,3.9,€€€,"French, Breakfast & Brunch",44 rue du Louvre 75001 Paris France,48.863959,2.342631
Basilic Thaï,5.0,N/A,Thai,46 rue Croix des Petits Champs 75001 Paris France,48.8648,2.34065
Mystery Cuisine,4.9,€€€€,French,37 Bis Rue De Montpensier 75001 Paris France,48.86572,2.33728
La Rotonde St. Honoré,3.8,N/A,French,10 rue des Pyramides 75001 Paris France,48.864591,2.332897
Le Café,4.3,€€,Cafes,62 rue Tiquetonne 75002 Paris France,48.86483,2.34588
Ellsworth,4.3,€€€,"Wine Bars, French",34 rue de Richelieu 75001 Paris France,48.86558,2.33689
Le Shanghaï Hang-Zhou,4.3,€€,Chinese,4 rue Perrault 75001 Paris France,48.86029,2.34177
Happy Caffé,4.9,€,"Creperies, Sandwiches",214 rue de Rivoli 75001 Paris France,48.86476,2.329615
Café Plume,3.9,€€,Brasseries,164 rue Saint-Honoré 75001 Paris France,48.862233,2.339744
Le Bistrot de Paris,4.4,€€€,"French, Bistros, Brasseries",33 rue de Lille 75007 Paris France,48.85854,2.32946
Gemini,4.3,€€,Italian,16 rue des Halles 75001 Paris France,48.8593674647599,2.34705866389581
The Frog & Underground,4.5,€€,"Pubs, American, Brasseries",176 rue Montmartre 75002 Paris France,48.871088,2.343115
Caves Legrand,4.4,€€€,"Beer, Wine & Spirits, Wine Tasting Room, Tapas/Small Plates",1 rue de la Banque 75002 Paris France,48.8662599,2.33993
Odette,4.6,N/A,"French, Wine Bars, Breakfast & Brunch",25 rue du Pont Neuf 75001 Paris France,48.86061,2.34452
Les Artizans,4.6,€€,"Patisserie/Cake Shop, Bistros",30 rue de Montorgueil 75001 Paris France,48.863763,2.346643
Enza & Famiglia Trattoria Pasta,4.5,€€,Italian,89 rue Saint-Honoré 75001 Paris France,48.8609426,2.3433822
Café Louise,4.2,€€,"Tea Rooms, Brasseries",8 rue Croix des Petits Champs 75001 Paris France,48.86267,2.33941
Les Antiquaires,4.4,€€€,Bistros,13 rue du Bac 75007 Paris France,48.8580664639432,2.32823697067099
L'Avant Comptoir,4.4,€€,"Tapas Bars, Wine Bars",3 carrefour de l'Odéon 75006 Paris France,48.85202,2.3388
La Clef des Champs,5.0,€€,Brasseries,49 rue des Petits Champs 75001 Paris France,48.867032,2.335326
La Famiglia,4.5,€€,"Pizza, Italian",37 rue Berger 75001 Paris France,48.8618507,2.34358
Carpe Diem Café,4.2,€€,"French, Lounges, Cocktail Bars",21 rue des Halles 75001 Paris France,48.8605269,2.3459065
Le Fumoir,3.8,€€€,"Lounges, Modern European",6 rue de l'Amiral de Coligny 75001 Paris France,48.8604,2.34055
La Belle Epoque,3.7,€€€€,French,36 rue des Petits Champs 75002 Paris France,48.867195,2.335463
Le Grand Vefour,4.2,€€€€,French,17 rue de Beaujolais 75001 Paris France,48.86621,2.33801
Les Fines Gueules,4.0,€€€,French,43 rue Croix des Petits Champs 75001 Paris France,48.8652299,2.34071
Le Nemours,3.6,€€,Brasseries,2 place Colette 75001 Paris France,48.863135,2.336537
Chez Gab's,5.0,N/A,"Bars, Sandwiches",12 rue Jean-Jacques Rousseau 75001 Paris France,48.86238,2.34038
Café Lai Tcha,4.7,N/A,Pan Asian,7 rue du Jour 75001 Paris France,48.863565,2.344205
Zinqué,5.0,N/A,"French, Cocktail Bars",34 Rue Étienne Marcel 75002 Paris France,48.86494975806268,2.3453793
Le Voltaire,3.9,€€,French,27 quai Voltaire 75007 Paris France,48.85911,2.3303
Au Pied de Cochon,3.3,€€€,"Seafood, Brasseries",6 rue Coquillière 75001 Paris France,48.863719,2.343711
Janine loves Sunday,4.5,€€,"Brasseries, Vegan",49 rue Montmartre 75002 Paris France,48.865794,2.344502
Bistrot Pyramide,4.0,€€,Bistros,20 rue des Pyramides 75001 Paris France,48.86576,2.33375
Rarita,5.0,N/A,Italian,98-100 rue saint-honoré 75001 Paris France,48.8616340308718,2.3423022595245246
Freddy's,4.6,€€€,"Tapas Bars, French, Steakhouses",54 rue de Seine 75006 Paris France,48.85424,2.33685
Big Fernand,3.9,€€,"French, Friterie, Burgers",40 place du Marché Saint-Honoré 75001 Paris France,48.8674295338603,2.33259882777929
La French Guinguette,4.3,€€,"Cocktail Bars, French",58 rue Rambuteau 75004 Paris France,48.8617418954553,2.35155543990315
Omusubi Gonbei,4.6,N/A,Japanese,27 rue des Petits Champs 75002 Paris France,48.866838,2.337186
La Corte,4.4,€€€,Italian,320 rue Saint-Honoré 75001 Paris France,48.86534,2.33106
Ban Bua,4.3,N/A,Thai,28 bis rue de Richelieu 75001 Paris France,48.86523,2.33671
Tradi,5.0,€€€,Bistros,4 rue du Mail 75002 Paris France,48.86635,2.34158
Le Relais de l'Entrecôte,4.1,€€€,Steakhouses,20 rue Saint Benoît 75006 Paris France,48.85469,2.3329
Takara,4.5,€€€€,Japanese,14 rue Molière 75001 Paris France,48.864977,2.335903
Restaurant du Palais Royal,4.5,€€€€,French,110 galerie de Valois 75001 Paris France,48.865580245548,2.33890172838062
Au Bourguignon du Marais,4.3,€€€,French,52 rue François Miron 75004 Paris France,48.8555191281373,2.3577103595245
CHANG,4.4,€€,"Thai, Tapas Bars, Cocktail Bars",22 rue des Pyramides 75001 Paris France,48.86597,2.33391
Chez Mademoiselle,4.5,€€€,French,16 rue Charlemagne 75004 Paris France,48.85432,2.35979
L'Espadon,4.8,N/A,"French, Breakfast & Brunch",15 place Vendôme 75001 Paris France,48.868108,2.328869
Baltard au Louvre,3.6,N/A,Brasseries,9 Rue Coquillière 75001 Paris France,48.86358,2.34235
La Sourdière,4.1,€€€,French,4 rue la Sourdière 75001 Paris France,48.86526,2.33178
Le Mille Pâtes,4.5,€,"Italian, Delicatessen",5 rue des Petits Champs 75001 Paris France,48.8661699,2.33913
Restaurant le Meurice Alain Ducasse,4.2,€€€€,French,228 rue de Rivoli 75001 Paris France,48.86516,2.32807
L'Imprimerie,3.8,€€,Cafes,29 rue Coquillière 75001 Paris France,48.86413,2.3416
万食如意 Fresh Noodles,4.4,€€,"Chinese, Pan Asian",23 rue Saint-Denis 75001 Paris France,48.859595,2.347833
Willi's Wine Bar,4.0,€€€,"French, Wine Bars",13 rue des Petits Champs 75001 Paris France,48.8663685,2.3383695
Aki,4.0,€€,Japanese,11 bis rue Sainte-Anne 75001 Paris France,48.86604,2.3353
A Casaluna,3.8,€€,French,4 rue Beaujolais 75001 Paris France,48.86605,2.3391
Au Petit Bar,4.4,€€,French,7 rue du Mont-Thabor 75001 Paris France,48.8654709,2.3291099
Le Musset,3.5,€€,"French, Cocktail Bars",169 rue Saint-Honoré 75001 Paris France,48.863814,2.334018
Baguett's Café | Coffeeshop & Brunch Everyday,4.5,€€,"Cafes, Breakfast & Brunch",33 rue de Richelieu 75001 Paris France,48.86528,2.33657
Café Saint Honoré,3.5,€€,"French, Cafes",194 rue St Honoré 75001 Paris France,48.8626,2.33805
Gwadar,4.4,€€,Indian,39 rue Saint roch 75001 Paris France,48.86621788,2.33280435
Le Pot de Vins,4.6,€€€€,"French, Wine Bars",36 rue Croix des Petits Champs 75001 Paris France,48.8642399,2.3403919
Café Dalayrac,3.9,€€,Brasseries,2 Rue Dalayrac 75002 Paris France,48.86756,2.33475
El Tonel,4.0,€€,"Bars, Spanish, Tapas Bars",5 rue des Pyramides 75001 Paris France,48.864359,2.332453
Le Pré,4.5,N/A,"Cocktail Bars, Beer Bar, Cafes",4 rue du Four 75006 Paris France,48.85301,2.33514
L'Auberge Café,4.1,€€,French,4 rue Bertin Poirée 75001 Paris France,48.85833,2.3446
Le Louis,4.5,€€€,French,31 rue Coquillière 75001 Paris France,48.864257,2.341366
Le 202 Rivoli,4.3,€€€€,French,Hôtel Saint-James & Albany 202 rue de Rivoli 75001 Paris France,48.864293,2.330798
La Tour de Montlhéry ou chez Denise,3.8,€€€,French,5 rue Prouvaires 75001 Paris France,48.8615,2.34408
Le Black Dog,4.2,€€,"Bars, Argentine",26 rue des Lombards 75004 Paris France,48.85943,2.34918
Chez Papa Jazz Club,4.4,€€€,"Jazz & Blues, French",3 rue Saint-Benoît 75006 Paris France,48.8553886,2.3334401
Le Moï,5.0,€€,Vietnamese,51 rue de Richelieu 75001 Paris France,48.86648,2.3372
Mariage Frères - Salon de Thé,4.1,N/A,"Tea Rooms, Breakfast & Brunch",99 rue de Rivoli 75004 Paris France,48.862759,2.334832
Inavoué,4.4,N/A,"French, Cocktail Bars, Breakfast & Brunch",4 impasse Gomboust 75001 Paris France,48.86771,2.33133
L'Absinthe,3.9,€€€,"French, Modern European, Bistros, Bars",24 place du Marché Saint-Honoré 75001 Paris France,48.86644,2.33201
Au Vieux Comptoir,4.1,€€€,French,17 rue des Lavandières-Sainte-Opportune 75001 Paris France,48.8588,2.34602
Au Bistro,3.9,€€,"French, Bars",8 rue Marché St Honoré 75001 Paris France,48.86603,2.33125
Bianca,4.6,€€€,"Pizza, Bars, Italian",2 rue du Quatre-Septembre 75002 Paris France,48.8689428250358,2.33969014061391
Boulettes,4.6,€€,French,179 rue Saint-Denis 75002 Paris France,48.86557,2.35045
Le Louvre Ripaille,3.9,€€€,"French, Wine Bars",1 Rue Perrault 75001 Paris France,48.860305752870495,2.3412439109556535
Le Carrousel,3.1,€€,Brasseries,194 rue de Rivoli 75001 Paris France,48.863952,2.331879
Jantchi,3.9,€€,Korean,6 rue Thérèse 75001 Paris France,48.8660081547723,2.33600543883608
Le Bistro du Périgord,4.5,€€€,Bistros,71 rue Saint-Jacques 75005 Paris France,48.8498092201519,2.34515282327701
Guy Savoy,4.6,€€€€,French,Monnaie de Paris 11 quai de Conti 75006 Paris France,48.857,2.3386999
L'Auberge du Louvre,3.9,€€,"French, Fondue",98 rue Saint-Honoré 75001 Paris France,48.861572,2.342235
Le Petit Vendôme,4.2,€€,"Sandwiches, Brasseries",8 rue des Capucines 75002 Paris France,48.86877,2.32973
Le Calife,4.3,€€€€,French,Port des Saints Pères 75006 Paris France,48.8583205,2.3346584
Les Crocs des Halles,4.4,€€€,"Barbeque, French",49 rue Berger 75001 Paris France,48.86219,2.34211
La Bourse et la Vie,4.3,€€€€,French,12 rue Vivienne 75002 Paris France,48.86762,2.33946
Kunitoraya - Bistro Udon,4.1,€€,"Japanese, Soup",1 rue Villedo 75001 Paris France,48.86598,2.3366699
La Pie Noir,4.6,N/A,French,5 rue de la Montagne Sainte Geneviève 75005 Paris France,48.84929,2.34888
Olio Pane Vino,4.4,€€,Italian,44 rue Coquillière 75001 Paris France,48.8646699,2.34073
Ma Salle à Manger,4.0,€€,French Southwest,26 place Dauphine 75001 Paris France,48.856961,2.341829
Aux Castelblangeois,4.2,€,"Bakeries, Sandwiches",168 Rue Saint-Honoré 75001 Paris France,48.86225,2.33939
Domenico,4.0,€€,"Italian, Pizza",3 rue des Pyramides 75001 Paris France,48.864329,2.332365
Le Mazenay,4.5,€€,Bourguignon,46 rue de Montmorency 75003 Paris France,48.8636068791682,2.35325365211382
Bistrot Rougemont,4.6,N/A,French,10 rue Rougemont 75009 Paris France,48.87188,2.346124
Bistrot Madame,4.5,N/A,French,1 rue Saint-Marc 75002 Paris France,48.870203,2.342128
The Family,4.5,€€,"French, Bistros",7 rue la Fayette 75009 Paris France,48.87359,2.33479
Brasserie Bellanger,4.8,N/A,French,140 rue du Faubourg Poissonnière 75010 Paris France,48.88094,2.34994
L'Amour Vache,4.6,€€,Brasseries,2 bd de Bonne Nouvelle 75010 Paris France,48.869901651373,2.35228415692945
La Petite Bourse,4.3,€€,Bistros,127 rue Montmartre 75002 Paris France,48.8692258472692,2.34298937022686
La Comète,4.2,€€,"Bars, French",19 rue du Faubourg Montmartre 75009 Paris France,48.87285,2.343
MONBLEU Faubourg Montmartre,4.5,N/A,"French, Cheese Shops, Fondue",37 rue du Faubourg Montmartre 75009 Paris France,48.874158,2.342127
Brasserie Dubillot,4.4,N/A,"Brasseries, French",222 Rue Saint-Denis 75002 Paris France,48.86809,2.35193
Bouillon Chartier,3.4,€€,French,7 rue du Faubourg Montmartre 75009 Paris France,48.87194,2.34317
Canard et Champagne,4.4,€€€,"French, Champagne Bars",57 passage des Panoramas 75002 Paris France,48.87125,2.34171
Vida,4.7,N/A,French,49 rue de l'Échiquier 75010 Paris France,48.871844,2.348356
Astair,4.7,N/A,"French, Bistros",19 passage des Panoramas 75002 Paris France,48.87083,2.34166
Le Gramont,4.4,N/A,Bistros,15 boulevard des Italiens 75009 Paris France,48.87132,2.3372099
Le Potager du Père Thierry,4.6,€€,French,16 rue des Trois Frères 75018 Paris France,48.884476,2.341335
Tavern'Café,3.9,€€,"French, Breakfast & Brunch",17-19 boulevard Montmartre 75002 Paris France,48.8716532019322,2.34090340489342
Comptoir des Frangins,4.7,N/A,"Bars, Modern European, French",97 rue montmartre 75002 Paris France,48.86802,2.34354
Pascade,4.4,€€€,French,14 rue Daunou 75002 Paris France,48.870597,2.3312
La Petite Rose des Sables,4.7,€€,French,6 rue de Lancry 75010 Paris France,48.868943,2.360193
Rivié,4.3,N/A,French,32 rue du Sentier 75002 Paris France,48.870197,2.346449
Les Fils à Maman,4.0,€€,French,7 bis rue Geoffroy-Marie 75009 Paris France,48.873498,2.343626
Le Boui Boui,4.5,€€,French,11 rue Marie Stuart 75002 Paris France,48.865005,2.347665
Poni,4.9,N/A,"Brasseries, Cocktail Bars",24 rue Saint-Lazare 75009 Paris France,48.8768728554797,2.33698256313801
Le Petit Gourmet,4.5,€€,French,39 rue Fbg Montmartre 75009 Paris France,48.87427926,2.34201908
Le Gavroche,3.9,€€€,"French, Wine Bars, Bistros",19 rue Saint-Marc 75002 Paris France,48.87043,2.34039
La Crème de Paris,4.3,€€,"Ice Cream & Frozen Yogurt, Gluten-Free, Creperies",4 rue du Faubourg Montmartre 75009 Paris France,48.871955,2.343232
Le Valentin,4.4,€€,"Tea Rooms, French, Patisserie/Cake Shop",30 passage Jouffroy 75009 Paris France,48.87216,2.34201
Le Chenin,4.7,€€€,French,33 Rue Le Peletier 75009 Paris France,48.87389,2.33899
Mr Zhao,4.4,€€,Chinese,37 rue des Jeuneurs 75002 Paris France,48.86971,2.34362
Vivre Opéra Garnier,4.9,€€€,French,3 rue de la Michodière 75002 Paris France,48.86922,2.33446
Le So,4.6,€€€,"French, Tapas Bars, Cocktail Bars",93 rue Montmartre 75002 Paris France,48.8677991,2.3437671
Le Bonne Nouvelle,5.0,N/A,Bistros,24 boulevard de Bonne Nouvelle 75010 Paris France,48.87053,2.350453
Gegeor,4.8,N/A,"French, Beer, Wine & Spirits",1 rue Moncey 75009 Paris France,48.88006,2.33106
Les Entretiens,4.7,N/A,"Bars, Cafes, French",33 rue du Faubourg Saint-Martin 75010 Paris France,48.8701641317513,2.35617876695185
Juste,4.6,€€,"Seafood, Party & Event Planning, Bars",48 rue Laffitte 75009 Paris France,48.874968,2.338507
Colin Régis,4.3,€,"Bakeries, Sandwiches",53 Rue Montmartre 75002 Paris France,48.86598,2.34457
Chez Papa,3.6,€€,French,153 rue Montmartre 75002 Paris France,48.87057,2.34258
BREIZH Café Montorgueil | La Crêpe Autrement	,4.7,N/A,Creperies,14 rue des Petits Carreaux 75002 Paris France,48.86689,2.34735
Le Galibot,4.2,€,"French, Bars",17 rue Paul Lelong 75002 Paris France,48.8676,2.34203
Marcella Caffé,4.5,N/A,"Italian, Pizza",9 boulevard Poissonnière 75009 Paris France,48.87076,2.34644
Le Sâotico,4.3,€€€,"French, Caterers",96 rue de Richelieu 75002 Paris France,48.870646,2.339425
1995,4.8,N/A,"Chinese, Taiwanese",142 rue Saint-Denis 75002 Paris France,48.86525,2.35051
La Maison Bleue,4.4,€€€,"Bistros, French, Breakfast & Brunch",7 place Franz Liszt 75010 Paris France,48.878343,2.351023
Bonpot,4.3,N/A,Korean,162 rue Montmartre 75002 Paris France,48.87033,2.34281
Bulliz,4.6,€,"Specialty Food, French",14 rue d'Hauteville 75010 Paris France,48.87144,2.34994
Edgar,3.8,€€€,"Modern European, Seafood, Breakfast & Brunch",31 rue d'Alexandrie 75002 Paris France,48.8682030716511,2.34981670177437
A Noste,3.9,€€€,"Basque, Tapas Bars",6bis rue du 4 Septembre 75002 Paris France,48.86915,2.33909
Restaurant Bachaumont,4.2,€€€,"Nightlife, Mediterranean, Meatballs",18 rue Bachaumont 75002 Paris France,48.866122,2.345012
La Régalade Conservatoire,4.4,€€€,"Brasseries, French",Hotel de Nell Paris 7-9 rue du Conservatoire 75009 Paris France,48.8732306,2.3468674
Uma Nota,4.7,N/A,International,86 rue Réaumur 75002 Paris France,48.86677,2.35052
Royal Vendôme Le,4.4,€€€,Restaurants,26 Rue Danielle Casanova 75002 Paris France,48.86814,2.33088
Le 52,4.5,€€€,French,52 rue du Faubourg Saint-Denis 75010 Paris France,48.87208,2.35405
Pedzouille,4.7,€€,"Bistros, Steakhouses",66 rue du Faubourg Poissonnière 75010 Paris France,48.876133,2.348528
Le Préaumur,3.8,€€,Brasseries,1 place de la Bourse 75002 Paris France,48.86847,2.34174
Bien Bien,4.5,€€,Thai,30bis rue Bergère 75009 Paris France,48.87259,2.34422
Matamata Coffee Bar,4.7,€€,"Coffee & Tea, Breakfast & Brunch, Sandwiches",58 rue d'Argout 75002 Paris France,48.86611,2.34411
Le Sully,4.1,€,"Bars, Brasseries",13 rue du faubourg Saint-Denis 75010 Paris France,48.87029,2.35282
Sunday in Soho,4.1,N/A,"Cafes, Breakfast & Brunch",7 rue Saint-Marc 75002 Paris France,48.87028,2.34149
Le Mesturet,3.9,€€€,Bistros,77 rue de Richelieu 75002 Paris France,48.868938895863,2.3383555300205
Le Gallopin,3.7,€€€,"Brasseries, French",40 rue Notre Dame des Victoires 75002 Paris France,48.86888,2.34214
Gloria Montmartre,4.4,€€,"French, Brazilian, Tapas Bars",48 rue d'Orsel 75018 Paris France,48.88356,2.34211
Café Marguerite,4.4,€€,Brasseries,28 rue des Martyrs 75009 Paris France,48.8785136901908,2.33986740145586
Le Plomb du Cantal,3.8,€€,French,4 bd St Denis 75010 Paris France,48.869331,2.355263
Café Mimosa,4.8,N/A,Breakfast & Brunch,11 rue Buffault 75009 Paris France,48.875549151314,2.34182998538017
La Ville de Provins,4.5,€€,Brasseries,74 boulevard de Strasbourg 75010 Paris France,48.875575,2.358201
Les Affamés,4.7,€€€,"Barbeque, French",7 rue Saint Augustin 75002 Paris France,48.8688316,2.33758
Eels,4.9,N/A,French,27 rue d'Hauteville 75010 Paris France,48.873248,2.3499957
Brasserie Haussmann,3.8,N/A,"Bistros, Brasseries",12 Boulevard Haussmann 75009 Paris France,48.872309,2.337662
Kintaro,3.9,€€,Japanese,24 rue Saint-Augustin 75002 Paris France,48.868947,2.334837
L'Ivress Sentier,4.6,€€,"Wine Bars, Tapas/Small Plates",5 rue Poissonnière 75002 Paris France,48.86872,2.34761
Papacionu,4.4,€€,"Italian, Pizza, Corsican",7 rue Cadet 75009 Paris France,48.875407,2.342773
Tesoro d'Italia,4.5,€€,Italian,7 rue Rougemont 75009 Paris France,48.8716531601097,2.34572584340404
La Cave Gourmande,4.3,€€€,Bistros,96 rue des Martyrs 75018 Paris France,48.884499,2.339847
Echo,3.9,N/A,Breakfast & Brunch,95 rue d'Aboukir 75002 Paris France,48.86827,2.34851
Hokkaido,3.9,€€,Ramen,14 rue Chabanais 75002 Paris France,48.867693,2.337155
Pratolina,4.5,€€€,"Pizza, Italian",11 boulevard de Bonne Nouvelle 75002 Paris France,48.8698601102392,2.35057398676872
Bistro Neuf,4.8,€€,"French, Bistros",9 rue Godot de Mauroy 75009 Paris France,48.8705580204446,2.32685201898613
Bien Élevé,4.6,€€,"Barbeque, French",47 rue Richer 75009 Paris France,48.8740408400062,2.34274864196777
Miam-Miam Cool,5.0,N/A,Chinese,41 rue de Provence 75009 Paris France,48.87416,2.33598
BocaMexa,4.4,N/A,Mexican,81 rue Réaumur 75002 Paris France,48.86691,2.34844
Lemon,4.5,€,"Sandwiches, Juice Bars & Smoothies, Breakfast & Brunch",43 rue des Petits Carreaux 75002 Paris France,48.86811,2.34744
Filakia,4.0,€€,"Sandwiches, Greek",9 rue Mandar 75002 Paris France,48.8657033,2.3453347
Rouge Bis,4.2,€€,Brasseries,7 place Blanche 75009 Paris France,48.8837021,2.3319197
La Brigade,4.3,N/A,Pop-Up Restaurants,23 boulevard des Italiens 75002 Paris France,48.87108,2.3357899
Ilang,4.3,N/A,Korean,2 bis rue Daunou 75002 Paris France,48.8692192451668,2.33247774470652
Terroir & Burger - Bar des Variétés,4.0,€€,"Brasseries, Burgers",12 passage des Panoramas 75002 Paris France,48.87119251,2.34174692
L'Oseille,4.4,N/A,French,3 rue Saint-Augustin 75002 Paris France,48.86885,2.33781
Chez Delphine,5.0,N/A,French,48 rue Saint-Georges 75009 Paris France,48.8772257556351,2.33733181919955
Fric-Frac,4.4,€€,"French, Sandwiches",79 quai de Valmy 75010 Paris France,48.872441,2.364006
Golden Pat,4.2,€€,French,20 rue de Mazagran 75010 Paris France,48.87091,2.35213
Kapunka,4.1,€€,"Thai, Gluten-Free",51 rue Saint-Sauveur 75002 Paris France,48.8662,2.3477
La Bécane à Gaston,5.0,N/A,French,24 rue Lucien Sampaix 75010 Paris France,48.87251,2.36112
Zazza,4.3,€€,"Cocktail Bars, Italian, Pizza",18 rue du Faubourg Poissonnière 75010 Paris France,48.87214,2.348
Le Bistro Basque,4.5,€€,"Wine Bars, Tapas Bars, Basque",20 rue du Faubourg Poissonniere 75010 Paris France,48.87229,2.348
L'Almodobar,3.8,€€,"French, Tapas/Small Plates",38 rue du Sentier 75002 Paris France,48.870637,2.346676
La Piazzetta,4.7,N/A,"Pizza, Italian",98 rue Montmartre 75002 Paris France,48.867163,2.344202
Merci Jérôme,4.8,N/A,"Bakeries, Tea Rooms, Sandwiches",11 boulevard des Italiens 75002 Paris France,48.87145,2.33795
Riz Riz,4.4,N/A,"Vegan, Vegetarian, Asian Fusion",221 rue Saint Martin 75003 Paris France,48.86424,2.3529399
Pain Vin Fromages,4.4,€€,Fondue,3 rue Geoffroy-l'Angevin 75004 Paris France,48.860525,2.354439
Le Sanglier Bleu,4.7,€€€,French,102 bd de Clichy 75018 Paris France,48.8842888,2.33144
Le Roi de Pique,4.3,€€,"Brasseries, Bistros",126 rue du Temple 75003 Paris France,48.86358,2.35844
Le Bougnat,4.7,€€,French,28 rue de Saintonge 75003 Paris France,48.86227,2.36316
Robert et Louise,4.1,€€€,"French, Steakhouses",64 rue Vieille du Temple 75003 Paris France,48.859081,2.359435
Il Ristretto,5.0,N/A,"Delicatessen, Italian",21 rue des Gravilliers 75003 Paris France,48.8637299,2.35693
Le Bouledogue,4.0,€€,"French, Bars, Brasseries",20 Rue Rambuteau 75003 Paris France,48.86082,2.3547
L'îlot,4.4,€€,Seafood,4 rue de la Corderie 75003 Paris France,48.8647842407227,2.36330199241638
Le Colimaçon,4.4,€€€,"French, Bistros, Steakhouses",44 rue Vieille du Temple 75004 Paris France,48.8580235883243,2.35806396197131
La Cave des Frérots,5.0,N/A,"Wine Bars, Tapas/Small Plates",102 rue du Temple 75003 Paris France,48.862618,2.357554
Poupée,4.3,N/A,"Wine Bars, Tapas Bars",2 impasse Berthaud 75003 Paris France,48.861343,2.353774
L'Aller Retour,4.3,€€€,"Wine Bars, Steakhouses",5 rue Charles François Dupuis 75003 Paris France,48.865353,2.363151
Pontochoux,4.9,N/A,Japanese,18 rue du Pont aux Choux 75003 Paris France,48.861319,2.365104
Epicerie Breizh,4.1,€€,"Creperies, Cafes",109 rue Vieille du Temple 75003 Paris France,48.861039,2.361757
Le Bistrot des Vosges,4.3,€€,Bistros,31 bd Beaumarchais 75004 Paris France,48.8557424,2.368231
L'Olivier du Marais,4.8,N/A,French,16 place des Vosges 75004 Paris France,48.85553,2.36657
Le Sancerre,3.7,€€,"French, Brasseries",87 Rue Archives 75003 Paris France,48.86372,2.36108
Chez Margot,4.3,€€,French,25 bis bd Henri IV 75004 Paris France,48.85192,2.3645
Maria,4.9,€€,"Italian, Pizza",21 rue de Picardie 75003 Paris France,48.8637505,2.3626499
Strada Café,4.4,€,"Coffee & Tea, Breakfast & Brunch",94 rue du Temple 75003 Paris France,48.863188,2.357273
Les Philosophes,3.9,€€,Bistros,28 rue Vieille du Temple 75004 Paris France,48.857332,2.357493
Gigi,3.8,€€,Creperies,4 rue de la Corderie 75003 Paris France,48.8648213205695,2.36322465215481
Terra,4.7,N/A,French,21 rue des Gravilliers 75003 Paris France,48.86373,2.35693
Le Petit Marché,4.3,€€€,French,9 rue Béarn 75003 Paris France,48.857267,2.366041
Les Enfants Rouges,4.2,€€€,French,9 rue de Beauce 75003 Paris France,48.863048,2.361305
Camille,4.1,€€€,"Bistros, Breakfast & Brunch",24 rue des Francs Bourgeois 75003 Paris France,48.8577617015923,2.36071492187093
Grand Cœur,4.3,€€€,French,41 rue du Temple 75004 Paris France,48.85956,2.35397
Derrière,3.8,€€€,Modern European,69 rue des Gravilliers 75003 Paris France,48.8644791458463,2.35424064437866
Norma,4.4,N/A,"Italian, French",75 rue de Turbigo 75003 Paris France,48.866503,2.359865
Les Bains - La Salle à Manger,5.0,€€€€,French,7 rue du Bourg l'Abbé 75003 Paris France,48.8639183,2.352
Les Petites Bouchées,4.5,€€,"Tapas Bars, Gastropubs",4 rue du Roi de Sicile 75004 Paris France,48.855682,2.360767
Le Bouquet des Archives,3.9,€€,Brasseries,31 rue des Archives 75004 Paris France,48.85936,2.355931
Les Bougresses,4.6,€€€,French,6 rue Jarente 75004 Paris France,48.85601,2.363076
Le Oken,4.6,N/A,"French, Seafood",19 rue Rambuteau 75004 Paris France,48.8605971995721,2.35489436461855
Bistrot du Centre,4.0,€€,French,131 rue Saint-Martin 75004 Paris France,48.860790359254,2.35130940171415
Comptoir Turenne,3.9,N/A,"Bars, French",70 rue de Turenne 75003 Paris France,48.860226,2.36471
La Vache Acrobate,4.0,€€,French,77 rue Amelot 75011 Paris France,48.85966,2.36805
Le Saint Gervais,4.2,€€,"Brasseries, Cafes",96 rue du Vielle Temple 75003 Paris France,48.8604661538237,2.36185507305928
L'Étoile Berbère,5.0,N/A,Moroccan,16 rue des Vertus 75003 Paris France,48.86429,2.3579
Candelaria,3.9,€€,"Mexican, Speakeasies",52 rue de Saintonge 75003 Paris France,48.862981,2.364033
Le Centenaire,4.1,€€,French,104 rue Amelot 75011 Paris France,48.86258,2.36743
Café du Marché des Enfants Rouges,3.7,€€,Cafes,37 Rue Bretagne 75003 Paris France,48.8628,2.36262
Le Machon,4.8,€€,Restaurants,16 Rue Commines 75003 Paris France,48.8620888,2.3661881
Le Café de la Mairie,5.0,N/A,Bistros,96 rue des Archives 75003 Paris France,48.86353,2.36097
Picotte,4.9,N/A,"French, Tapas Bars",42 rue de Malte 75012 Paris France,48.8662,2.36753
Le Ruisseau - Burger Joint,4.6,€€,Burgers,22 rue Rambuteau 75003 Paris France,48.860994,2.354433
Jackpot,5.0,N/A,"French, Beer Bar, Cocktail Bars",10 rue des Haudriettes 75003 Paris France,48.86179,2.3573
Café Pola,4.8,N/A,Bistros,77 boulevard Beaumarchais 75003 Paris France,48.85842,2.3676
Mmmozza,4.4,€€,"Sandwiches, Delicatessen",57 rue de Bretagne 75003 Paris France,48.8639122,2.3606901
Salōn Marais,5.0,N/A,"Middle Eastern, Armenian",3 rue du Roi Doré 75003 Paris France,48.85999,2.3643
Le Braque,4.4,N/A,"Cocktail Bars, French",11 rue de Braque 75003 Paris France,48.861148,2.356231
Le Dôme du Marais,3.8,€€€,"French, Modern European",53 bis rue des Francs Bourgeois 75004 Paris France,48.85904,2.35831
Les Foodies,4.6,N/A,"Italian, Mediterranean, French",6-8 square Sainte-Croix-de-la-Bretonnerie 75004 Paris France,48.858266,2.354629
Le Flâneur,4.0,N/A,"Bistros, Bars",50 boulevard du Temple 75011 Paris France,48.8659983916109,2.36533418297768
Soumsoum,4.6,N/A,"Mediterranean, Tapas/Small Plates, Fast Food",15 rue des Ecouffes 75004 Paris France,48.8568755244531,2.35849019140005
Hank Burger Paris Archives,4.4,€€,"Burgers, Vegan",55 rue des Archives 75003 Paris France,48.8613519231294,2.35828442920666
Café de la Poste,4.3,N/A,Cafes,124 rue de Turenne 75003 Paris France,48.8639264820942,2.36483260989189
Homer,4.4,N/A,Fast Food,21 rue Rambuteau 75004 Paris France,48.860724,2.354768
La Droguerie du Marais,4.6,€,Creperies,56 rue des Rosiers 75004 Paris France,48.85789,2.35797
Le Progrès,3.4,€€,Brasseries,1 rue de Bretagne 75003 Paris France,48.861893,2.364118
Le Coupe Gorge,4.7,€€€,French,2 rue de la Coutellerie 75004 Paris France,48.8574513,2.350399
Ober Mamma,4.3,€€,"Pizza, Italian, Cocktail Bars",107 boulevard Richard Lenoir 75011 Paris France,48.86446,2.37018
Chez Janou,4.1,€€,"Bistros, Provencal",2 rue Roger Verlomme 75003 Paris France,48.8566952430158,2.36717752386277
L'Ange 20,4.7,€€€,French,44 rue des Tournelles 75004 Paris France,48.8558083,2.3673799
Le Poulailler,4.1,N/A,"French, Wine Bars",60 rue Saint-Sabin 75011 Paris France,48.859174,2.368921
Au Fil des Saisons,4.4,€€€,French,6 Rue Fontaines Du Temple 75003 Paris France,48.86555,2.35968
Salento Marais,4.5,€€€,Italian,6 rue de Jarente Place du Marché-Sainte-Catherine 75004 Paris France,48.85575,2.36293
Fermier Gourmet,4.4,€€,"French, Barbeque, Burgers",185 rue du Temple 75003 Paris France,48.8655199,2.36034
Wild & The Moon,4.5,€€,"Juice Bars & Smoothies, Gluten-Free, Breakfast & Brunch",25 rue des Gravilliers 75003 Paris France,48.864057,2.3565294
L'As du Fallafel,4.3,€€,"Kosher, Sandwiches, Falafel",34 rue des Rosiers 75004 Paris France,48.857498,2.35908
Dessance,4.4,€€€,"Desserts, Vegetarian",74 rue des Archives 75003 Paris France,48.86233,2.3595799
Chez Alain Miam Miam,4.6,€€,"Creperies, Bakeries, Sandwiches",26 rue Charlot 75003 Paris France,48.862262,2.362023
Fulvio,4.3,€€€,Italian,4 rue de Poitou 75003 Paris France,48.86141,2.36434
Comptoir Gourmet,4.6,€€,"Italian, French",51 rue du Temple 75004 Paris France,48.86009,2.35457
La Paulette,3.8,€€,"French, Wine Bars, Salad",10 rue de Bretagne 75003 Paris France,48.8624199322964,2.36360264085195
Les Enfants du Marché,5.0,N/A,Seafood,39 rue de Bretagne 75003 Paris France,48.86296,2.36215
Co Ba Saigon,4.9,N/A,Vietnamese,48 boulevard du Temple 75011 Paris France,48.8659652,2.365558
Chez Nenesse,3.9,€€€,French,30 rue de Poitou 75003 Paris France,48.8617,2.36227
Le Chouchou,3.8,€€,"International, Vegetarian, Oriental",63 Rue Rambuteau 75004 Paris France,48.86164,2.35157
Le Petit Curieux,4.4,€€,French,16 rue Filles du Calvaire 75003 Paris France,48.86257,2.36564
Le Bûcheron,3.9,€€,"Breakfast & Brunch, French, Bistros",14 rue de Rivoli 75004 Paris France,48.855516,2.359802
Marie Bistro,3.3,N/A,French,17 rue Charlot 75003 Paris France,48.86171,2.36112
Carbón,3.9,N/A,Barbeque,14 rue Charlot 75003 Paris France,48.8626737,2.3624584
Biglove Caffè,4.1,€€,"Italian, Breakfast & Brunch",30 rue Debelleyme 75003 Paris France,48.8620241051345,2.36356426030397
BAFFO,4.6,€€€,Italian,12 rue Pecquay 75004 Paris France,48.86025,2.35626
Chez Cay,4.3,€,"Chinese, Vietnamese, Thai",26 rue beaubourg 75003 Paris France,48.86178,2.35394
Paris-Rome,5.0,N/A,Italian,73 rue Archives 75003 Paris France,48.86283,2.36006
La Seine Café,4.8,N/A,Brasseries,32 ter boulevard de la Bastille 75012 Paris France,48.84974,2.36861
L'Ecumoir,4.3,€€€,"French, Breakfast & Brunch",64 rue St Sabin 75011 Paris France,48.8594306,2.368688
Le Chanard,5.0,€€€,"Wine Bars, Bistros, Cocktail Bars",8 rue Saint-Paul 75004 Paris France,48.8530299,2.36129
Le Potager du Marais,3.9,€€€,"Vegetarian, French",24 rue Rambuteau 75003 Paris France,48.861,2.35435
Chef Jean Yves,5.0,N/A,Restaurants,74 rue du Vertbois 75011 Paris France,48.8676699,2.35526
FAT,5.0,€€,"Cocktail Bars, Fast Food",8 rue de Beauce 75003 Paris France,48.86268,2.361287
Le Rigmarole,4.5,N/A,French,10 rue du Grand Prieuré 75011 Paris France,48.8651249400194,2.36902158274741
Bidoche,4.6,€€€€,"Butcher, Steakhouses",7 rue Jean-Pierre Timbaud 75011 Paris France,48.865065098626,2.36704371716871
Sybaris,4.7,N/A,Modern European,86 rue des Archives 75003 Paris France,48.8630732,2.3607829
Le Voltigeur,3.5,€€,Brasseries,45 rue des Francs Bourgeois 75004 Paris France,48.858237,2.359385
L'Attirail,3.8,€,"Bars, French",9 rue au Maire 75003 Paris France,48.8647569334516,2.35355493240995
Banoi,5.0,N/A,Vietnamese,129 rue Amelot 75011 Paris France,48.86416,2.36674
Happy Nouilles,4.0,€,Chinese,95 rue Beaubourg 75003 Paris France,48.864524,2.355095
Cellar,4.7,N/A,French,9 rue de Crussol 75011 Paris France,48.8641205,2.36765
Ogata,4.4,N/A,"Japanese, Cocktail Bars",16 rue Debelleyme 75003 Paris France,48.862114,2.363333
La Pharmacie,3.9,€€€,French,22 rue Jean-Pierre Timbaud 75011 Paris France,48.86544,2.36901
Au Passage,4.1,€€€,"Modern European, Tapas/Small Plates",1 bis passage Saint Sébastien 75011 Paris France,48.86139,2.36819
La Massara,4.1,€€€,Italian,70 rue de Turbigo 75003 Paris France,48.86628,2.35976
Des Gars dans la Cuisine,4.1,€€€,"Breakfast & Brunch, French",72 Rue Vieille Du Temple 75003 Paris France,48.85946,2.35996
Pierre Sang,4.4,€€€,"French, Korean",55 rue Oberkampf 75011 Paris France,48.86461,2.37233
Mancora,4.6,€€,Peruvian,16 rue Dupetit-Thouars 75003 Paris France,48.86562,2.36153
Ambassade d’Auvergne,4.0,€€€,"Bistros, Brasseries",22 rue du grenier saint lazare 75003 Paris France,48.8629,2.3533592
Le Mary Céleste,4.1,€€,"Tapas/Small Plates, Cocktail Bars",1 rue Commines 75003 Paris France,48.8617491625597,2.36506368136342
L'Alivi,3.9,€€,"French, Corsican",27 rue du Roi de Sicile 75004 Paris France,48.85648,2.357409
Le Petit Italien,4.6,€€€,Italian,5 Rue St Gilles 75003 Paris France,48.85788,2.36638
Le Gai Moulin,3.8,€€,"French, Bistros",10 rue Saint-Merri 75004 Paris France,48.859380740856,2.3531397526323
L'Auberge des Deux Ponts,4.3,€€,French,7 rue des Deux Ponts 75004 Paris France,48.85145,2.3561
Le Sévigné,3.8,€€,Brasseries,15 rue du Parc Royal 75003 Paris France,48.8586855354204,2.3627148272782
L'Alsacien,4.7,€€,"Beer Bar, Wine Bars, Alsatian",6 rue Saint-Bon 75004 Paris France,48.8582259709568,2.35042658065285
Le Grand Cerf,4.3,€€,"Bars, French, Cafes",79 bd Sebastopol 75002 Paris France,48.86415,2.35113
Clown Bar,3.7,€€€,"French, Modern European",114 rue Amelot 75011 Paris France,48.8636,2.36714
Le Bistro Lyonnais,4.5,€€,French,6 rue Michel Chasles 75012 Paris France,48.84698,2.37383
Au Cœur du Marais,3.8,€€,"Cafes, French, Breakfast & Brunch",58-60 rue des Francs Bourgeois 75004 Paris France,48.8600311311081,2.35704498605502
Au Bouquet Saint-Paul,4.0,€€,Brasseries,85 rue Saint-Antoine 75004 Paris France,48.854536,2.362741
Theory,4.8,N/A,"Burgers, Vegan",11 Boulevard des Filles du Calvaire 75003 Paris France,48.86214,2.3667
Neighbours,4.5,€€,"Breakfast & Brunch, Coffee & Tea",89 boulevard Beaumarchais 75003 Paris France,48.8590500706762,2.367372
Le Carreau,4.0,N/A,Bistros,1 rue Charles-François Dupuis 75003 Paris France,48.8649775842368,2.36279636484506
Café Charlot,3.7,€€,Cafes,38 rue de Bretagne 75003 Paris France,48.8630405795265,2.36258512774969
Chez Julien,3.3,€€€,French,1 rue Pont Louis-Philippe 75004 Paris France,48.854774,2.35515
Café Saint-Régis,4.1,€€,"French, Breakfast & Brunch",6 rue Jean du Bellay 75004 Paris France,48.853392,2.353736
La Tartine,3.8,€€,French,24 rue de Rivoli 75004 Paris France,48.85591,2.3583
Pamela Popo,4.2,€€€,French,15 rue François Miron 75004 Paris France,48.855795,2.357046
Tavline,4.5,€€,Middle Eastern,25 rue du Roi de Sicile 75004 Paris France,48.85642,2.35753
Le Bossu,5.0,N/A,"Steakhouses, French",17 rue des Deux Ponts 75004 Paris France,48.85167,2.35629
Casa San Pablo,4.0,€€,Tapas Bars,5 rue Sévigné 75004 Paris France,48.85542,2.3618199
Les Mousquetaires,4.4,N/A,"Brasseries, Bars, French",41 rue Saint-Antoine 75004 Paris France,48.8537899,2.36473
Le Trésor,3.7,€€€,Auvergnat,9 rue du Trésor 75004 Paris France,48.85708,2.35761
Les Fous de L'Ile,4.1,€€,French,33 rue des Deux Ponts 75004 Paris France,48.853338,2.356783
Au Bougnat,4.2,€€€,French,26 rue Chanoinesse 75004 Paris France,48.8543,2.35002
Miznon,4.4,€€,Middle Eastern,22 rue des Ecouffes 75004 Paris France,48.857097,2.359008
Don Giovanni,4.6,€€€,Italian,19 rue François Miron 75004 Paris France,48.85571,2.35719
Vingt Vins d'Art,4.5,€€,"Wine Bars, Tapas/Small Plates",16 rue de Jouy 75004 Paris France,48.8552111,2.3579088
L'Orangerie,3.8,€€€,French,28 rue Saint-Louis-en-l'Ile 75004 Paris France,48.8516165,2.3575704
Tamarind,4.5,€€€,Thai,33 rue François Miron 75004 Paris France,48.85549,2.3582
Le Temps des Cerises,4.4,€€€,"French, Bistros, Cafes",31 rue de la Cerisaie 75004 Paris France,48.852569,2.364184
Feria Café,3.8,N/A,Bistros,4 rue du Bourg Tibourg 75004 Paris France,48.8569416181228,2.35576719493079
Oyster Club,4.3,N/A,Seafood,15 rue de Jouy 75004 Paris France,48.855156,2.357836
L'Ilot Vache,4.2,€€€,French,35 rue Saint-Louis en l'île 75004 Paris France,48.85181,2.35655
Le Paradis du Fruit,4.3,€€,"Juice Bars & Smoothies, Restaurants, Cocktail Bars",Centre commercial Les 4 Temps Le Dôme - Niveau 3 Paris France,48.856614,2.3522219
Sorza,3.9,€€,Italian,51 rue Saint Louis en l'Ile 75004 Paris 04 France,48.85213,2.3555799
Tasca,4.8,€€€,Portuguese,37 rue du Roi de Sicile 75004 Paris France,48.8567380952455,2.35630586743355
L'Ambroisie,4.0,€€€€,French,9 place des Vosges 75004 Paris France,48.855341,2.364356
Louis Philippe,3.6,€€,French,66 quai de l'Hôtel de Ville 75004 Paris France,48.854721,2.354728
L'ardoise,4.3,N/A,Bistros,1-5 rue Caron 75004 Paris France,48.854971997083,2.36230798065662
Les Mauvais Garcons,4.0,€€€,Lyonnais,4 rue des Mauvais Garcons 75004 Paris France,48.8568206,2.35507
Aux Anysetiers du Roy,4.0,€€€,French,61 rue Saint-Louis en l'ile 75004 Paris France,48.8523799,2.35489
Le Ju',3.5,N/A,Brasseries,16 rue des Archives 75004 Paris France,48.857691,2.354803
La Cerise Sur la Pizza,4.3,€€,Pizza,32 rue Saint-Paul 75004 Paris France,48.8540176,2.3622578
Le Trumilou,4.0,€€,French,84 quai de l'Hôtel de Ville 75004 Paris France,48.85493,2.35395
Ryaki,5.0,€€,Restaurants,24 rue de la Verrerie 75004 Paris France,48.85746,2.35439
Sur le Pouce,4.0,€€,"French, Creperies, Sandwiches",7 rue d'Arcole 75004 Paris France,48.8545006,2.3500074
Yann Couvreur,4.3,N/A,"Patisserie/Cake Shop, Breakfast & Brunch, Coffee & Tea",23bis rue des Rosiers 75004 Paris France,48.85738,2.35894
La Favorite,3.2,€€,"French, Bistros, Cafes",4 rue de Rivoli 75004 Paris France,48.85524,2.36113
La Rôtisserie d'Argent,3.9,€€€,"French, Rotisserie Chicken",19 quai de la Tournelle 75005 Paris France,48.84996,2.35462
Benedict,4.0,€€€,"Bistros, Breakfast & Brunch",19 rue Sainte-Croix de la Bretonnerie 75004 Paris France,48.85819,2.35611
Le Sergent Recruteur,4.6,N/A,French,41 rue Saintt Louis en l'Ile 75004 Paris France,48.85196,2.3561
La Place Royale,4.0,€€€,French,2 bis place des Vosges 75004 Paris France,48.854953,2.365532
La Réserve de Quasimodo,4.1,€€,"Wine Bars, Bistros",4 rue de la Colombe 75004 Paris France,48.854698,2.35043
L'Ebouillanté,3.9,€€,"French, Tea Rooms",6 rue des Barres 75004 Paris France,48.855001,2.35492042327883
Chez Hanna,3.9,€€,"Kosher, Middle Eastern, Falafel",54 rue des Rosiers 75004 Paris France,48.85779,2.3582
Bodega 64,3.7,€€,"Tapas Bars, Basque",64 rue François Miron 75004 Paris France,48.855445990244,2.3583094716811
Le Petit Celestin,3.9,€€€,French,12 quai des Célestins 75004 Paris France,48.8521,2.36113
La Mangerie,4.2,€€€,Tapas/Small Plates,7 rue de Jarente 75004 Paris France,48.85569,2.36281
Lino Ristorante,4.7,N/A,Italian,29 rue des Francs Bourgeois 75004 Paris France,48.85734,2.36136
Les Marronniers,3.4,€€,"French, Bars",18 rue des Archives 75004 Paris France,48.857739351895,2.3547755924791
L'Elephant du Nil,3.8,€€,French,125 rue Saint Antoine 75004 Paris 04 France,48.85516,2.36022
The Lizard Lounge,3.9,€€,"Pubs, Burgers, Cocktail Bars",18 rue Bourg Tibourg 75004 Paris France,48.8574,2.35627
La Sarrasine,4.5,€€,Creperies,12 Rue Jean Du Bellay 75004 Paris France,48.8532,2.35394
Minori,4.2,€€,Japanese,14 rue Cloche Perce 75004 Paris France,48.85631,2.35721
Chez Ajia,4.4,N/A,Taiwanese,4 rue du Roi de Sicile 75004 Paris France,48.855745,2.3607825
La Grange aux Canards,4.4,N/A,French,23 rue Frédéric Sauton 75005 Paris France,48.85058,2.34901
Schwartz's Deli,3.8,€€,"Breakfast & Brunch, American, Burgers",16 rue des Ecouffes 75004 Paris France,48.857191,2.358667
Le Petit Pontoise,4.5,€€€,Bistros,9 rue de Pontoise 75005 Paris France,48.8498845,2.3520959
Bistrot Marguerite,3.1,€€,Brasseries,1 place de l'Hotel de Ville 75004 Paris France,48.85629,2.35063
Brasserie de l'Isle Saint-Louis,3.3,€€€,Brasseries,55 quai de Bourbon 75004 Paris France,48.85286,2.35328
Le Mistral,3.8,€€,"Bistros, Brasseries",2 Place du Chatelet 75004 Paris France,48.857416,2.34761
Café Voulez-Vous,3.8,€€,"Bars, Brasseries",18 rue du Temple 75004 Paris France,48.858519,2.353491
Le Marcounet,4.0,€€€,"French, Breakfast & Brunch, Boat Tours",14 quai de l'Hotel de Ville 75004 Paris France,48.8541627,2.3555334
Le Tournebièvre,4.7,€€€,French,65 quai de la Tournelle 75005 Paris France,48.85121,2.35085
Bistrot de l'Oulette,4.2,€€,French,38 rue Tournelles 75004 Paris France,48.85555,2.36729
Il Gigolo,4.4,€€,Italian,11 rue de la Huchette 75005 Paris France,48.8529369,2.3460259
Le Sarrasin et le Froment,4.3,€€,"Creperies, French",84-86 rue Saint Louis en L'ile 75004 Paris 04 France,48.852691,2.354208
Cafe Les Rosiers,4.6,€€,"Pizza, Cafes, Coffee & Tea",2 rue des Rosiers 75004 Paris France,48.8564612,2.3608376
Hanoi,4.0,€€€,"Vietnamese, Pan Asian",41 rue Sainte-Croix de la Bretonnerie 75004 Paris France,48.85879,2.35436
Bel Canto,4.0,€€€€,"French, Italian",72 quai de l'Hôtel de Ville 75004 Paris France,48.85475,2.35441
Tête à Tête,4.3,N/A,"Jazz & Blues, French, Caterers",47 Boulevard Henri IV 75004 Paris France,48.852777,2.367897
Le Petit Châtelet,4.2,€€€,French,39 rue de la Bûcherie 75005 Paris France,48.852616,2.34702
Le Comptoir,5.0,N/A,"Breakfast & Brunch, Coffee & Tea",18-20 rue des Archives 75004 Paris France,48.85778,2.3548
Le Paradiso,4.7,N/A,"Pizza, French, Italian",81 rue Saint Louis en l'Ile 75004 Paris France,48.8528,2.35371
Le Marché,3.5,€€,French,2 place du Marché Sainte-Catherine 75004 Paris France,48.8552831,2.3629788
L'Acanthe,4.2,€€,French,22 rue Saint Martin 75004 Paris France,48.8586072,2.3502165
La Rose de Damas,4.5,€€,Middle Eastern,6 boulevard Saint-Germain 75005 Paris France,48.84954,2.35521
La Caféothèque,4.1,€€,Cafes,52 rue de l'Hôtel de Ville 75004 Paris France,48.8544567561743,2.35578002299167
Grizzli Café,3.8,€€,"French, Basque",7 rue Saint-Martin 75004 Paris France,48.858656,2.3497275
Tire Bouchon,4.4,N/A,Restaurants,47 rue Descartes 75005 Paris France,48.84522,2.34919
La Petite,4.5,€,"Tapas/Small Plates, Beer Bar, Cocktail Bars",53 rue Lacépède 75005 Paris France,48.8442734612328,2.34994811217089
Istanbul,4.8,€,"Donairs, Turkish, Greek",1 rue des Fossés Saint-Jacques 75005 Paris France,48.84608,2.34326
Rumeurs,5.0,€€,"Wine Bars, French",34 rue des Ecoles 75005 Paris France,48.8491211,2.3470199
Au Bistrot de la Montagne,4.3,€€€€,"French, Venues & Event Spaces",38 rue Montagne Sainte-Geneviève 75005 Paris France,48.84783,2.3485
Les Papilles,4.5,€€€,"Wine Bars, Bistros",30 rue Gay-Lussac 75005 Paris France,48.84461,2.34174
Le Café de la Nouvelle Mairie,4.0,€€,French,19 rue des Fossés-Saint-Jacques 75005 Paris France,48.84541,2.34485
La Cave à Vin,4.4,€€,"French, Beer, Wine & Spirits",7 rue de l'Epée de Bois 75005 Paris France,48.84158,2.35095
L'Estrapade,4.7,€€€,French,15 rue de l'Estrapade 75005 Paris France,48.84479,2.34662
Le Passage,3.9,€€,French,46 rue des Fossés Saint-Bernard 75005 Paris France,48.847601,2.352987
La Petite Périgourdine,3.9,€€€,"French, Wine Bars",39 rue des Ecoles 75005 Paris France,48.84887,2.34744
Quartier Latin,4.5,€€,"Italian, Pizza",1 Rue Mouffetard 75005 Paris France,48.84499,2.34914
La Méthode,4.0,€€,"French, Bistros",2 rue Descartes 75005 Paris France,48.847253,2.348555
L'Elica,4.5,N/A,"Pizza, Italian",28 rue des Écoles 75005 Paris France,48.84894,2.34769
La Crêperie,4.0,€€,Creperies,12 rue Soufflot 75005 Paris France,48.8468,2.34326
Nossa,4.5,€,"Portuguese, Rotisserie Chicken",1 rue de l'Ecole Polytechnique 75005 Paris France,48.84739,2.34817
Au Doux Raisin,4.5,€€€,"French, Wine Bars",29 rue Descartes 75005 Paris France,48.8458648,2.3491279
Le Prince Racine,4.5,N/A,"Cafes, Brasseries, French",22 rue Monsieur le Prince 75006 Paris France,48.849857,2.339913
L'Epoque,4.4,€€,Bistros,81 rue du Cardinal Lemoine 75005 Paris France,48.8447551,2.349747
Au Bon Coin,4.6,€€,Bistros,21 rue de la Collégiale 75005 Paris France,48.83813,2.35184
Le Coupe-Chou,4.0,€€€,French,11 rue de Lanneau 75005 Paris France,48.8484358,2.3463842
Boulangerie Moderne,4.4,N/A,"Bakeries, Sandwiches",16 rue des Fossés Saint-Jacques 75005 Paris France,48.84551,2.34422
Chez Gladines,4.0,€€,"Basque, French Southwest, Bistros",44 bd Saint-Germain 75005 Paris France,48.8496,2.35046
Le Choupinet,4.0,€€€,"Brasseries, French, Cafes",58 boulevard Saint-Michel 75006 Paris France,48.8477332,2.340714
Hugo & Co,4.3,N/A,French,48 rue Monge 75005 Paris France,48.84518,2.352
Les Ursulines,4.6,€€,French,56 rue Gay Lussac 75005 Paris France,48.84257,2.34289
Le Village Monge,3.9,€€,"Brasseries, French, Bistros",96 rue Monge 75005 Paris France,48.84080516323,2.3516267533212
Loulou,3.9,€€,"Gluten-Free, Breakfast & Brunch, Beer Bar",90 boulevard Saint-Germain 75005 Paris France,48.851192,2.344806
Le Bistro V,5.0,N/A,"Bistros, French",56 bd de Port-Royal 75005 Paris France,48.83768,2.34622
Le Resto,4.6,€€,French,8 rue Tournefort 75005 Paris France,48.843977,2.348041
La Maison du Dim Sum,3.9,€€,"Buffets, Dim Sum",4 rue des Fossés Saint Jacques 75005 Paris France,48.84594,2.343413
Le Coup de Torchon,4.5,€€,Restaurants,187 Rue St Jacques 75005 Paris France,48.845,2.34239
Bonjour Viet Nam,4.7,N/A,Vietnamese,2 place de la Contrescarpe 75005 Paris France,48.8446527765382,2.34963990747929
Maison Marie,3.8,N/A,"Brasseries, French",222 rue Saint-Jacques 75005 Paris France,48.8447825,2.3420057
Restaurant Sichuan,5.0,N/A,Szechuan,33 rue Descartes 75005 Paris France,48.845648,2.349218
Au P'tit Grec,4.2,€,"Creperies, Sandwiches",68 rue Mouffetard 75005 Paris France,48.84278,2.3496
JOZI Brunch Panthéon,4.9,€€,"Coffee & Tea, Breakfast & Brunch",3 rue Valette 75005 Paris France,48.84787,2.34706
Les Arènes,4.5,€€,Brasseries,16 rue Linné 75005 Paris France,48.84508,2.35486
La Table de Genevieve,4.3,€€€,French,8 rue Descartes 75005 Paris France,48.84714335,2.34869242
Asia Room,4.6,€€,Chinese,16 rue des Écoles 75005 Paris France,48.848582771977,2.34907899486279
Le Verre à Pied,4.6,€€,Bistros,118 bis rue Mouffetard 75005 Paris France,48.840284,2.349719
Tran Tran Zai,4.9,N/A,Chinese,3 rue de l'École Polytechnique 75005 Paris France,48.84746,2.34806
Les 5,4.3,€€,French,136 Rue Mouffetard 75005 Paris 05 France,48.83961,2.34981
La Crête,4.3,€€,Greek,85 rue Mouffetard 75005 Paris France,48.8417353,2.3497009
Terra Nova,4.2,€€€,"Pizza, Italian",17 rue des Fossés Saint-Jacques 75005 Paris France,48.8455422396994,2.34470425394625
Le Petit Médicis,4.4,€€€,French,13 rue de Médicis 75006 Paris France,48.84787,2.3399
La Maison de Verlaine,3.9,€€€,French,39 rue Descartes 75005 Paris France,48.84552,2.349222
Arrivederci pizzeria ,4.7,N/A,"Pizza, Italian",47 rue Gay-Lussac 75005 Paris France,48.84175,2.34349
Ricette Ristorante,5.0,N/A,"Italian, Gluten-Free",10 rue du Cardinal Lemoine 75005 Paris France,48.849105,2.354031
Les Baux de Paris,5.0,N/A,"Cocktail Bars, Tapas Bars",71 rue Mouffetard 75005 Paris France,48.842317,2.34996344894171
Heureux Comme Alexandre,4.3,€€,Fondue,24 rue Parcheminerie 75005 Paris France,48.85178,2.34472
Restaurant Le Saint Jacques,4.3,€,"French, Bars, Creperies",71 rue Saint Jacques 75005 Paris France,48.84990603,2.34502047
Le Reminet,4.3,€€€,French,3 rue Grands Degrés 75005 Paris France,48.8512278,2.3499396
Les Fêtes Galantes,4.2,€€,French,17 rue Ecole Polytechnique 75005 Paris France,48.84789,2.34735
Les Caves de Bourgogne,3.9,€€,Brasseries,144 rue Mouffetard 75005 Paris France,48.839176,2.349675
Le Vaudésir,4.8,€,Bistros,41 rue Dareau 75014 Paris France,48.83035,2.33548
Au Petit Bistro,3.9,€€,French,89 rue Mouffetard 75005 Paris France,48.841679,2.34975
Au Père Louis,4.0,€€,"Wine Bars, French",38 rue Monsieur le Prince 75006 Paris France,48.848966,2.340349
Mobster Diner,4.3,€€,"Burgers, Diners",20 rue des Boulangers 75005 Paris France,48.845871,2.3532801
Nuage Café,4.8,€€,"Shared Office Spaces, Cafes",14 rue des Carmes 75005 Paris France,48.84917,2.3475
Le Porte Pot,4.3,€€,"Wine Bars, Bistros",14 rue Boutebrie 75005 Paris France,48.85134,2.34452
Don Lucas,5.0,€€,Tapas Bars,42 rue Monge 75005 Paris France,48.84568,2.35197
Lilane,4.4,€€€,French,8 Rue Gracieuse 75005 Paris France,48.84214,2.35155
L'Artisan du Burger,4.6,N/A,Burgers,18 boulevard Saint-Germain 75005 Paris France,48.8496656069062,2.35380101948977
Chez René,4.1,€€€,French,14 boulevard Saint-Germain 75005 Paris France,48.849618,2.354332
13 au Jardin,4.4,N/A,Cafes,5 rue de Médicis 75006 Paris France,48.84864,2.3394499
Le Petit Lux,4.7,€€,Bistros,29 rue de Vaugirard 75006 Paris France,48.84822,2.33121
La Cuisine de Philippe,4.6,€€€,French,25 rue Servandoni 75006 Paris France,48.8491,2.33483
Crazy Pasta,4.7,€€,Italian,4 rue Blainville 75005 Paris France,48.844588,2.348745
Eric Kayser,4.3,€,"Bakeries, Sandwiches, Delicatessen",8 rue Monge 75005 Paris France,48.848938,2.349609
Shakespeare and Company,4.5,€€,"Bookstores, Cafes",37 rue de la Bûcherie 75005 Paris France,48.852658704771,2.3469621526521
Le Petit Prince de Paris,3.9,€€€,French,12 rue de Lanneau 75005 Paris 05 France,48.848422,2.346513
Foyer Mon Vietnam,4.3,€€,Vietnamese,24 rue de la Montagne Sainte-Geneviève 75005 Paris France,48.848363,2.348414
Kokoro,4.8,€€,French,36 rue des Boulangers 75005 Paris France,48.846255,2.3524304
Le Duc,4.3,N/A,Brasseries,9 rue Victor Cousin 75005 Paris France,48.847525893097,2.34228831059272
Le Cardinal Saint-Germain,4.1,€€,Brasseries,11 boulevard Saint-Germain 75005 Paris France,48.8492932702688,2.3543923797622
Bar à Iode,4.5,€€€,Seafood,34 bd Saint Germain 75005 Paris France,48.8496895,2.35166
Le P'ti,5.0,N/A,French,42 rue de la Montagne Saint Genevieve 75005 Paris France,48.845385,2.351244
Le Quartier Général,3.9,€€€,"Bistros, Cafes",82 boulevard Saint Germain 75005 Paris France,48.8508075903854,2.34569248898697
Gaudeamus,3.9,€€,"French, Russian",47 rue Montagne Ste Geneviève 75005 Paris France,48.84701,2.34811
Le Descartes,3.6,€€,"French, Bistros",1 rue Thouin 75005 Paris France,48.84507,2.34981
Comptoir du Panthéon,3.5,€€,French,5 rue Soufflot 75005 Paris France,48.846501811655,2.3440907168984
Loubnane,4.5,€€,Lebanese,29 rue Galande 75005 Paris France,48.851289,2.347708
Le Gay Lussac,3.9,€€,"Cafes, French, Coffee & Tea",15 Rue Royer Collard 75005 Paris France,48.84602,2.34103
Au Petit Suisse,3.9,€€,"Brasseries, French",16 rue de Vaugirard 75006 Paris France,48.84905,2.33901
La Forge,4.5,€€€,French,14 Rue Pascal 75005 Paris France,48.83853,2.34969
Café Saint-Victor,3.7,€€€,"Brasseries, French",11 rue Monge 75005 Paris France,48.84849,2.35012
Kitchen Terre,4.6,N/A,French,26 boulevard Saint-Germain 75005 Paris France,48.849619,2.353134
Nadia,4.9,€,"Creperies, French, Wine Bars",94 bd Saint Germain 75005 Paris France,48.8512795,2.3440643
Café Madame,4.5,N/A,"Breakfast & Brunch, Cafes",25 Rue de Vaugirard 75006 Paris France,48.8483521138708,2.33179995352665
Au Port du Salut,4.1,€€€,French,163 rue Saint-Jacques 75005 Paris France,48.84598,2.34309
Aux Trois Mailletz,4.0,€€€,"French, Cabaret, Piano Bars",56 rue Galande 75005 Paris France,48.852597,2.346612
Le Sirocco,4.3,€€,Moroccan,8 bis rue Gobelins 75013 Paris France,48.83588,2.35193
Au Petit Village,4.9,N/A,French,06 rue Coypel 75013 Paris France,48.8332625215691,2.35616696743751
Chez le Libanais,4.5,€,Lebanese,35 et 36 rue Saint-André-des-Arts 75006 Paris France,48.85331,2.34166
Café Latin,4.4,N/A,Brasseries,30 rue Saint André des Arts 75006 Paris France,48.853617,2.342281
Chez Nicos,4.2,€,"Fast Food, Creperies",44 rue Mouffetard 75005 Paris France,48.843136499531,2.3493767461919
Verse Toujours,4.1,€€,"French, Brasseries, Cafes",3 ave des Gobelins 75005 Paris France,48.83843,2.3510399
Le Bistrot des Campagnes,4.6,€€,Bistros,6 rue Léopold Robert 75014 Paris France,48.84096,2.3307
Sourire,4.6,€€€,"Tapas Bars, French",27 rue Galande 75005 Paris France,48.851109,2.347656
L'Inévitable,4.0,€€,Bistros,22 rue Linné 75005 Paris France,48.84546,2.3548
La Petite Bretonne,4.7,€€,Creperies,48 rue Mouffetard 75005 Paris France,48.843434,2.34943
L'Écurie,4.2,€€€,French,58 rue de la Montagne Sainte Geneviève 75005 Paris France,48.847248368302,2.348087092224
La Truffière,4.0,€€€€,French,4 rue Blainville 75005 Paris France,48.84448,2.348821
Tour d'Argent,3.9,€€€€,French,15 quai de la Tournelle 75005 Paris France,48.8499101,2.3551019
Chez Léa,3.9,€€,French,5 rue Claude Bernard 75005 Paris France,48.8386457,2.349939
L'Authre Bistro,3.5,€€,"Bars, Brasseries, French",22 rue des Ecoles 75005 Paris France,48.84883,2.34843
Petit Saigon,4.5,€€,Vietnamese,30 rue Carmes 75005 Paris France,48.848335,2.34704
Le Colvert,4.7,N/A,French,54 rue Saint-André des Arts 75006 Paris France,48.85357,2.3401146
Restaurant Godjo,3.9,€€,"Ethiopian, African",8 rue de l'Ecole Polytechnique 75005 Paris France,48.8476466,2.3479957
Les Trublions,5.0,€€€,"French, Modern European",34 rue de la Montagne Sainte Geneviève 75005 Paris France,48.8480186,2.34846
Le Grenier de Notre-Dame,4.0,€€,Vegetarian,18 rue de la Bucherie 75005 Paris France,48.85195,2.348489
Hong Phuc,5.0,N/A,Vietnamese,33 Rue Descartes 75005 Paris France,48.84576,2.3491
La Bonbonnière,5.0,N/A,"Bistros, French",36 Rue Gay Lussac 75005 Paris France,48.84431,2.34205
L'Atelier Maître Albert,3.9,€€€,"French, Steakhouses",1 Rue Maitre Albert 75005 Paris France,48.85109,2.35017
Le Café d'Avant,4.0,€€,French,35 rue Claude Bernard 75005 Paris France,48.8396828,2.347323
Breakfast in America,3.8,€€,"Breakfast & Brunch, Diners",17 rue des Ecoles 75005 Paris France,48.847871903457,2.3510840228227
Han Lim,4.2,€€,Korean,6 rue Blainville 75005 Paris France,48.84445,2.34843
Saigon d'Anton,4.9,N/A,Vietnamese,24 rue Monsieur le Prince 75006 Paris France,48.8496499,2.34005
Le 27 Madame,4.8,N/A,French,27 rue Madame 75006 Paris France,48.84978,2.33187
Aux Prés,4.0,€€€,"Bistros, French",27 rue du Dragon 75006 Paris France,48.85275,2.33046
L'Oliveto,4.5,N/A,Italian,38 rue de Buci 75012 Paris France,48.85339,2.33595
Récamier Sté le,4.1,N/A,Restaurants,4 rue Récamier 75007 Paris France,48.85221,2.32805
L'Antre d'Eux,4.7,€€,Bistros,16 Rue Mézières 75006 Paris France,48.85024,2.32993
L'Avant Comptoir du Marché,4.6,€€,Tapas Bars,14 rue Lobineau 75006 Paris France,48.852029,2.335585
Brasserie O'Neil,4.0,€€,"Brasseries, Pubs",20 rue des Canettes 75006 Paris France,48.85185,2.33366
Restaurant Georgette,4.6,€€€,"Brasseries, Modern European, French",44 rue d'Assas 75006 Paris France,48.847323186089,2.32983749359846
Evi Evane,4.3,€€,"French, Greek",10 rue Guisarde 75006 Paris France,48.8519,2.33428
Le Bistrot d'Henri,4.2,€€€,French,16 rue Princesse 75006 Paris France,48.852067,2.334431
Le Paris,5.0,€€€€,French,45 bd Raspail 75007 Paris France,48.85121,2.32706
Ralph's,3.7,€€€,"American, Burgers, Cocktail Bars",173 boulevard Saint-Germain 75006 Paris France,48.85421,2.33072
Seulement Sea,4.7,N/A,Seafood,9 rue Lobineau 75004 Paris France,48.8516186,2.336174
Le Vin en Bouche,4.6,€,"French, Wine Bars",27 rue de l'Abbé-Grégoire 75006 Paris France,48.848229,2.325204
La Grande Cremerie,4.5,€€,"Wine Bars, French",8 rue Grégoire-de-Tours 75006 Paris France,48.853398816452,2.33779953372959
Huitrerie Régis,4.4,€€€,"Seafood, Beer, Wine & Spirits",3 rue de Montfaucon 75006 Paris France,48.852768,2.336005
Les Deux Magots,3.7,€€€,Cafes,6 place Saint-Germain des Prés 75006 Paris France,48.85389,2.33336
Positano,4.2,€€€,"Pizza, Italian",15 rue des Canettes 75006 Paris France,48.85202,2.33369
Maison Sauvage,3.8,€€,"French, Breakfast & Brunch",5 rue de Buci 75006 Paris France,48.85366,2.33806
La Petite Chaise,4.2,€€€,"French, Brasseries",36 rue Grenelle 75007 Paris France,48.8538,2.32749
Le Bonaparte,3.4,€€,"French, Cafes",42 rue Bonaparte 75006 Paris France,48.8545,2.33362
Café Varenne,4.4,€€,"French, Bars",36 rue de Varenne 75007 Paris France,48.85413,2.32354
Monteverdi,4.1,€€€,"Italian, Piano Bars",5-7 rue Guisarde 75006 Paris France,48.8519092657977,2.33494230307576
La Divina Comedia,5.0,N/A,Italian,12 rue du Dragon 75006 Paris France,48.8536931584103,2.3310548812151
Machon d'Henri Le,4.1,€€,"French, Cafes, Coffee & Tea",8 Rue Guisarde 75006 Paris France,48.85188,2.33453
Café Cassette,3.6,€€,"Breakfast & Brunch, French, Wine Bars",73 rue de Rennes 75006 Paris France,48.85108,2.33069
Le Bon Saint Pourçain,4.3,€€€€,French,10 bis rue Servandoni 75006 Paris France,48.8501701,2.3346901
La Bastide Odeon,3.9,€€€,French,7 rue Corneille 75006 Paris France,48.84936,2.33912
Huguette,4.0,€€,Seafood,81 rue de Seine 75006 Paris France,48.8532753282413,2.337029
Cézembre,4.8,€€€,French,17 rue Grégoire de Tours 75006 Paris France,48.853,2.3378899
Marco Polo,4.1,€€€,Italian,8 rue de Condé 75006 Paris France,48.8513499,2.33814
L'Avant Comptoir de la Mer,4.5,€€€,"Seafood, Tapas/Small Plates",3 carrefour de l'Odéon 75006 Paris France,48.852069,2.338819
La Crêpe Rit du Clown,4.2,€€,Creperies,6 rue des Canettes 75006 Paris France,48.8524,2.3337
Le Comptoir du Relais,4.7,N/A,Bistros,3 carrefour de l'Odéon 75006 Paris France,48.85202,2.3388
Le Perron,4.3,€€,Italian,6 rue Perronet 75007 Paris France,48.85532,2.33038
La Maison de Thé,4.0,€€€,"Chinese, Tea Rooms",76 rue Bonaparte Place saint-sulpice 75006 Paris France,48.8510094,2.33268
Le Pub Saint Germain,4.3,N/A,"Pubs, Breakfast & Brunch, Pizza",17 rue de l'Ancienne Comédie 75006 Paris France,48.853079,2.338845
Le Bistrot Family,4.0,€€,"French, Burgers",18 rue Guisarde 75006 Paris France,48.85182783,2.33391479
Cook'n Saj,4.9,€€,Lebanese,5 rue Bernard Palissy 75006 Paris France,48.85314,2.33197
L'Atelier de Joël Robuchon,4.1,€€€€,"French, Modern European",5 rue de Montalembert Hôtel du Pont Royal 75007 Paris France,48.8568107229545,2.32785068883627
Semilla,4.2,€€€,"French, Brasseries",54 Rue Seine 75006 Paris France,48.85406,2.33691
Au 35,4.3,N/A,French,35 Rue Jacob 75006 Paris France,48.85576,2.33326
Le Café Laurent,4.6,€€€,"Bars, Jazz & Blues, Cafes",Hôtel d'Aubusson 33 rue Dauphine 75006 Paris France,48.85476,2.33948
The Moose,3.8,€€,"Restaurants, Sports Bars",16 rue des Quatre Vents 75006 Paris France,48.8518,2.3377
Le Dragon,4.3,€€€,"Bars, Cafes",22 rue du Dragon 75006 Paris France,48.853258,2.330728
Le Balto,4.5,N/A,"Bars, Bistros",15 rue Guénégaud 75006 Paris France,48.85529,2.33777
BREIZH Café Odéon | La Crêpe Autrement,4.5,€€,"Creperies, Cafes",1 rue de l'Odéon 75006 Paris France,48.851586,2.33885
Pasta Luna,5.0,€€,"Delicatessen, Sandwiches",15 rue de Mézières 75006 Paris 06 France,48.8501731,2.3301594
Chez Marcel,4.7,€€€,French,7 Rue Stanislas 75006 Paris 06 France,48.84379,2.32835
Street Bangkok,4.9,N/A,"Thai, Barbeque",73 rue de Seine 75006 Paris France,48.85407,2.33701
Blueberry,4.0,€€€,Japanese,6 rue Sabot 75006 Paris France,48.85278,2.33149
Le Montaigne,4.8,€€€,"French, Brasseries",103 bd du Montparnasse 75006 Paris France,48.8423718050096,2.32900813254093
Caffè Toscano,4.4,N/A,Restaurants,34 Rue des Saints Pères 75006 Paris France,48.855053,2.330721
L’Atelier Artisan Crêpier,4.7,N/A,Creperies,10 rue Mabillon 75006 Paris France,48.8522,2.33513
L'Auberge Saint-Germain,4.3,N/A,"Middle Eastern, French, Arabic",204 bd saint Germain 75007 Paris France,48.8550485,2.3291159
Le Saint Placide,4.2,€€,"French, Breakfast & Brunch, Cafes",127 rue de Rennes 75006 Paris France,48.84673,2.32685
Brasserie Lipp,3.2,€€€,Brasseries,151 boulevard Saint-Germain 75006 Paris France,48.8537670316064,2.33248152513124
La Rotonde,4.0,€€€,Brasseries,105 boulevard du Montparnasse 75006 Paris France,48.8423557905769,2.32917424911591
Assanabel,4.6,€€,Lebanese,38 rue Jacob 75006 Paris France,48.85569,2.3336
La Maison du Jardin,4.2,€€€,French,27 rue Vaugirard 75006 Paris France,48.84829,2.33144
Little Breizh,4.6,€€,Creperies,11 rue Grégoire de Tours 75006 Paris France,48.853215,2.337917
"Judy, cantine qualitarienne",3.8,€€,"Gluten-Free, Juice Bars & Smoothies, Breakfast & Brunch",18 rue de Fleurus 75006 Paris France,48.84715,2.3304
Le Rousseau,3.8,€€,French,45 rue Cherche Midi 75006 Paris France,48.84911,2.32581
Café de Flore,3.5,€€€,Cafes,172 boulevard Saint-Germain 75006 Paris France,48.854161,2.332603
Bellota-Bellota,4.7,€€€,"Wine Bars, Delicatessen, Tapas Bars",64 Rue Seine 75006 Paris France,48.85321,2.33696
Oenosteria,4.3,€€€,Italian,40 rue Grégoire de Tours 75006 Paris France,48.85198,2.33749
Marzo,4.6,N/A,"Pizza, Italian",5 rue Paul-Louis Courier 75007 Paris France,48.8560299,2.32495
Regal,5.0,N/A,"Delicatessen, French, Wine Bars",32 rue Monsieur le Prince 75006 Paris France,48.84928,2.34021
Les Botanistes,4.5,€€€,French,11 bis rue Chomel 75007 Paris France,48.85203,2.32546
Eggs & Co,4.3,€€,Breakfast & Brunch,11 rue Bernard Palissy 75006 Paris France,48.853123,2.331244
Moustache,4.5,€€€,French,3 Rue Sainte Beuve 75006 Paris 06 France,48.8442,2.329891
Pizza Chic,3.4,€€€,Pizza,13 Rue Mézières 75006 Paris France,48.85023,2.3308
Le Plongeoir,4.0,€€€,"Coffee & Tea, French",17 rue de Sèvre 75006 Paris France,48.85161,2.32784
Le Restaurant,4.5,€€€€,"French, Breakfast & Brunch",13 rue des Beaux-Arts 75006 Paris France,48.85635,2.33524
Opium la Cabane,4.7,€€€,"Seafood, Italian",44 rue Dauphine 75006 Paris France,48.8541513,2.3387211
Le Pré aux Clercs,3.7,€€,"French, Bars",30 rue Bonaparte 75006 Paris France,48.8554,2.33383
La Robe & la Mousse,4.7,N/A,"Beer Bar, Brasseries",3 rue Monsieur le Prince 75006 Paris France,48.85165,2.33906
Boucherie Roulière,4.0,€€€,"French, Bars",24 rue des Canettes 75006 Paris France,48.851617,2.333639
Restaurant Vagenende,3.7,€€€,"Bistros, Brasseries",142 bd Saint-Germain 75006 Paris France,48.85293,2.33748
Le Saint Germain,3.8,N/A,Brasseries,62 rue du Bac 75007 Paris France,48.85581,2.32531
Cosi,4.2,€€,"Sandwiches, Italian",54 rue de Seine 75006 Paris France,48.854112459873,2.3369066867567
Le Petit Vatel,4.2,€€,French,5 rue Lobineau 75006 Paris France,48.85166,2.33558
L'Atlas,3.5,€€€,"French, Seafood",11 rue Buci 75006 Paris France,48.853644,2.33762
La Boussole,3.8,€€,"Asian Fusion, Pan Asian",12 rue Guisarde 75006 Paris France,48.8519089,2.3342589
Treize Bakery Paris,4.6,N/A,Breakfast & Brunch,5 rue de Médicis 75006 Paris France,48.84864,2.3394499
Brasserie Lutetia,4.0,N/A,French,45 bd Raspail 75006 Paris France,48.85121,2.32706
Comme A Savonnieres,4.1,€€€,"French, Bistros",18 Rue Guisarde 75006 Paris France,48.85181,2.33384
Les Jardins de Saint Germain,3.7,€€,French,40 Rue Dragon 75006 Paris France,48.85224,2.33002
Le Christine,4.0,€€€,French,1 rue Christine 75006 Paris France,48.854343,2.340276
Le Mandarin,4.1,N/A,"Thai, Chinese, Pan Asian",5 Rue Montfaucon 75006 Paris France,48.85275,2.33582
Bistro Ernest,4.2,€€,"Bistros, Vegetarian",21 rue de Seine 75006 Paris France,48.85643,2.33669
PG's Bar a Manger,4.3,€€,"Salad, Burgers, Brasseries",15 Rue Assas 75006 Paris France,48.84895,2.32872
Compagnie Des Vins Surnaturels,4.2,€€€,"Wine Bars, Tapas Bars",7 rue Lobineau 75006 Paris France,48.85167,2.33634
Les Délices de Buci,4.7,N/A,Chinese,14 rue de Buci 75006 Paris France,48.853918,2.33716
Au Vieux Colombier,3.6,€€,French,65 Rue Rennes 75006 Paris France,48.85155,2.33111
Fajitas,4.2,€€,Mexican,15 rue Dauphine 75006 Paris France,48.8555801,2.3400906
Luisa Maria,3.9,N/A,"Italian, Pizza",12 rue Monsieur-le-Prince 75006 Paris France,48.850258,2.33953
Le Parisien,3.5,N/A,"Bars, Brasseries",54 Rue Four 75006 Paris France,48.85223,2.33051
Abattoir Végétal,3.8,N/A,"Vegan, Vegetarian",9 rue Guisarde 75006 Paris France,48.85186,2.33466
Le Petit Broc,3.8,€€,Brasseries,206 boulevard Raspail 75014 Paris France,48.841575,2.329496
Le Tourne-Bouchon,4.7,€€,"Mediterranean, Middle Eastern, Moroccan",71 bd Raspail 75006 Paris France,48.8491,2.32771
La Gorgée,3.4,N/A,"French, Bistros",22 rue de Fleurus 75006 Paris France,48.84711,2.32976
Café de Mars,4.6,€€,"French, Mediterranean, Asian Fusion",11 rue Augereau 75007 Paris France,48.85731,2.30205
La Fontaine de Mars,4.3,€€€,French,129 rue Saint-Dominique 75007 Paris France,48.858394,2.302568
Le Petit Varenne,4.6,N/A,French,57 rue de Bellechasse 75007 Paris France,48.8550790218646,2.32012369119343
Le Petit Cler,4.2,€€,Bistros,29 rue Cler 75007 Paris France,48.85743,2.30604
Le Bistro de Gaspard,5.0,€€,French,35 avenue Duquesne 75007 Paris France,48.851707,2.3101429
Au Coin de la Rue,4.2,€€,"Bars, French",34 rue de Bourgogne 75007 Paris France,48.85755,2.31751
Le Florimond,4.6,€€€,French,19 avenue de la Motte Picquet 75007 Paris France,48.85529,2.30718
Le Presles,4.4,N/A,Brasseries,76 rue de la Fédération 75015 Paris France,48.8529748326172,2.29690234912584
D'Chez Eux,4.4,€€€€,French,2 ave de Lowendal 75007 Paris France,48.85309,2.3091
Le Félix,4.8,N/A,French,79 avenue de Ségur 75015 Paris France,48.84739,2.30599
Le Bosquet,4.0,€€,"Bars, Brasseries",46 avenue du Bosquet 75007 Paris France,48.8560807716799,2.30452508354831
Reed - Restaurant,4.8,€€€,French,11 bis rue Amelie 75007 Paris France,48.859,2.3075899
Le Pavillon,4.3,€€,French,53 bis avenue de la Motte Picquet 75015 Paris France,48.850051,2.299672
L'Éclair,4.0,€€,"French, Cocktail Bars",32 rue Cler 75007 Paris France,48.8570786,2.3061299
Gusto Italia,4.3,€€,"Italian, Pizza",199 rue de Grenelle 75007 Paris France,48.8563199,2.30288
Bleu Olive,4.4,€,"Cafes, Delicatessen",184 rue de Grenelle 75007 Paris France,48.857844,2.306207
Le Basilic,3.8,€€,"Bistros, French",2 Rue Casimir Périer 75007 Paris France,48.857561786614,2.3189434165688
Le Petit Littré,4.3,€€,French,16 rue Littré 75006 Paris France,48.845261,2.324004
Dong Phat,4.4,€€,Vietnamese,10 rue Malar 75007 Paris France,48.86052,2.3057
Le Bistrot d'Eléonore et Maxence,4.4,N/A,"French, Wine Bars",39 avenue Duquesne 75007 Paris France,48.85144,2.31096
Firmine,4.0,€€€,"Italian, French",38 bis avenue de Suffren 75015 Paris France,48.8545428785436,2.29536492165825
Pasco,4.1,€€€,"French, Mediterranean, Cocktail Bars",74 bd la Tour Maubourg 75007 Paris France,48.85609,2.30959
Le Volant Basque,4.6,€€,Basque,13 rue Béatrix Dussane 75015 Paris France,48.8499,2.29127
20 Eiffel,4.5,N/A,French,20 rue de Monttessuy 75007 Paris France,48.85948,2.29853
Le Recrutement,3.7,€€,Brasseries,36 boulevard la Tour Maubourg 75007 Paris France,48.85995,2.31019
Su Misura,4.4,€€,"Italian, Pizza",22 avenue Rapp 75007 Paris France,48.85924,2.3004
Les Frères Bretons,4.8,€€,Creperies,117 boulevard de Grenelle 75015 Paris France,48.8490914,2.2987172
Café New York,4.5,N/A,French,6 avenue de New York 75016 Paris France,48.86418,2.29965
Kozy Bosquet,4.3,€€,"Coffee & Tea, Breakfast & Brunch, Sandwiches",79 avenue Bosquet 75007 Paris France,48.85542,2.30539
Au Petit Tonneau,4.6,€€€,Bistros,20 rue Surcouf 75007 Paris France,48.860648,2.30943
La Coïncidence,4.5,€€,French,15 rue Mesnil 75116 Paris France,48.868105,2.284365
L'Envie,4.6,€€,French,57 rue Pernety 75014 Paris France,48.8340977,2.317738
Le Petit Caillou,4.2,€€,Bistros,210 rue de Grenelle 75007 Paris France,48.85665,2.30323
Restaurant de la Tour,4.8,€€€,French,6 Rue Desaix 75015 Paris France,48.85439,2.29505
L'Obé,4.4,N/A,French,Hôtel de Crillon Paris 10 place de la Concorde 75008 Paris France,48.865844,2.32142
Tavolino,4.1,€€,"Italian, Bistros",38 rue de Bourgogne 75007 Paris France,48.85728,2.31734
Chez France,4.5,€€€,French,9 rue Amélie 75007 Paris France,48.859058,2.30758631534532
L'Auberge Bressane,4.0,€€€,French,16 avenue de la Motte Picquet 75007 Paris France,48.8565635959637,2.30848165676116
Le P'tit Troquet,4.6,€€€,French,28 rue de l'Exposition 75007 Paris France,48.85705,2.30335
Les Parisiennes,4.1,€€€,French,17 avenue de la Motte Picquet 75007 Paris France,48.85626,2.30837
L'Esplanade,3.4,€€€,"Brasseries, French",52 rue Fabert 75007 Paris France,48.85834,2.3112
La Recreation,4.5,€€,"French, Mediterranean",47 ave de la Motte-Picquet 75015 Paris France,48.8508108710176,2.30044
Chez Germaine,4.2,€€,French,30 Rue Pierre Leroux 75007 Paris France,48.84825,2.31957
The Cottage,4.5,€€,"British, Tea Rooms, Breakfast & Brunch",8 rue de Commaille 75007 Paris France,48.85279,2.32396
Zéro Zéro Sèvres,4.6,€€,"Food, French",46 rue de Sèvres 75007 Paris France,48.8484295,2.3205218
Costa d'Amalfi,4.5,€€,Italian,65 rue de l'Université 75007 Paris France,48.859208,2.323421
Au Bon Accueil,4.5,€€€,French,14 rue Monttessuy 75007 Paris France,48.8596099,2.2993434
Chez Graff,4.6,€€€,French,62 rue de Bellechasse 75007 Paris France,48.8561834,2.3208578
Belhara,4.4,€€€,"Basque, French, Bistros",23 Rue Duvivier 75007 Paris France,48.85613,2.30739
Cocorico,4.4,N/A,"Breakfast & Brunch, Cafes",5 rue du Bac 75007 Paris France,48.85908,2.329159
Les 2 Gros,4.5,N/A,"French, Steakhouses, Barbeque",81 avenue Bosquet 75007 Paris France,48.855214,2.305569
Le Drop Café,4.0,€€,Brasseries,36 rue Bellechasse 75007 Paris France,48.85816,2.32283
Harper's,4.8,N/A,"American, Steakhouses",46 bis boulevard du Montparnasse 75015 Paris France,48.8446799,2.32087
Café Jacques,5.0,N/A,French,27 quai Jacques Chirac 75007 Paris France,48.8617772,2.2986786
Casa di Mario,4.9,N/A,Italian,132 rue du Bac 75007 Paris France,48.851463,2.323327
Cleo,4.7,N/A,"French, Wine Bars",19 boulevard de la Tour-Maubourg 75007 Paris France,48.86054,2.31042
Arnaud Nicolas,4.7,N/A,"French, Meat Shops",46 avenue de la Bourdonnais 75007 Paris France,48.85694,2.30098
La Laiterie Sainte-Clotilde,4.4,€€€,French,64 rue de Bellechasse 75007 Paris France,48.85583,2.3206
Les Cocottes,4.1,€€€,"Bistros, Brasseries",135 rue Saint Dominique 75007 Paris France,48.85819,2.30183
Auguste,4.5,€€€€,French,54 rue Bourgogne 75007 Paris France,48.85628,2.317
Les Ambassades,3.9,€€,"French, Bars",75 rue du Bac 75007 Paris France,48.8548,2.32445
Sud Café,4.2,N/A,"Brasseries, Cafes, Coffee & Tea",105 Rue Grenelle 75007 Paris France,48.85657,2.31652
Chez Savy,4.3,€€€,"French, Brasseries",23 rue Bayard 75008 Paris France,48.8670726,2.3077693
La Source,3.3,€€,"French, Wine Bars, Brasseries",49 bd de la Tour Maubourg 75007 Paris France,48.85805,2.31003
Khajuraho,4.8,N/A,Indian,14 bd de la Tour Maubourg 75007 Paris France,48.861542,2.310126
Crêperie le Crépuscule,4.7,€€,Creperies,18 rue Amélie 75007 Paris France,48.85813,2.307599
Da Rocco,3.8,€€,Italian,119 rue de Grenelle 75007 Paris France,48.857518,2.317234
Café Roussillon,4.0,€€,Cafes,186 rue de Grenelle 75007 Paris France,48.85768,2.30593
L'Arpège,4.0,€€€€,French,84 rue de Varenne 75007 Paris France,48.855753,2.316982
Le Bistro de Longchamp,4.5,€€,Bistros,40 rue de Longchamp 75016 Paris France,48.86511,2.2892
Le Toucan,4.3,€€,Brasseries,226 Rue Vaugirard 75015 Paris France,48.84057,2.30478
Au Reveil du XV,4.7,€€,French,108 rue Falguière 75015 Paris France,48.8384788156894,2.31139198532815
Black Pinky,4.3,€€,Pan Asian,30 bis rue Gaïté 75014 Paris France,48.83907,2.32298
Mariette,4.8,€€€€,French,24 rue Bosquet 75007 Paris 07 France,48.856016196205,2.3058138676935
L'Ardoise,4.1,€€€,French,28 rue du Mont Thabor 75001 Paris France,48.86617,2.32709
Cinq-Mars,4.3,€€€,French,51 rue de Verneuil 75007 Paris France,48.85862,2.32687
Ô'Cocher,5.0,N/A,"Burgers, French, Wine Bars",45 rue de Babylone 75007 Paris France,48.8516169890096,2.31854908168316
Tabac de l'Université,4.8,€€€,French,151 rue de l'Université 75007 Paris France,48.861151,2.305332
Le Vauban,3.6,€€€€,French,7 place Vauban 75007 Paris 07 France,48.85331,2.3118
Le Boccador,4.6,€€€,Italian,20 rue Boccador 75008 Paris France,48.8671584,2.302363
Le 7ème Vin,4.1,€€€,French,68 avenue Bosquet 75007 Paris France,48.85484,2.30541
Mido,4.3,N/A,Chinese,53 rue Bourgogne 75007 Paris France,48.856274,2.3172661
Fitzgerald,4.0,N/A,"Cocktail Bars, French",54 Boulevard de la Tour-Maubourg 75007 Paris France,48.85869,2.30987
Le Marignan,4.5,N/A,Brasseries,18 Rue Marignan 75008 Paris France,48.86859,2.30636
Waknine,4.3,€€€,French,9 avenue Pierre 1er de Serbie 75016 Paris France,48.865602,2.295358
La Ferronnerie,4.3,€€€,French,18 rue de la Chaise 75007 Paris France,48.8543345,2.3134029
La Cantine du Troquet,4.6,N/A,Bistros,79 rue du Cherche Midi 75006 Paris France,48.84775,2.3233
Le Bistrot des Gascons,4.0,€€,"Bars, French",26 avenue de Tourville 75007 Paris France,48.8542212711761,2.30672904254517
La Bonne Excuse,4.7,€€€,French,48 rue de Verneuil 75007 Paris France,48.858552,2.327725
La Veraison,4.6,€€,French,64 rue Croix Nivert 75015 Paris France,48.84497,2.29721
L'Auberge du Champ de Mars,4.7,€€,"Food, Restaurants",18 rue de l'Exposition 75007 Paris France,48.85758,2.30293
L'Abreuvoir,4.2,N/A,French,24 rue du Docteur Finlay 75015 Paris France,48.85193,2.28904
Café de l'Empire,4.1,€€,Brasseries,17 rue du Bac 75007 Paris France,48.85828,2.32846
Chez Monsieur,4.3,€€€,French,11 rue Chevalier de Saint-George 75008 Paris France,48.8687763890177,2.32504606246948
Brasserie Le Bourbon,3.5,€€,Brasseries,1 Place Palais Bourbon 75007 Paris France,48.86036,2.31828
Club des Poètes,4.4,€€,"Restaurants, Comedy Clubs",30 Rue Bourgogne 75007 Paris France,48.85791,2.31761
Jaïs,4.4,N/A,French,3 rue Surcouf 75007 Paris France,48.8621584988538,2.30933565115413
Le Relais de l’Entrecôte,4.0,€€€,Steakhouses,15 rue Marbeuf 75008 Paris France,48.86808,2.30295
Le Paris Montparnasse,3.9,€€,"Breakfast & Brunch, Brasseries",43 avenue du Maine 75014 Paris France,48.841152,2.321768
David Toutain,4.4,€€€€,Modern European,29 rue Surcouf 75007 Paris France,48.860227,2.309735
L'Escapade,4.0,€€,Brasseries,25 avenue Duquesne 75007 Paris France,48.852578,2.309121
Fleurus Café,4.4,€€,"Breakfast & Brunch, Cafes",39 avenue Kléber 75016 Paris France,48.868828,2.291766
Aux Ministères,4.4,N/A,"Tobacco Shops, Brasseries",53 avenue de Ségur 75007 Paris France,48.8495983,2.3083897
Koï,4.6,€€,Japanese,34 rue Chevert 75007 Paris France,48.85455,2.30765
Carmine Café,4.1,€€,"Pizza, Cafes, Bars",73 avenue de Suffren 75007 Paris France,48.851581,2.300535
Chez Ming,4.1,€,"Fast Food, Chinese",6 Rue Monttessuy 75007 Paris France,48.8598,2.30014
Palace Thai,4.1,€€,Thai,23 avenue Duquesne 75007 Paris France,48.8526636,2.3090976
Food Breizh,4.3,€,"Creperies, Waffles, Sandwiches",Quai Anatole France 75007 Paris France,48.8620349952945,2.32135019591013
Le Bistro Marbeuf,4.0,€€€,"French, Lyonnais",21 rue Marbeuf 75008 Paris France,48.86852,2.3035
Le Messager,4.2,€,French,28 rue du General Bertrand 75007 Paris France,48.8466,2.31394
Chez Nagi,4.3,€€,Lebanese,121 avenue de l'Université 75007 Paris France,48.8611081,2.3091371
La Dauphine,3.2,€€,French,237 boulevard Saint-Germain 75007 Paris France,48.860996707553,2.3205418960528
Le Bizetro,4.9,€€€,French,6 rue Georges Bizet 75116 Paris France,48.86676,2.29858
Armonia,4.5,N/A,"Modern European, Bistros",15 rue du Champ de Mars 75007 Paris France,48.8563,2.3055
L'Affable,4.4,€€€,"Bistros, French, Wine Bars",10 rue de Saint-Simon 75007 Paris France,48.85622,2.32381
Birdy,4.4,N/A,"Burgers, Fast Food",49 avenue Bosquet 75007 Paris France,48.857098,2.30458
Le Sens Unique,4.5,€€€,"French, Wine Bars",47 rue de Ponthieu 75008 Paris France,48.8716553,2.3064859
Chez Barbara,4.3,€€,French,47 rue Washington 75008 Paris France,48.8742905,2.30463
Baroche,4.2,€€,Brasseries,101 rue la Boétie 75008 Paris France,48.871315,2.307362
Maison Bès,4.5,€€,French,31 boulevard Malesherbes 75008 Paris France,48.87282,2.32103
Le P'tit Wagram,4.6,€€,"Brasseries, French, Cafes",45 avenue de Wagram 75017 Paris France,48.87737,2.29736
Kozy,4.6,€,"Coffee & Tea, Breakfast & Brunch, Sandwiches",48 rue de Ponthieu 75008 Paris France,48.87158,2.3069799
Le Valois,4.3,€€€,"French, Cafes, Brasseries",1 place Rio de Janeiro 75008 Paris France,48.8775413677239,2.3102497908318
L'Atelier des Compères,4.8,N/A,French,56 Rue Galilée 75008 Paris France,48.871509681657,2.2982930599373
Le Hide,4.5,€€€,French,10 Rue Gén Lanrezac 75017 Paris France,48.8763,2.29401
Le Chat Blanc,4.2,N/A,French,61 avenue Franklin Delano Roosevelt 75008 Paris France,48.87165,2.30987
Le Parthénon,3.9,€€,"French, Cafes",60 rue de Courcelles 75008 Paris France,48.877283,2.30679
Le Malesherbes,5.0,N/A,Brasseries,17 boulevard Malesherbes 75008 Paris France,48.8719951926101,2.32171032206353
Chez Gabrielle,4.7,€€€,French,7 rue de l'Etoile 75017 Paris France,48.87669,2.29619
Shabestan,4.6,N/A,Persian/Iranian,5 rue du Commandant Rivière 75008 Paris France,48.8727,2.30932
Caffé Caesar,4.7,€€,Italian,4 avenue Carnot 75017 Paris France,48.8752983,2.293983
Le Chalet du 8ème,4.3,€€,"Creperies, French",8 rue du Commandant Rivière 75008 Paris France,48.872891,2.309093
Le Colonel Moutarde,4.0,N/A,"Cafes, Rotisserie Chicken",85 bd Haussmann 75008 Paris France,48.8744011,2.32125
Le Maresquier,4.3,N/A,French,12 place Saint-Augustin 75008 Paris France,48.875601,2.319902
L'Epicure,4.6,€€€€,"French, Breakfast & Brunch",112 rue du Faubourg Saint-Honoré 75008 Paris France,48.871697,2.314657
Limon,4.8,N/A,"Cocktail Bars, Brasseries",14 rue de Marignan 75008 Paris France,48.868731,2.30652
Le Carré Élysées,4.1,€€€,"Bars, French, Brasseries",49 avenue franklin delano roosevelt 75008 Paris France,48.8701377,2.3098851
Le Comptoir de l'Artoise,4.9,€€€,Italian,5 rue d'Artois 75008 Paris France,48.872302,2.308658
Francois Felix,3.8,€€,French,9 rue Boissy d'Anglas 75008 Paris France,48.8680267333984,2.32127594947815
Village Madeleine,4.5,N/A,Brasseries,14 rue Tronchet 75008 Paris France,48.87177,2.32597
Le Boissy d'Anglas,4.6,€€€,Brasseries,41 rue Boissy d'Anglas 75008 Paris France,48.870102,2.32229
L'Atelier des Pains,4.2,€€,"French, Bakeries, Wine Bars",8 rue de Ponthieu 75008 Paris France,48.87033,2.31088
L'atelier des Batignolles,5.0,€€€,French,12 rue des Batignolles 75017 Paris France,48.8838997,2.3227999
Marloe,4.0,€€,Modern European,12 rue du Commandant Rivière 75008 Paris France,48.8727608,2.30843
Comptoir Malesherbes,4.5,€€,French,40 bd Malesherbes 75008 Paris France,48.87962,2.31378
Oliva,4.6,N/A,Italian,16 rue des Saussaies 75008 Paris France,48.871588,2.318436
Juvia,4.7,N/A,"French, Asian Fusion",105 rue du Faubourg Saint-Honoré 75008 Paris France,48.8725152824004,2.31106605380774
Pompei,4.3,€€,"Italian, Pizza",19 rue de Castellane 75008 Paris France,48.872433,2.324167
Le Do Ré Mi,4.5,N/A,Brasseries,215 Rue Fbg St Honoré 75017 Paris France,48.8655,2.33064
Le Mermoz,4.7,N/A,French,16 rue Jean Mermoz 75008 Paris France,48.870737,2.311543
O'Bistrot de Tom,4.3,€€,"French, Bars",59 rue d'Anjou 75008 Paris France,48.87383,2.32247
Le Gabriel,4.7,€€€€,French,42 avenue Gabriel 75008 Paris France,48.869764,2.313287
Louvard,4.2,€€,"Bakeries, Sandwiches",43-45 rue de Miromesnil 75008 Paris France,48.87387,2.31588
The Publisher,4.9,€€€,"Gastropubs, Pubs, Burgers",33 rue de Constantinople 75008 Paris France,48.8805743518068,2.31821188267692
Vin Bis Boétie,3.9,€€,Brasseries,20 bis rue de la Boétie 75008 Paris France,48.87442,2.316429
L'Italien,4.6,€€€,"Pizza, Italian",40 rue de Ponthieu 75008 Paris France,48.87132,2.30778
La Chinoiserie,4.7,N/A,"Breakfast & Brunch, Cocktail Bars, French",24 boulevard Malesherbes 75008 Paris France,48.872896,2.321542
Élysées Istanbul,4.4,N/A,"Halal, Turkish",19 rue de Berri 75008 Paris France,48.87274,2.30459
Amélie,4.5,N/A,"French, Seafood",26 place de la Madeleine 75008 Paris France,48.87046,2.3259007
Bar Italia Brasserie,4.9,€€€,Italian,22 rue Moncey 75009 Paris France,48.879965,2.329399
Le Murillo,4.0,N/A,"Sports Bars, Brasseries",63 Rue Courcelles 75008 Paris France,48.8775919,2.3058961
Le Bouchon et l'Assiette,4.5,€€€,French,127 Rue Cardinet 75017 Paris France,48.88632,2.31264
La Maison de la Truffe,4.2,€€€€,French,19 place de la Madeleine 75008 Paris France,48.87074,2.3239899
Apicius,4.4,€€€€,French,20 rue d'Artois 75008 Paris France,48.873629,2.307616
La Boucherie Café,5.0,€€,French,14 bd des Batignolles 75017 Paris France,48.883419,2.3259201
L'Orient des Champs,4.5,€€,Lebanese,3 rue de Courcelles 75008 Paris France,48.873183,2.31127761
Café Belloy,4.3,N/A,Cafes,37 avenue Kléber 75116 Paris France,48.868988,2.291886
Villa Sophia,4.0,€€,Italian,53 rue de Chaillot 75116 Paris France,48.868301,2.298513
Soon,4.0,€€,Korean,20 Rue Jean Mermoz 75008 Paris France,48.87095,2.31163
L'Avenue,3.4,€€€€,Brasseries,41 avenue Montaigne 75008 Paris France,48.867245649644,2.3062838838531
La Pâte à Nouilles,4.1,€€,Chinese,8 rue de Castellane 75008 Paris France,48.87238,2.3250799
Le Rouergue,3.8,€€,Brasseries,34 rue Jouffroy d'abbans 75017 Paris France,48.88597,2.30923
JJ,4.5,€€€,French,34 rue de Penthièvre 75008 Paris France,48.872439120821,2.31388020961324
Bistrot Bassano,4.6,N/A,Greek,7 rue de Bassano 75116 Paris France,48.8685798,2.2966684
Oh My Noodles,4.0,N/A,Chinese,10 rue du Colisée 75008 Paris France,48.87055,2.30798
Jardin d'Hiver,4.5,N/A,"Breakfast & Brunch, Tea Rooms",10 Place de la Concorde 75008 Paris France,48.8673,2.32113
La Cuisiniere Lyonnaise,4.8,€€€,French,37 rue Saint-Ferdinand 75017 Paris France,48.87788,2.28794
Le P'tit Canon,4.3,€€€,French,36 rue Legendre 75017 Paris France,48.8843131,2.31478
Café Mademoiselle,3.9,N/A,Bistros,21 rue Duphot 75001 Paris France,48.868696,2.325257
La Haute Cloche,5.0,€€€,Bistros,13 rue Quentin-Bauchart 75008 Paris France,48.86941,2.30008
Chez André,3.6,€€€,French,12 rue Marbeuf 75008 Paris France,48.867812,2.302855
la crêperie,4.6,€,"Creperies, French",12 rue Pasquier 75008 Paris France,48.872816,2.323262
A la Châtaigne,4.5,€€€,Corsican,22 rue de Miromesnil 75008 Paris France,48.87287,2.31599
Café L'Estel,4.2,€€,"Cafes, Bistros, Brasseries",13 Rue Clément Marot 75008 Paris France,48.86758,2.30333
Le Vaisseau Vert,4.8,N/A,French,10 rue de Parme 75009 Paris France,48.88134,2.32757
Mamma Primi,4.3,€€€,Italian,71 rue des Dames 75017 Paris France,48.8836330233648,2.32069513100517
Jacopo,4.8,N/A,Bistros,5 bis rue Vernet 75008 Paris France,48.8711592656518,2.30015784502029
Le Camondo,4.6,N/A,"French, Bars",61 bis rue de Monceau 75008 Paris France,48.87858,2.31228
Les Cocottes Arc de Triomphe,4.2,€€€,French,Sofitel Arc de Triomphe 2 avenue Bertie Albrecht 75008 Paris France,48.8750360435431,2.301239535582
Le Bistrot de Louise,5.0,N/A,French,16 Rue Tocqueville 75017 Paris France,48.88251,2.31376
Le Coin du Rocher,4.3,€€,Bistros,88 rue Rocher 75008 Paris France,48.88051,2.31738
Dominique Bouchet,4.3,€€,French,21 Rue Treilhard 75008 Paris France,48.87693,2.31431
Bistrot Cézanne,4.4,€€,Bistros,13 avenue Myron Herrick 75008 Paris France,48.87414,2.30989
Pedra Alta,3.4,€€€,"Seafood, Portuguese",25 rue Marbeuf 75008 Paris France,48.86894,2.30398
Le Boudoir,4.3,€€€,"French, Wine Bars",25 rue du Colisée 75008 Paris France,48.871049,2.308968
Le Clos Bourguignon,3.8,€€,Brasseries,39 rue de Caumartin 75009 Paris France,48.87282,2.32826
Le 17e Parallèle,4.3,€€,French,17 rue du Colisee 75008 Paris France,48.87079,2.308093
Auberge Saint Augustin,4.5,N/A,"Cards & Stationery, Bistros, Breakfast & Brunch, Brasseries",49 Rue de Laborde 75008 Paris France,48.875465,2.317564
Naï,4.3,€€,"Lebanese, Brasseries",8 avenue de la Grande-Armée 75017 Paris France,48.87484,2.29283
Officina Schenatti,4.7,€€,Italian,15 rue Frédéric Sauton 75005 Paris France,48.8734001,2.3140359
L’Entrecôte de Paris,3.5,€€€,French,29 rue de Marignan 75008 Paris France,48.86965,2.30645
Framboise,4.2,€€,Creperies,7 rue de Ponthieu 75008 Paris France,48.8702248907354,2.31066942214966
La Famiglia di Rebellato,4.5,€€,"Italian, Pizza",73 bis avenue Niel 75017 Paris France,48.8824013081356,2.29636790615627
La Pivoine Chinoise,4.7,€€,Chinese,47 rue Berri 75008 Paris France,48.874533494889,2.3077415827322
L'Étoile Venitienne,4.2,€€,"French, Brasseries",20 ave Kléber 75116 Paris France,48.87121,2.29298
L'Empire du 8ème,3.9,€€,"French, Lounges, Mediterranean",11 rue Jean Mermoz 75008 Paris France,48.8709,2.31147
Le Comptoir du Marché,5.0,N/A,French,Champs-Elysées 75008 Paris France,48.869576,2.30825
Le Village,4.2,€€€,"French, Breakfast & Brunch, Brasseries",Cité Berryer 75008 Paris France,48.86917,2.32292
Bistrot d'Yves,4.6,€€€,French,33 rue Cardinet 75017 Paris France,48.8822,2.30447
Le 114 Faubourg,4.6,€€€€,French,114 faubourg Saint-Honoré 75008 Paris France,48.871785,2.314472
24 le Restaurant,4.6,N/A,French,24 rue Jean Mermoz 75008 Paris France,48.87108,2.3118
Le Petit Paris,4.5,€€€,French,32 rue Rennequin 75017 Paris France,48.88203,2.2976899
Le Pain Quotidien,4.0,€€,"Breakfast & Brunch, Bakeries, Coffee & Tea",68 rue Pierre Charron 75008 Paris France,48.86995,2.30441
Ô Comptoir du Sud-Ouest,4.7,N/A,"Bars, French",19 rue de Miromesnil 75008 Paris France,48.87247,2.31593
Le Bivouac,3.8,N/A,"French, Lounges",Hôtel Napoléon 40 avenue de Friedland 75008 Paris France,48.87425,2.29804
Café Jacquemart-André,4.3,€€€,"French, Tea Rooms",158 bd Haussmann 75008 Paris France,48.875529292807,2.31035833028642
La Gazette Paris,4.5,€€€,"French, Bars, Tea Rooms",28 Rue Duret 75016 Paris France,48.87523,2.28647
Le Sauvage,4.6,N/A,French,7 rue Roy 75008 Paris France,48.8752813,2.3183007
Beefbar,3.9,€€€€,Steakhouses,5 rue Marbeuf 75008 Paris France,48.86749,2.30209
Le Clarence,4.4,N/A,"French, Wine Bars",31 avenue Franklin Delano Roosevelt 75008 Paris France,48.86742,2.30992
Lasserre,4.4,€€€€,French,17 ave Franklin D Roosevelt 75008 Paris France,48.86612,2.31006
Langousta,4.9,€€,Seafood,20 rue Singer 75016 Paris France,48.856266,2.278149
Pavillon Ledoyen,4.2,€€€€,French,8 avenue Dutuit 75008 Paris France,48.8661071818398,2.31645151287496
Makoto Aoki,4.6,€€€,French,19 rue Jean Mermoz 75008 Paris France,48.87141,2.31198
Pomze,4.3,€€€,French,109 bd Haussmann 75008 Paris France,48.87525,2.31618
La Table de Lucie,4.3,N/A,French,29 rue d'Edimbourg 75008 Paris France,48.87929,2.31906
Les Demoiselles,4.4,€€,Bistros,23 rue Léon Jost 75017 Paris France,48.8811757,2.3017574
Laborde,4.0,€€€€,"French, Wine Bars, Breakfast & Brunch",44 rue de Laborde 75008 Paris France,48.8754886410577,2.31677098836053
Biosphère Café,4.5,€€,"Creperies, Gluten-Free, Patisserie/Cake Shop",47 rue de Laborde 75008 Paris France,48.875447,2.3178
L'Orriu Di Beauvau,4.0,N/A,"Brasseries, Corsican",4 Rue Saussaies 75008 Paris France,48.87113,2.31675
Beckett,5.0,€€€,"Bistros, Gastropubs, French",8 rue Godot de Mauroy 75009 Paris France,48.8705788,2.32687
Hortense,3.4,€,French,5 rue Paul Cézanne 75008 Paris France,48.874509,2.309262
L'Escient,4.5,€€€,French,28 rue Poncelet 75017 Paris France,48.879577,2.298061
Brasserie Printemps,4.0,€€,Brasseries,64 bd Haussmann 75009 Paris France,48.8736,2.32826
La Maison,4.0,€€€,"Bistros, Brasseries",28 place Saint Ferdinand 75017 Paris France,48.87805,2.2883
Buvette,4.1,€€,"French, Wine Bars",28 rue Henri Monnier 75009 Paris France,48.8804470273044,2.33758428078072
Domenico’s,4.6,N/A,Italian,8 rue Saint-Lazare 75009 Paris France,48.876947,2.338323
Le Bon Georges,4.3,€€€,Bistros,45 rue Saint-Georges 75009 Paris France,48.877657,2.337197
Chez Vous,4.2,€€,"French, Bars, Breakfast & Brunch",15 Rue Choron 75009 Paris France,48.8778,2.33953
Le Pantruche,4.4,€€€,French,3 rue Victor Massé 75009 Paris France,48.88046,2.3402
La Rimaudière,4.0,N/A,Brasseries,2 rue Martyrs 75009 Paris France,48.8767788,2.3394484
Le Grain de Folie,4.5,€€,"Bars, French",12 rue Notre Dame de Lorette 75009 Paris 09 France,48.877588,2.3385151
Naruto Ramen,4.5,N/A,Ramen,57 rue du Faubourg Montmartre 75009 Paris France,48.87559,2.34047
Bo Man Café,3.7,€€,"Brasseries, Cafes, French, Coffee & Tea",33 Rue Notre Dame De Lorette 75009 Paris France,48.87898,2.33686
Le Bébé,4.2,€€,"Bistros, French",8 rue Pierre Sémard 75009 Paris France,48.8773165,2.3470364
Pi Hour,4.4,€€,"Pizza, Bars, Tapas Bars",32 rue de la Rochefoucauld 75009 Paris France,48.8791312,2.3347856
Le Poulbot,4.4,€€,"French, Bistros",3 rue Poulbot 75018 Paris France,48.887586,2.339819
Chez Paolo,4.9,N/A,Italian,21 rue Pierre Fontaine 75009 Paris France,48.88175,2.33394
Les Saisons,4.5,€€€,French,52 rue Lamartine 75009 Paris France,48.876663,2.340152
Puce,4.9,€€,"Cafes, Tapas Bars, Gastropubs",1 rue Chaptal 75009 Paris France,48.8804907003159,2.33468323306787
Pink Mamma,4.0,€€€,"Steakhouses, Barbeque, Italian",20 bis rue de Douai 75009 Paris France,48.88187,2.3346
Bouillon Pigalle,3.6,€€,French,22 boulevard Clichy 75018 Paris France,48.88258,2.33744
La Bascule,4.6,€€,"Wine Bars, French",24 rue Durantin 75018 Paris France,48.8862305,2.3364999
Pelops,4.5,€€,Greek,13 rue des Martyrs 75009 Paris France,48.87756,2.33946
Dulcinea,4.5,€€,"Italian, Pizza",41 rue Pierre Fontaine 75009 Paris France,48.8831801,2.3328846
Augusto,4.8,N/A,"Italian, Pizza, Wine Bars",14 rue Victor Massé 75009 Paris France,48.88071,2.33907
Le Cabanon de la Butte,4.7,N/A,French,6 rue Lamarck 75018 Paris France,48.8866299,2.34436
Chez Cléopatre,4.4,€,"Greek, Sandwiches, Kebab",46 rue Condorcet 75009 Paris France,48.8802499,2.34356
Restaurant Mieux,4.8,N/A,Bistros,21 rue Saint-Lazare 75009 Paris France,48.87666,2.33691
Casa Cosa,4.2,€€,"Pizza, Italian",30 rue de Mogador 75009 Paris France,48.8756646984336,2.33133684843779
Clairière,4.3,€€,French,1 rue Chaptal 75009 Paris France,48.8805,2.33459
A la Place Saint Georges,3.1,€€,Brasseries,60 rue St Georges 75009 Paris France,48.87833,2.33757
Artisan de la Truffe,4.3,N/A,French,19 rue des Martyrs 75009 Paris France,48.87803,2.33948
Le Régent,4.1,€€,Brasseries,68-70 rue Lafayette 75009 Paris France,48.8758697509766,2.34426808357239
L'Atelier Saisonnier Paris 9,5.0,N/A,"French, Breakfast & Brunch, Tapas Bars",58 rue la Fayette 75009 Paris France,48.8753976,2.342639
Les Canailles,4.6,€€€,French,25 Rue La Bruyère 75009 Paris France,48.8792768,2.3345899
L'Annexe,4.6,€€,French,13 rue Trois Frères 75018 Paris France,48.88419,2.34126
Le Royal Cadet,4.0,N/A,"Brasseries, Bars",11 Rue Cadet 75009 Paris France,48.87558,2.34354
Grenouilles,4.8,€,"Sandwiches, Delicatessen",55 rue du Chevalier de la Barre 75018 Paris France,48.8871061857917,2.34178242552619
Secrets de Famille,4.5,€€,Bistros,11 rue blanche 75009 Paris France,48.878335,2.3316525
Bourgogne Sud,4.1,€€€,French,14 Rue Clichy 75009 Paris France,48.87815,2.3301
Le Bistrot de la Galette,4.9,€€€,French,102 ter rue Lepic 75018 Paris France,48.88716,2.33751
Les Vedettes,4.0,€€,"Bars, French",13 place Pigalle 75009 Paris France,48.88224,2.33678
Le Bouclier de Bacchus,4.4,€€,"French, Wine Bars, Beer, Wine & Spirits",18 rue Saint-Lazare 75009 Paris France,48.87674,2.33747
Café Marlette - Pigalle,3.9,€€,"Bakeries, Breakfast & Brunch, Cafes",51 rue des Martyrs 75009 Paris France,48.880275,2.339808
Au Petit Riche,3.8,€€€,French,25 rue le Peletier 75009 Paris France,48.87322,2.3387
Les Affranchis,4.1,€€€,French,5 rue Henri Monnier 75009 Paris France,48.8795,2.33708
Chez Toinette,4.6,€€€,French,20 rue Germain Pilon 75018 Paris France,48.88401,2.33682
Phô Saint-Georges,4.6,N/A,Vietnamese,35 rue Notre Dame de Lorette 75009 Paris France,48.879586,2.336491
Al Caratello,4.7,€€,Italian,5 rue Audran 75018 Paris France,48.885237,2.335898
Le Palmarium,3.9,N/A,French,11 rue Joubert 75009 Paris France,48.8745689,2.3315799
Chungking Express,4.5,€€,"Chinese, Hot Pot",5 rue de la Tour d'Auvergne 75009 Paris France,48.8788012590711,2.3448543785506
La Palanche d'Âulac,4.7,€€,"Vietnamese, Vegan",13 rue Rodier 75009 Paris France,48.87826,2.342548
Belle Maison,4.3,N/A,Seafood,4 rue de Navarin 75009 Paris France,48.87954,2.33963
PanPan,4.5,€€,"Restaurants, Cocktail Bars",32 rue Drouot 75009 Paris France,48.8746681,2.34094
Louis,5.0,€€€€,"Bistros, French",23 rue de la Victoire 75009 Paris France,48.875061,2.3387899
Braun Notes,4.7,€€,"Coffee & Tea, Breakfast & Brunch",31-33 rue de Mogador 75009 Paris France,48.8758317288875,2.33099130479798
Hugo,4.5,€€,French,12 rue Papillon 75009 Paris France,48.87626,2.34727
Sacrée Fleur,4.6,€€€,French,50 rue Clignancourt 75018 Paris France,48.88758,2.3479199
M.Jacques,5.0,N/A,Bistros,24 rue Laffitte 75009 Paris France,48.873049,2.337877
Les Petits Pois sont Rouges,4.3,N/A,"French, Food Delivery Services",63 Rue de Provence 75009 Paris France,48.874312,2.333573
La Table des Anges,4.3,€€€,"French, Bistros, Brasseries",66 rue des Martyrs 75009 Paris France,48.88102,2.3401
Les Apôtres de Pigalle,4.6,€€,"Wine Bars, Tapas Bars",2 rue Germain Pilon 75018 Paris France,48.8830163864255,2.33642600476742
Café de la Butte,4.8,€€€,French,71 Rue Caulaincourt 75018 Paris France,48.88965590654,2.336664036781
POJO,4.7,N/A,French,38 rue de Douai 75009 Paris France,48.882771,2.332336
Piccola Toscana,4.5,€€,Italian,10 rue Rochambeau 75009 Paris France,48.8772897,2.3461
Maison Landemaine,3.5,€€,"Bakeries, Salad, Sandwiches",26 rue des Martyrs 75009 Paris France,48.87832,2.33975
Mae Café,4.0,N/A,Restaurants,42 rue SaintGeorges 75009 Paris France,48.8768806,2.33722
Saveur du Sichuan,4.0,€€,Chinese,52 rue du Faubourg Montmartre 75009 Paris France,48.8753,2.34093
Stereo,5.0,N/A,"Wine Bars, French",43 rue Notre-Dame de Lorette 75009 Paris France,48.879506,2.3359816
Le Garde-temps,4.3,€€€,"Brasseries, Bistros, French",19 bis rue Fontaine 75009 Paris France,48.88155,2.33409
Le Relais Gascon,3.9,€€,French Southwest,6 rue des Abesses 75018 Paris France,48.88403,2.3391
Le Jardin d'en Face,4.6,€€,French,29 rue des Trois Frères 75018 Paris France,48.88482,2.34078
La Cantine d'Eugène,4.5,N/A,French,6 rue Buffault 75009 Paris France,48.8750305,2.34162
So Nat,4.4,€€,"Vegan, Vegetarian",5 rue Bourdaloue 75009 Paris France,48.87641,2.33854
Midi12,4.7,€€,Creperies,12 rue la Fayette 75009 Paris France,48.87335,2.33469
Mian Fan,3.8,€€,Asian Fusion,40 rue Saint-Georges 75009 Paris France,48.87673,2.33712
Crêperie Brocéliande,4.6,€€,"Creperies, French, Gluten-Free",15 rue des Trois Frères 75018 Paris France,48.884346,2.341099
Le Petit Cadet,3.4,N/A,Brasseries,9 rue Cadet 75009 Paris France,48.87494,2.34291
Dumbo,4.8,N/A,Burgers,64 rue Jean-Baptiste Pigalle 75009 Paris France,48.88169,2.33691
Kozy Kanopé - All day Brunch & Coffee,4.2,€€,"Breakfast & Brunch, Coffee & Tea",46 rue Lafayette 75009 Paris France,48.87479,2.34017
L'Anvers du Decor,4.1,€€€,French,32 bis rue Orsel 75018 Paris France,48.88374,2.34316
Restaurant du Paradis,4.7,€€,French,66 rue du Faubourg Poissonnière 75010 Paris France,48.8758583,2.3483601
Abuela,5.0,N/A,Tapas Bars,43 rue Notre Dame de Lorette 75009 Paris France,48.8794923766656,2.33598176389933
Chez Vincent,3.9,€€,Restaurants,56 rue St Georges 75009 Paris France,48.877937,2.3375357
Caramel Sarrasin,4.7,€€,"Creperies, Gluten-Free",47 rue du faubourg-Montmartre 75009 Paris France,48.874738,2.341237
LACTEM,5.0,N/A,"Breakfast & Brunch, Cafes",58 rue du Faubourg Montmartre 75009 Paris France,48.8755826430233,2.34066554049279
Le Grand Comptoir d'Anvers,3.9,N/A,"French, Brasseries",2 place d'Anvers 75009 Paris France,48.88201,2.34495
Terra Corsa,4.0,€€,"Specialty Food, Delicatessen, Tapas/Small Plates",42 rue des Martyrs 75009 Paris France,48.87921,2.33994
Le Bon Jour,4.0,N/A,French,6 rue de Maubeuge 75009 Paris France,48.87629,2.3409399
Nous,4.4,€€,"Burgers, Breakfast & Brunch, Salad",8 rue de Châteaudun 75009 Paris France,48.875937,2.341319
Le Caviste Bio,4.3,€€€,"French, Bistros",50 rue de Maubeuge 75009 Paris France,48.8784599,2.34569
Salsamenteria di Parma,4.1,€€,"Italian, Wine Bars",40 rue Saint-Georges 75009 Paris France,48.876567,2.337266
L'Avenir,4.5,€€,Moroccan,51 rue Blanche 75009 Paris France,48.88103,2.3314499
Café de la Roseraie,4.3,€€,"Bars, Cafes",1 Rue Bleue 75009 Paris France,48.87583,2.34795
Bistrot Smiley,3.7,€€,"Bistros, Cocktail Bars",37 rue des Martyrs 75009 Paris France,48.8792686,2.3398499
Les Enfants Perdus,4.1,€€€,"French, Cocktail Bars",9 rue des Recollets 75010 Paris France,48.87439,2.36201
Le Dellys,4.4,€€,"Bars, Brasseries, Mediterranean",5 rue des Deux Gares 75010 Paris France,48.87834,2.3578
Le Buffet de la Gare,4.2,€€,"Bars, Cafes, Brasseries",70 bd de Strasbourg 75010 Paris France,48.8752213,2.3578801
Marrow,4.8,N/A,Bistros,128 rue du Faubourg Saint-Martin 75010 Paris France,48.8743883730763,2.35890693962574
Shouk,4.8,N/A,Mediterranean,59 rue de Lancry 75010 Paris France,48.8720575636731,2.36256116124555
Le Valmy,3.9,€€,"Brasseries, French, Cocktail Bars",145 quai de Valmy 75010 Paris France,48.877615,2.365153
Chez Fabienne,5.0,€,Creperies,85 bis boulevard Magenta 75010 Paris France,48.87697,2.35519
Le Chateau Landon,4.5,€€,"Coffee & Tea, Bistros",187 rue Faubourg St Martin 75010 Paris France,48.87928,2.36272
Les Orientalistes,4.5,€€€,"Mediterranean, French",4 rue Saint-Laurent 75010 Paris France,48.875555,2.358789
HABILE.,4.8,N/A,Restaurants,16 rue de Lancry 75010 Paris France,48.86965,2.36067
Les Vinaigriers,4.3,€€€,"French, Bistros, Wine Bars",42 rue des Vinaigriers 75010 Paris 10 France,48.87326,2.361247
Les Rupins,4.6,€€,"Bistros, Cafes",35 bd de Magenta 75010 Paris France,48.871948,2.359658
BMK Paris-Bamako,4.5,N/A,"African, Imported Food, Halal",14 rue de la Fidélité 75010 Paris France,48.8746099,2.35655
Le Bistrot Lorrain,3.8,€€,"French, Italian, Pizza",17 Rue 8 Mai 1945 75010 Paris France,48.87643,2.35638
Mamagoto,4.3,€,"French, Modern European, Wine Bars",5 rue des Petits Hotels 75010 Paris France,48.87727,2.3545
L'Atmosphère,3.4,€€,"French, Mediterranean, Vegetarian",49 rue Lucien Sampaix 75010 Paris France,48.87435,2.3626
La Patache,3.9,€€,French,60 rue de Lancry 75010 Paris France,48.872664,2.363525
La Chaufferie,4.1,€€,"Bars, French",2 boulevard Denain 75010 Paris France,48.8788718,2.3541699
L'Enchotte,4.2,€,"Food, French",11 rue Chabrol 75010 Paris France,48.87655,2.35491
Holybelly,4.7,€€,"Breakfast & Brunch, Coffee & Tea",5 rue Lucien Sampaix 75010 Paris France,48.871022,2.359819
NENI,5.0,N/A,French,12 boulevard de Denain 75010 Paris France,48.8795065,2.3547303
Les Parigots,3.9,€€,"Bars, Brasseries",5 rue Château d'eau 75010 Paris France,48.86926,2.36183
L'Appartement Saint-Martin Paris,4.4,€€,"Tapas/Small Plates, Cocktail Bars",2 rue du Faubourg Saint-Martin 75010 Paris France,48.8692826430148,2.3558928760574
Urfa Dürüm,4.3,€,"Middle Eastern, Turkish",56 rue du Faubourg Saint-Denis 75010 Paris France,48.87234,2.35422
Le Chansonnier,4.1,€€€,French,14 Rue Eugene Varlin 75010 Paris France,48.87862,2.36419
Chameleon,4.5,€€€,French,70 Rue René Boulanger 75010 Paris France,48.86913,2.3581
Pleine Mer,4.3,€€,Seafood,22 rue de Chabrol 75010 Paris France,48.8768496,2.3535175
Lucien,4.2,N/A,Bistros,8 rue Lucien Sampaix 75010 Paris France,48.87107,2.36008
Le Verre Taquin,4.6,N/A,"Wine Bars, French",22 rue Juliette Dodu 75010 Paris France,48.8758962495005,2.36877180416375
Sur Mer,4.6,N/A,Seafood,53 rue de Lancry 75010 Paris France,48.871712,2.3622216
Café du Nord,3.4,€€,"Brasseries, Breakfast & Brunch, Tea Rooms",19 rue de Dunkerque 75010 Paris France,48.87963,2.35568
La Pendule Occitane,4.5,€€,French,27 Rue Bouchardon 75010 Paris France,48.87102,2.35802
La Cantine de Quentin,3.9,€€,"French, Wine Bars, Delicatessen",52 rue Bichat 75010 Paris France,48.87403,2.36396
Ciacco,4.5,€€,"Italian, Pizza",9 rue Rene Boulanger 75010 Paris France,48.8691597,2.3577001
Piccoli Cugini,3.8,€€,"Italian, Pizza",34 rue des Vinaigriers 75010 Paris France,48.87316,2.36187
Au P'tit Curieux,4.5,N/A,"French, Bistros, Bars",27 rue de Sambre-et-Meuse 75010 Paris France,48.87469,2.37272
Jumbo Express,4.9,€,"Vietnamese, Thai",25 rue Eugène Varlin 75010 Paris France,48.8789393,2.3633725
Siam Square Thaï Street Food,4.8,N/A,Thai,1 boulevard de Magenta 75010 Paris France,48.868747,2.362572
Blackburn,4.3,€€,"Cafes, Breakfast & Brunch, Vegetarian",52 rue du faubourg Saint-Martin 75010 Paris France,48.8708611,2.3568101
Bistrot Brune,4.5,N/A,French,70 rue du Faubourg Saint-Martin 75010 Paris France,48.87157,2.35726
Le Bichat,4.4,€€,"Cafes, Breakfast & Brunch",11 rue Bichat 75010 Paris France,48.8697,2.36916
Kheak & Vero,4.3,€€,"Thai, Vietnamese",1 rue Alexandre Parodi 75010 Paris France,48.8793153207581,2.36641645431519
Inaro,4.4,€€,"Wine Bars, Tapas/Small Plates, Breakfast & Brunch",38 rue René Boulanger 75010 Paris France,48.868423,2.361196
Levantine,4.6,N/A,Mediterranean,36 rue Bichat 75010 Paris France,48.87154,2.36814
Extérieur Quai,4.0,€€,"Bistros, Brasseries, Beer Bar",5 rue d'Alsace 75010 Paris France,48.876739,2.357609
Les Résistants,4.7,€€€,French,16-18 rue du Château d'Eau 75010 Paris France,48.870082,2.360515
Le Petit Château d'Eau,4.0,€€,"French, Bars",34 rue Château d'Eau 75010 Paris France,48.870663,2.359414
La Réclame,5.0,€€,"Delicatessen, Breakfast & Brunch",34 rue des Petites Écuries 75010 Paris France,48.873901,2.3508
Floyd's,4.4,€€€,"Barbeque, Bars, Steakhouses",11 rue d'Enghien 75010 Paris France,48.87174,2.35236
Chennai dosa,4.8,N/A,Indian,168 rue du Faubourg Saint-Denis 75010 Paris France,48.879724,2.35751
El Nopal,4.1,€€,Mexican,3 rue Eugène Varlin 75010 Paris France,48.87791,2.36513
Two Stories,4.9,€€€,"American, Cajun/Creole",72 quai de Jemmapes 75010 Paris France,48.8714683,2.3657338
Le Catrina,4.0,€€,"French, Cocktail Bars",141 rue du faubourg Saint-Denis 75010 Paris France,48.8779182,2.3562801
La Marina,4.4,€€,Pizza,8 rue du Château Landon 75010 Paris France,48.8799848229986,2.36236127679701
Le Bistro,3.1,€€,"French, Bars",32 boulevard de Magenta 75010 Paris France,48.871784,2.360403
Les Routiers,4.4,€€,"French, Bistros",50 bis rue Marx Dormoy 75018 Paris France,48.888886,2.360083
La Chambre aux Oiseaux,3.8,€€,"Breakfast & Brunch, Desserts",48 rue Bichat 75010 Paris France,48.873898445596,2.3645184530671
Gravity Bar,4.3,€€,"Cocktail Bars, Tapas/Small Plates",44 rue des Vinaigriers 75010 Paris France,48.873254,2.360793
De L'Autre Côté,4.2,€€,Restaurants,7 rue Léon Jouhaux République 75010 Paris France,48.86904,2.3639199
Les Petites Ecuries,4.2,€€,French,40 rue des Petites Ecuries 75010 Paris France,48.87391,2.350283
L'Apostrophe,4.1,€€,"French, Bars",23 rue Grange aux Belles 75010 Paris France,48.8747138093298,2.36625861569564
John Viande,4.4,€€,"Burgers, Beer Bar, Cocktail Bars",7bis rue de Paradis 75010 Paris France,48.874333,2.354259
FLESH,4.6,€€€,Barbeque,23 rue Louis Blanc 75010 Paris France,48.88009,2.36684
La Cantine Fabien,4.4,€,"Bars, Bistros",5 place du Colonel Fabien 75010 Paris France,48.8777199,2.3697
Au Faubourg,4.0,€€,"Bars, Brasseries",92 rue du Faubourg Saint-Denis 75010 Paris France,48.8742,2.35541
East Bunker,4.0,N/A,"Bistros, French",1 avenue de Verdun 75010 Paris France,48.8761644,2.3605032
Gros Bao Paris,4.9,N/A,Chinese,72 Quai de Jemmapes 75010 Paris France,48.87147,2.36569
SAaM,4.1,€€,Korean,59 bis rue de Lancry 75010 Paris France,48.87207,2.3626
le cambodge,3.9,€€,"Cambodian, Pan Asian, Vegetarian",10 avenue Richerand 75010 Paris France,48.8721809678125,2.36618243157864
Adaggio,4.9,N/A,"Pizza, Italian",207 rue la Fayette 75010 Paris France,48.88116853365,2.36392434686422
Café Bonne Biere,4.0,€€,"Brasseries, Bistros",32 rue du Faubourg du Temple 75011 Paris France,48.8688999,2.36809
Pramil,4.3,€€€,French,9 rue Vertbois 75003 Paris France,48.86683,2.35867
Restaurant le Robinet d'Or,4.1,€€,"Bistros, Breakfast & Brunch",7 rue Eugène Varlin 75010 Paris France,48.8781474,2.3647457
Han Shi Fang,4.3,€€€,"Hot Pot, Chinese",2 rue de Lancry 75010 Paris France,48.8687029491847,2.35999491065741
Massawa,4.3,€€,"African, Ethiopian, Vegetarian",22 rue du Château Landon 75010 Paris France,48.881435,2.36298
L'école Buissonière,4.2,€€,Bistros,8 rue pierre Dupont 75010 Paris France,48.8790588,2.36483
0/Gustave,4.9,€€,"Wine Bars, Cafes",41 rue du Faubourg Saint-Martin 75010 Paris France,48.87071,2.35641
Gros,4.3,€€€,French,4 cours des Petites Écuries 75010 Paris France,48.87243,2.35363
L'Epicerie Musicale,4.4,€€,"Italian, Convenience Stores, Breakfast & Brunch",55 bis quai de Valmy 75010 Paris France,48.8706530985989,2.36546493890072
Holybelly 19,4.4,€€,"Breakfast & Brunch, Cafes, Desserts",19 rue Lucien Sampaix 75010 Paris France,48.87213,2.36078
Paul,3.0,€,"Bakeries, Coffee & Tea, Breakfast & Brunch",4 rue du 8 Mai 1945 75010 Paris France,48.876906,2.359505
La Fontaine de Belleville,4.1,€€,"Cafes, Bars, Sandwiches",31 - 33 rue Juliette Dodu 75010 Paris France,48.87577,2.36856
Les Pieds sous la Table,4.6,€€,"French, Tapas Bars",130 Rue St Maur 75011 Paris France,48.86793,2.37532
La Bulle,4.0,€€€,French,48 rue Louis Blanc 75010 Paris France,48.882134,2.363611
Grand Amour Hôtel,4.2,€€,"Hotels, French, Breakfast & Brunch",18 rue de la Fidélité 75010 Paris France,48.87454,2.3562
Sol Semilla,4.2,€€,"Gluten-Free, Vegan, Organic Stores",23 rue des Vinaigriers 75010 Paris France,48.873099,2.363134
L'Étoile d'Afrique,4.5,N/A,African,67 boulevard de Strasbourg 75010 Paris France,48.87381,2.35677
Republique of Coffee,4.2,€,"Coffee & Tea, Breakfast & Brunch",2 boulevard Saint-Martin 75010 Paris France,48.86817,2.36204
Mamagaya,5.0,N/A,Pizza,132 boulevard de la Villette 75019 Paris France,48.87867,2.37057
La Marine,3.7,€€,French,55bis quai de Valmy 75010 Paris France,48.870604,2.36533366888659
John Circus,4.9,€€€,"Cocktail Bars, Beer Bar, Pizza",103 rue du Faubourg Saint Denis 75010 Paris France,48.8748999,2.35562
Oh Africa,4.7,€,African,85 bis Boulevard Magenta Marché Couvert St Quentin 75010 Paris France,48.8764901479765,2.3557456119489
Chez Marius,5.0,N/A,"French, Wine Bars",11 rue de Chabrol 75010 Paris France,48.87655,2.35491
La Belle Équipe,4.4,€€,"Bistros, French, Cafes",92 rue de Charonne 75011 Paris France,48.85384,2.38197
Café des Anges,4.0,€€,French,66 rue de la Roquette 75011 Paris France,48.8554671035123,2.37455475240992
La Buvette,4.4,€€,"Wine Bars, French",67 rue St Maur 75011 Paris France,48.86306,2.37928
La Mère Poule,5.0,N/A,French,101 rue Oberkampf 75011 Paris France,48.8656069100645,2.37689014524221
Chez Troquette,4.9,€€,French,1 rue Saint-Maur 75011 Paris France,48.85866,2.38339
Nove,4.6,€€,Italian,9 rue de Charonne 75011 Paris France,48.852512,2.374132
Aujourd'hui Demain,4.6,N/A,"Concept Shops, Vegan, Delicatessen",42 rue du Chemin Vert 75011 Paris France,48.8589399,2.37452
Les Marcheurs de Planète,4.5,€€,"French, Wine Bars",73 rue Roquette 75011 Paris France,48.856591,2.37713
Le Quartier Libre,5.0,€€,Bistros,69 rue de la Roquette 75011 Paris France,48.8565198869923,2.37687794603266
Chez Moi,4.5,€€,"Salad, French",1 rue Saint-Ambroise 75011 Paris France,48.86123,2.3751699
Oxymore,4.7,N/A,"Pizza, French, Cocktail Bars",60 rue Saint-Maur 75011 Paris France,48.8631825234595,2.37932123243809
La Mère Lachaise,4.7,N/A,French,78 boulevard Ménilmontant 75020 Paris France,48.86433,2.38626
L'Assassin,4.0,€€,French,99 rue Jean-Pierre Timbaud 75011 Paris France,48.86874,2.37997
La Brigade Oberkampf,4.3,N/A,Steakhouses,103 rue Oberkampf 75011 Paris France,48.86564,2.3769999
L'Ami Justin,4.3,N/A,French,28 boulevard de Ménilmontant Paris 75011 Paris France,48.86348,2.38647
Clamato,4.3,€€€,"Seafood, French",80 rue Charonne 75011 Paris France,48.85357,2.38037
Le Chat Ivre,4.6,€€,"Modern European, Wine Bars",22 Rue Taillandiers 75011 Paris France,48.85524,2.37476
La Cigale du 11,4.7,€€,"French, Bars",33 rue Pétion 75011 Paris 11 France,48.85972,2.38062
La Robe de la Girafe,4.4,€€€,"Brasseries, Bistros, Wine Bars",5 rue Froment 75011 Paris France,48.8567157,2.3731725
La Popina,4.4,€€,"Wine Bars, Tapas Bars, Mediterranean",88 rue Saint-Maur 75011 Paris France,48.8649292,2.3779299
Septime,4.3,€€€€,Modern European,80 rue de Charonne 75011 Paris France,48.85355,2.380665
L'Artiste,3.8,€€,"French, Cocktail Bars, Breakfast & Brunch",153 rue de la Roquette 75011 Paris France,48.85952,2.38652
Maison Nouilles,4.8,€€,"Soup, Chinese, Pan Asian",125 rue de la Roquette 75011 Paris France,48.8583794,2.3826399
Les Embruns,4.4,€€,"French, Creperies",8 rue de Lyon 75012 Paris France,48.847,2.37182
L'Entracte Bistrot,4.7,€€€,"French, Bistros",21 rue Malte Brun 75020 Paris France,48.8648,2.39715
Le Saint Sébastien,4.7,N/A,"Wine Bars, French, Bistros",42 rue Saint-Sébastien 75011 Paris France,48.86156,2.37102
La Cave de l'Insolite,4.5,€€€,"Beer, Wine & Spirits, Bistros",30 rue de la Folie Méricourt 75011 Paris France,48.8630409,2.3731
Rosie,4.3,N/A,Brasseries,53 rue du Faubourg Saint-Antoine 75011 Paris France,48.85219,2.37304
Pancake Sisters,5.0,N/A,Breakfast & Brunch,8 rue Popincourt 75011 Paris France,48.85721,2.37762
TAEM,5.0,N/A,"Butcher, Steakhouses",14 rue Popincourt 75004 Paris France,48.85764,2.37731
Aux Deux Amis,3.9,€€,"Bistros, Bars, Tapas/Small Plates",45 rue Oberkampf 75011 Paris France,48.86459,2.37184
Café d'Albert,4.6,€€,"Lounges, French",109 boulevard de Charonne 75011 Paris France,48.85609,2.3944
Café Zadig,3.8,€€,"French, Cafes",164 ave Ledru Rollin 75011 Paris France,48.8566017,2.37939
Rivoluzione,4.3,N/A,"Italian, Pizza",24 rue des Taillandiers 75011 Paris France,48.8553929024584,2.37480393872754
Meneksé,4.5,€€,Turkish,7 passage Main d'Or 75011 Paris France,48.8518,2.37791
Balls,4.2,€€,French,47 rue Saint-Maur 75011 Paris France,48.86186,2.38038
La Cave du Septime,4.5,€€,"Tapas Bars, Beer, Wine & Spirits, Wine Bars",3 rue Basfroi 75011 Paris France,48.85376787,2.38024539
L'Horloge,4.6,€€,Brasseries,71 rue Servan 75011 Paris France,48.8637,2.38118
New Hanoï,5.0,€,"Vietnamese, Soup",25 rue Saint-Sabin 75011 Paris France,48.8560910919965,2.37112205475569
Chez Paul,3.8,€€€,Bistros,13 rue Charonne 75011 Paris France,48.85278,2.37435
Small Kitchen,5.0,N/A,"Bistros, Bars",56 boulevard Richard Lenoir 75012 Paris France,48.8594,2.3724
Café Le Papillon,4.0,€€,"French, Wine Bars, Bistros",144 rue de Bagnolet 75020 Paris France,48.85973,2.40224
Le Mezzé du Liban,4.3,€€,Lebanese,48 bis rue Saint Maur 75011 Paris France,48.8623,2.38011
Pause Café,3.9,€€,"French, Bistros",41 rue de Charonne 75011 Paris France,48.85335056419,2.3767881469275
Express de Lyon,4.3,€€,"Sports Bars, Brasseries, Bistros",1 rue Lyon 75012 Paris France,48.8458754234665,2.37198472387308
In The Garden,4.6,N/A,"Beer Bar, Tapas Bars",39 rue Saint-Maur 75011 Paris France,48.8614156022866,2.38067463901916
Chez Lui,3.9,N/A,"Wine Bars, French",67 rue Saint-Maur 75011 Paris France,48.86292,2.37931
Pizza Julia,4.7,€,Pizza,43 rue de Charenton 75012 Paris France,48.8516654154578,2.37197349693813
Ma'Lucia,5.0,€€,Italian,54 rue Basfroi 75011 Paris France,48.85662,2.37808
Grounded,5.0,N/A,"Cafes, Breakfast & Brunch",101 rue de Charonne 75011 Paris France,48.8545089,2.384102
Santa Carne,4.3,€€€,"Argentine, Steakhouses, Barbeque",3 boulevard Richard Lenoir 75011 Paris France,48.854727,2.369435
Nhà-quê,4.3,€€€,Vietnamese,20 rue du Général Guilhem 75011 Paris France,48.8619919,2.37958
La Cappadoce,4.4,€,"Turkish, Bars",100 rue de la Roquette 75011 Paris France,48.8565908079716,2.37737857295549
Les Galopins,4.0,€€,French,24 rue Taillandiers 75011 Paris France,48.8552930806951,2.37487873444103
Lou Tiap,4.7,€€,French Southwest,81 rue de Bagnolet 75020 Paris France,48.8584351866272,2.40054457761232
Louie Louie,4.3,€€,"Pizza, Cocktail Bars",78 rue de Charonne 75011 Paris France,48.8534999,2.3803
Café Méricourt,4.1,€€,"Breakfast & Brunch, Coffee & Tea",22 rue de la Folie Méricourt 75011 Paris France,48.862494,2.373695
Les Niçois,3.7,€€,"French, Bars, Delicatessen",7 rue Lacharrière 75011 Paris France,48.862093,2.378005
Le 54,5.0,N/A,"French, Brasseries, Italian",54 rue Godefroy Cavaignac 75011 Paris France,48.85718,2.37996
Phô Thaï,4.8,€€,"Vietnamese, Thai",53 rue de Montreuil 75011 Paris France,48.85051,2.38906
Le Robinet,5.0,N/A,"Bars, French",123 bd de Ménilmontant 75011 Paris France,48.8659,2.38371
Monsieur Matthieu,4.8,€€,"Wine Bars, Sandwiches",101 rue du chemin Vert 75011 Paris France,48.861151,2.380856
Auciel,4.3,€€,"Chinese, Hot Pot",97 rue de Charonne 75011 Paris France,48.854375,2.383591
Le Train Bleu,3.7,€€€,French,Place Louis Armand 1er étage 75012 Paris France,48.844901,2.373278
Café Oberkampf,4.4,€€,Cafes,3 rue Neuve Popincourt 75011 Paris France,48.86469,2.37398
Asia Bò Bún,4.6,€€,Vietnamese,41 rue de Lappe 75011 Paris France,48.853291,2.373667
MELT OBERKAMPF,4.5,€€€,"Steakhouses, Barbeque, American",74 rue folie méricourt 75011 Paris France,48.865612,2.370802
L'Echoppe de Paris,4.5,€€,"Burgers, Bistros",16 rue Léon Frot 75011 Paris France,48.853963,2.387988
Art & Thé,4.4,€€,Bistros,168 rue de la Roquette 75011 Paris France,48.8590075911863,2.38587221935256
Qui Plume la Lune,4.4,€€€€,French,50 rue Amelot 75011 Paris France,48.8590698,2.3684101
Brutos,4.5,€€€,"Barbeque, Brazilian",5 rue du Général Renault 75011 Paris France,48.86152,2.378171
Le Singe à Paris,4.6,N/A,French,40 rue Traversière 75012 Paris France,48.8489999,2.37471
Le Bistrot d'Avron,4.1,€€,French,17 rue d'Avron 75020 Paris France,48.85164,2.39967
Les Fabricants,4.0,€€,"Basque, French Southwest",61 rue Jean-Pierre Timbaud 75011 Paris France,48.867163,2.374997
A Deux Pas,4.6,€€,French,55 rue Saint-Maur 75011 Paris France,48.86221,2.38004
Il Covo,4.9,€€€,"Wine Bars, Italian",104 rue Saint-Maur 75011 Paris France,48.8655727,2.3774005
Le Grain de Riz,4.2,€€,"Vietnamese, Pan Asian",49 rue Godefroy Cavaignac 75011 Paris France,48.857055146508,2.3798497820125
Le Siffleur de Ballons,4.3,€€,"Bistros, Wine Bars",34 rue de Citeaux 75012 Paris France,48.84965,2.38117
L'Auberge de Flora,3.9,€€€,"French, Hotels",44 bd Richard-Lenoir 75011 Paris France,48.8582476959153,2.37192939235449
Le P'tit Bréguet : Bistro Auvergnat,4.0,€€,"Bistros, Auvergnat",9 rue Boulle 75011 Paris France,48.8569699,2.3721199
Le Pure Café,3.9,€€,"French, Bars, Bistros",14 rue Jean Macé 75011 Paris France,48.853316375929,2.3833076374542
Bien Ficelé,4.0,€€,"Steakhouses, French, Breakfast & Brunch",51 Boulevard Voltaire 75011 Paris France,48.86236,2.37279
L'Armagnac,4.0,€€,Bistros,104 rue Charonne 75011 Paris France,48.854496,2.384889
L'Ebauchoir,4.2,€€€,French,43-45 rue de Citeaux 75012 Paris France,48.849860429523,2.381131
Ben's,4.4,€€,"Burgers, Diners, Fish & Chips",19 rue du Faubourg Saint-Antoine 75011 Paris France,48.8529063,2.3712585
Le Chat Bossu,3.9,€€,"Bistros, Coffee & Tea, Cafes",37 rue de Cotte 75012 Paris France,48.8505523,2.3783794
Chez Raymonde,5.0,€€,"Wine Bars, Bistros, Cocktail Bars",104 bd Richard Lenoir 75011 Paris France,48.8635645,2.3717973
L'Atelier Gusto,4.0,N/A,"Tapas Bars, Delicatessen, Mediterranean",45 rue Saint-Maur 75011 Paris France,48.8617453043,2.3804621771
Bocamexa,3.9,€,Mexican,95 rue Oberkampf 75011 Paris France,48.86542,2.37602
Birdy's,4.8,N/A,"Chicken Shop, Barbeque",3 rue Planchat 75020 Paris France,48.85179,2.3993
Lubie,4.7,€€,French,104 rue St Maur 75011 Paris France,48.86618,2.3769999
Le Servan,4.0,€€€,"Modern European, Bistros",32 rue Saint Maur 75011 Paris France,48.8610001,2.3813601
Aux Tables du Père Lachaise,4.2,€€,Bistros,44 bd de Ménilmontant 75020 Paris France,48.86322,2.38752
Le Chardenoux,4.0,N/A,French,1 rue Jules Vallès 75011 Paris France,48.852753,2.3849339
L'Acolyte de l'Insolite,4.6,€€€,French,49 rue de la Folie Méricourt 75011 Paris France,48.864099,2.371668
Bistro 55,4.0,N/A,Bistros,55 bd Voltaire 75011 Paris France,48.8620911,2.37324
Le Café Lux,4.3,N/A,Vietnamese,73 rue Saint-Maur 75011 Paris France,48.86334,2.3788999
EXKi,4.5,N/A,"Salad, Gluten-Free, Vegetarian",193-197 rue de Bercy 75012 Paris France,48.843961,2.372506
Clint,4.4,€€,"Burgers, American",174 rue de la Roquette 75011 Paris France,48.8591399,2.38641
Les Artistes,4.3,€€,French,48 rue de la Folie Méricourt 75011 Paris France,48.86389,2.37202
Les Cents Kilos,2.8,€€€,"Bistros, Brasseries",2 rue de la Folie Méricourt 75011 Paris France,48.861164914647,2.37506749738777
Deux Fois Plus de Piment,4.1,€€,Chinese,33 rue Saint-Sébastien 75011 Paris France,48.861568,2.370637
Maythai Paris,4.8,N/A,Thai,32 avenue de la République 75011 Paris France,48.865742,2.371043
Aromes et Amores,4.4,€€€,"Italian, French",13 rue Ternaux 75011 Paris France,48.8643417,2.37288
L'Osteria dell'Anima,4.3,€€,Italian,37 rue Oberkampf 75011 Paris 11 France,48.86399,2.37045
L'Auberge Aveyronnaise,3.9,€€,French,40 Rue Gabriel Lamé 75012 Paris France,48.8347709,2.38599
Korus,4.9,€€€,French,73 rue Amelot 75011 Paris France,48.85925,2.36817
Boucherie des Provinces,3.8,€€,French,20 rue d'Aligre 75012 Paris France,48.84934,2.37853
East Mamma,4.2,€€,"Pizza, Trattorie",133 rue du Faubourg Saint-Antoine 75011 Paris France,48.851034,2.377739
Jouvence,4.7,N/A,French,172 bis rue du Faubourg Saint Antoine 75012 Paris France,48.85024,2.38196
The Hood Paris,4.1,€€,"Coffee & Tea, Breakfast & Brunch, Diners",80 rue Jean-Pierre Timbaud 75011 Paris France,48.86735,2.37638
A la Biche au Bois,4.2,€€€,French,45 avenue Ledru Rollin 75012 Paris France,48.84803,2.371105
Au Bois Doree,5.0,N/A,Bistros,270 avenue Daumesnil 75012 Paris France,48.8358980139219,2.40491150181288
Le Bistrot de la Porte Dorée,4.0,€€€,French,5 boulevard Soult 75012 Paris France,48.8359935,2.40681
Caminito Cabaret,4.3,€€,"French, Bars",48-50 rue du Dessous des Berges 75013 Paris France,48.826956,2.374429
Papillon,5.0,N/A,"Bars, French",2 avenue du Docteur Arnold Nutter 75012 Paris France,48.84101,2.40488
Com' à  la Maison,5.0,N/A,"Brasseries, French",51 avenue du Docteur Arnold Netter 75012 Paris France,48.8441,2.40543
Le Millau,4.0,€€€,French,7 rue du Rendez Vous 75012 Paris France,48.8452026,2.4043742
Anco,4.5,N/A,Bistros,108 rue de Bercy 75012 Paris France,48.8393210190259,2.38063484430313
Marche ou Crêpe,4.9,€,"Creperies, Bars",18 rue des Haies 75020 Paris France,48.85262,2.40042
Chez Ma Belle Mère,3.8,€€,Brasseries,257 avenue Daumesnil 75012 Paris France,48.8366328541194,2.40404557665257
Le Milord,5.0,N/A,French,191 ave Daumesnil 75012 Paris France,48.8401985,2.39379
Le Bon Plan,4.4,€€,"French, Pizza",88 rue Albert 75013 Paris France,48.8272589,2.3707029
Le Patay's,4.5,€€,Brasseries,30 rue de Patay 75013 Paris France,48.8254806,2.3749241
Ground Control,4.6,N/A,"Bars, Pop-Up Restaurants",81 rue du Charolais 75012 Paris France,48.8437399,2.3818
Danieli Caffè,4.3,N/A,Cafes,170 avenue de Paris 94300 Vincennes France,48.846532,2.419625
Dans la Cuisine,5.0,N/A,"Cocktail Bars, Burgers, French",54-56 avenue de France 75013 Paris-13E-Arrondissement France,48.8267954373933,2.3804900759061
Les Garnements,4.0,€€,French,17 rue Michel Chasles 75012 Paris France,48.84781,2.3738
Nous 4,4.9,N/A,French,3 rue Beccaria 75012 Paris France,48.846778,2.379134
Le Stendhal,4.7,€€,"French, International",30 Rue Stendhal 75020 Paris France,48.86167,2.40166
Chez Lili et Marcel,3.8,€€,"French, Brasseries",1 quai Austerlitz 75013 Paris France,48.837575922311,2.3733658796209
Mei Xi,4.3,€,Chinese,54 boulevard Diderot 75012 Paris France,48.8464132,2.3797005
Les Zygomates,4.3,€€€,French,7 rue de Capri 75012 Paris France,48.835876,2.398352
Mama Shelter - Restaurant-Bar-Pizzeria,3.5,€€€,"Pizza, Bars, French",109 rue de Bagnolet 75020 Paris France,48.85964,2.40286
Queyrelou,4.8,€€,French,287 rue du Faubourg Saint Antoine 75011 Paris France,48.8493614,2.3902199
L'Arobase,4.3,€,"Coffee & Tea, Bagels, Breakfast & Brunch",101 Rue Chevaleret 75013 Paris France,48.8298085910156,2.37442016601562
Villa Capri,4.3,€€€,"Italian, Pizza",2 bd de la Libération 94300 Vincennes France,48.8465853167589,2.45129680535053
La Vie d'Ange,4.6,€€€,"French, Wine Bars",41 bd Saint-Jacques 75014 Paris France,48.83257,2.33781
L'Abribus Café,3.9,€,"Moroccan, French, Bars",56 rue de Bagnolet 75020 Paris France,48.85737,2.3992
Saïgon,4.3,€€,Restaurants,63 Rue Traversière 75012 Paris France,48.84913,2.37473
Le Jourdain,4.7,€€,"Tapas Bars, Seafood",101 rue des Couronnes 75020 Paris France,48.8721699,2.38924
Peppe,4.8,N/A,Pizza,2 place Saint-Blaise 75020 Paris France,48.860092,2.404201
Bistrattoria Nonna Rita,4.3,N/A,"Pizza, Italian, Specialty Food",4 rue Marsoulan 75012 Paris France,48.8452988,2.4028599
L'Arrosoir,3.8,€€,"French, Cocktail Bars",75 avenue Daumesnil 75012 Paris France,48.8461456054576,2.37810809693907
Station Café,4.5,€€,Brasseries,27 boulevard Diderot 75012 Paris France,48.8458243940621,2.37535357475281
Song Huong,4.3,€€,Vietnamese,129 avenue de Choisy 75013 Paris France,48.82642,2.35951
Le Picotin,4.3,€€€,"French, Bistros",35 rue Sibuet 75012 Paris 12 France,48.843763749503,2.4023244327406
Café des Banques,4.3,€€,"Bars, Moroccan, Brasseries",13 bis Avenue Père Lachaise 75020 Paris France,48.8643858,2.3978411
Palissade,4.3,€€,"Bars, French, Tapas/Small Plates",36 rue de Sambre-et-Meuse 75010 Paris France,48.87458,2.37254
L'Alchimiste,4.2,€€€,"French, Brasseries",181 rue de Charenton 75012 Paris France,48.843173344452,2.3854776755441
Les Incorruptibles,5.0,N/A,"Restaurants, Bars",102 Avenue Gén de Gaulle 94160 St Mandé France,48.8376535,2.4178446
La Ravigote,4.4,€€,Bistros,41 rue de Montreuil 75011 Paris France,48.8505178,2.3879359
La Table d'Emile,4.0,€€,French,7 rue Emile Zola 93100 Montreuil Sous Bois France,48.8545209,2.4195827
Les Saveurs de Printemps,4.3,N/A,Pan Asian,23 avenue du Docteur Arnold Netter 75012 Paris France,48.84239,2.404802
Les Mésanges,4.5,N/A,Brasseries,82 rue de la Mare 75020 Paris France,48.87265,2.3897501
Dame Nation,5.0,N/A,Bistros,2 rue Guénot 75011 Paris France,48.850803,2.392496
Extra Old Cafe,3.7,€€,"French, Bars, Cafes",307 rue faubourg Saint-Antoine 75011 Paris France,48.848981938566,2.3928291328424
Tesoro d'italia - Saint Marcel,4.5,€€,"Italian, Cocktail Bars, Modern European",65 bd Saint-Marcel 75013 Paris France,48.83754,2.35419
Chez Julia et Ryan,5.0,N/A,Bistros,40 rue Baulant 75012 Paris France,48.8411364,2.3873437
Fosca,4.3,N/A,Italian,19 boulevard Diderot 75012 Paris France,48.84586,2.37168
La Pastorale,5.0,€€,Restaurants,2 avenue Joffre 94700 Maisons Alfort France,48.8155,2.44429
Le Casque d'Or,4.1,€,French,15 rue Saint-Blaise 75020 Paris France,48.8596091,2.4050794
Les Cascades,3.3,€€,"French, Cafes, Brasseries, Coffee & Tea",2 place Edouard Renard 75012 Paris France,48.835,2.40684
Le Paris Lyon,4.3,N/A,Brasseries,12 boulevard Dideriot 75012 Paris France,48.845456815199,2.37113775167257
La Butte Aux Piafs,4.1,€€,French,31 bd Auguste-Blanqui 75013 Paris France,48.8299217,2.3519299
La Manufacture,4.1,€€,"Bars, French, Brasseries",62 ave des Gobelins 75013 Paris France,48.8334322211117,2.35405210519735
Mondol Kiri,4.3,€€€,Cambodian,159 avenue de Choisy 75013 Paris France,48.8281074770418,2.35815775425272
O'Jules,2.9,€€,"Brasseries, French",2 rue Bobillot 75013 Paris France,48.83062,2.35459
Il Etait un Square,4.8,€€,"Burgers, French",54 rue Corvisart 75013 Paris France,48.8309711253147,2.34798106998272
Au Village De Choisy,4.2,€€,Chinese,106 Avenue Choisy 75013 Paris France,48.8254137,2.3606442
De Clercq,4.0,€,"Friterie, Belgian, Fast Food",103 rue de Tolbiac 75013 Paris France,48.8266487,2.365
YOBO,4.7,N/A,Korean,8 rue Abel Hovelacque 75013 Paris France,48.833007,2.353486
Chez Mamane,4.2,€,Mediterranean,27 rue des Cinq Diamants 75013 Paris France,48.82871,2.35062
La Cantine de Gaston,5.0,N/A,Bistros,163 rue de Tolbiac 75013 Paris France,48.8260336187163,2.3547025769949
Ti Amo - Place d'Italie,5.0,N/A,"Pizza, Italian",27 boulevard Auguste Blanqui 75013 Paris France,48.83027,2.35266
New Soul Food,4.2,N/A,"Food Trucks, African, Caribbean",75013 Paris France,48.83012,2.36224
Le Bouche à Oreilles,4.0,€€,French,10 Place Paul Verlaine 75013 Paris France,48.8275,2.35199
Café du Commerce,4.0,€€,French,39 rue des Cinq Diamants 75013 Paris France,48.82824,2.35019
Lao Lane Xang,4.0,€€,"Vietnamese, Thai, Laotian",102 avenue d'Ivry 75013 Paris France,48.8256,2.3614099
Père Fecto,4.6,€,"French, Italian",15 rue Jean Colly 75013 Paris France,48.82798,2.369
Pho Bom,4.3,€€,Vietnamese,71 avenue de Choisy 75013 Paris France,48.8234519151299,2.3618221655488
Norouz,4.6,€€,Persian/Iranian,48 rue du Dessous des Bergers 75013 Paris France,48.8266106,2.3745699
Tempero,4.6,€€,French,5 rue Clisson 75013 Paris France,48.8331763147724,2.3693971364491
O’54,5.0,N/A,"Burgers, Fast Food",54 rue de la Santé 75014 Paris France,48.83128,2.34112
Le Prétexte,3.8,€€,French,111 rue de Tolbiac 75013 Paris 13 France,48.8265032,2.3632729
Chào Bà,5.0,N/A,Vietnamese,14 rue Coypel 75013 Paris France,48.83328,2.35512
Chez Tran,4.4,€,"Vietnamese, Chinese",22 rue du Moulin des Prés 75013 Paris France,48.82855,2.3527
Lion Sot,4.7,N/A,French,6 avenue René Coty 75014 Paris France,48.8329024303849,2.33268231153488
Bekseju Village,4.4,€€€,Korean,53 bd Saint-Marcel 75013 Paris France,48.83783409661,2.35501964842013
La Maison Austerlitz,4.2,N/A,Bistros,8 boulevard de l'Hôpital 75005 Paris France,48.842584,2.363433
Sandwich Cafe,4.0,€,"Sandwiches, Desserts, Coffee & Tea",184 ave Choisy 75013 Paris France,48.83009,2.35678
Le Chevaleret,5.0,N/A,Brasseries,122 rue du Chevaleret 75012 Paris France,48.83347,2.3694
Le Réveil Matin,4.1,€€,"Bars, Brasseries, French",32 avenue des Gobelins 75013 Paris France,48.83575,2.3522599
La Nouvelle Gare,4.0,€,Bistros,49 Boulevard Vincent-Auriol 75013 Paris France,48.83397,2.364764
Chez Trassoudaine,4.6,€€€,French,3 place Nationale 75013 Paris France,48.828698,2.365149
Desvouges,4.6,€€€,French,6 rue des Fosses Saint-Marcel 75005 Paris France,48.83914,2.35615
Le Temps des Cerises SCOP,3.2,€€€,"French, Bistros",18 rue Butte aux Cailles 75013 Paris France,48.827911,2.350476
L'Angolo,4.5,€€,Italian,42 rue Broca 75005 Paris France,48.837867668199,2.3473438650622
Lao Cai Ragout,5.0,N/A,Chinese,8 rue Fagon 75013 Paris France,48.83247,2.35787
L'Hommage,4.9,€€,French,36 avenue de Choisy 75013 Paris France,48.8223687343234,2.36309621483088
Twoubadou,4.0,€€,French,70 bd de L'Hôpital 75013 Paris France,48.8376389,2.35973
Lao Chaleune,4.5,€,Laotian,29 rue Château des Rentiers 75013 Paris France,48.82424,2.37023
Atlas,4.6,N/A,,2 Avenue Reille 75014 Paris France,48.82454,2.33698
Chinchin,4.2,€€,French,25 avenue Reille 75014 Paris France,48.824049,2.335835
Le Pré Salé,4.0,€€,French,22 rue du Moulin des Prés 75013 Paris France,48.8285903263495,2.35276141721094
Royal Fondue,4.0,N/A,"Hot Pot, Chinese, Barbeque",98 avenue de Choisy 75013 Paris France,48.82508,2.36096
Café de France,3.1,€€,"Brasseries, French, Cafes",12 place d'Italie 75013 Paris France,48.83135,2.35421
Chez Nathalie,3.7,€€,French,45 rue Vandrezanne 75013 Paris France,48.827959845134,2.3528580628611
Ba Mien,4.0,€€,Vietnamese,180 avenue de Choisy 75013 Paris France,48.8299716,2.3570948
Contre Allée,4.3,€€€,French,83 ave Denfert-Rochereau 75014 Paris France,48.83695,2.33487
John John John,4.7,N/A,"Poke, Cafes",59 rue de Tolbiac 75013 Paris France,48.827418,2.369715
Fleurs de Mai,4.0,€€,Chinese,61 avenue de Choisy 75013 Paris France,48.82308,2.36216
Lao Douang Chan,4.0,€€,"Vietnamese, Thai, Laotian",161 avenue de Choisy 75013 Paris France,48.8282367,2.3580975
L'Écir,3.9,€€,"Bars, French, Brasseries",59 bd Saint Jacques 75014 Paris France,48.8328285,2.3361199
Le Comptoir Marguery,4.3,€€,"French, Wine Bars",9 boulevard de Port-Royal 75013 Paris France,48.83679,2.34983
Au Banquier,3.9,€€,French,7 Rue Banquier 75013 Paris France,48.83611,2.35753
La Traversée de Paris,4.5,N/A,Brasseries,45 Rue Poliveau 75005 Paris France,48.83971,2.35659
Les Frangins,4.0,N/A,Bistros,3 rue des Gobelins 75013 Paris France,48.83576,2.35214
Mean Heng,5.0,N/A,Vietnamese,56 rue de la Santé 75014 Paris France,48.83115,2.34113
Hôtel COQ,4.5,€€,"Hotels, Breakfast & Brunch",15 rue Edouard Manet 75013 Paris France,48.83293,2.35729
Le Café Gourmand,4.0,€€€,"Brasseries, Pubs, Cafes",192 avenue de France 75013 Paris France,48.8359684327945,2.37192688095092
La Terrasse d'Italie,3.5,€€,"Pizza, Italian",21 avenue d'Italie 75013 Paris France,48.82882,2.35651
Delfino,4.6,€€,"Pizza, Italian",1 Rue Campo Formio 75013 Paris France,48.833653,2.360921
Phó Taì,4.0,€€,"Vietnamese, Pan Asian",13 rue Philibert Lucot 75013 Paris France,48.8221893,2.36133
Misso,5.0,N/A,Restaurants,27 rue Moulin des Prés 75013 Paris France,48.82868,2.3529
Le Mêlécasse,2.4,N/A,Brasseries,12 rue de la Buttes aux Cailles 75013 Paris France,48.8279799,2.35128
Viet Thai,3.5,€€,"Vietnamese, Thai",201 avenue de Choisy 75013 Paris France,48.8299064020853,2.35671568954922
L'Intermède,4.0,€€,Bistros,99 boulevard de l'Hôpital 75013 Paris France,48.837374,2.360218
L'Ephémère,4.0,€€,"French, Cafes",228 avenue du Maine 75014 Paris France,48.8283846426608,2.32654843195182
Chez Félicie,3.9,€€,French,174 avenue du Maine 75014 Paris France,48.83245,2.32472
Cocotte,4.4,N/A,French,165 avenue du Maine 75014 Paris France,48.832819,2.325148
Le Petit Baigneur,4.2,€€,French,10 rue de la Sablière 75014 Paris France,48.83176,2.324231
Le 14 Juillet,4.3,€€€,French,99 rue Didot 75014 Paris France,48.82838,2.3162
Papy aux Fourneaux,4.5,N/A,"Delicatessen, Bistros",70 rue de l'Ouest 75014 Paris France,48.8354838677862,2.31803745031357
Ernest,3.8,€€,French,35 rue du commandant René Mouchotte 75014 Paris France,48.837739,2.319387
La Sablière,4.8,€€,"French, Creperies",56 rue de la Sablière 75014 Paris France,48.8324,2.32087
Caprice café,4.3,€€,French,12 Avenue Jean Moulin 75014 Paris France,48.827477,2.3255344
Louisette,5.0,N/A,Tapas Bars,50 rue Raymond Losserand 75014 Paris France,48.8346386352128,2.31928762209941
Au P'tit Zinc,4.4,€€,Bistros,2 rue des Plantes 75014 Paris France,48.8323050124393,2.32480750880012
My Noodles,4.6,€€,Chinese,129 boulevard du Montparnasse 75006 Paris France,48.8415,2.3317199
Le Maine Café,3.9,€€,Brasseries,88 avenue du Maine 75014 Paris France,48.8379536,2.3226449
La Campagnola,4.0,€€,"Italian, Pizza",122 avenue du Maine 75014 Paris France,48.83571,2.3234
Le Cornichon,4.4,€€€,French,34 Rue Gassendi 75014 Paris France,48.83421,2.32628
La Verrière Paris,4.6,€€€,"French, International",4 rue Niépce 75014 Paris France,48.83486,2.31818
Fournil Daguerre,4.7,N/A,"Bakeries, Sandwiches, Desserts",69 rue Daguerre 75014 Paris France,48.83535974,2.32580647
Au Temps Passé,4.0,€,Bistros,108 rue d'Alésia 75014 Paris France,48.8294989317158,2.32256568968296
N & C Brasserie,5.0,€€,Brasseries,67 rue Didot 75014 Paris France,48.83002,2.31863
Dokkebi,4.4,€€,Korean,121 Rue Raymond Losserand 75014 Paris France,48.8323402,2.3152699
Aux Enfants Gatés,4.5,€€€€,French,4 rue Danville 75014 Paris France,48.8344852,2.3277294
L'Assiette,4.1,€€€,French,181 rue du Château 75014 Paris France,48.83338,2.32404
L'Essentiel,4.4,€€€,"French, Modern European",168 rue d'Alesia 75014 Paris France,48.831806,2.31468
Tavola di Gio,4.7,€€,Restaurants,210 Boulevard Raspail 75014 Paris France,48.8415,2.3297
Lili et Riton,4.3,N/A,French,64 rue du Montparnasse 75014 Paris France,48.8415247163425,2.32505436045775
L'Alexandra,4.7,N/A,French,6 Rue Pernety 75014 Paris 14 France,48.83301,2.31978
Le Laurier,4.1,€€,French,2 rue Pernety 75014 Paris France,48.8325667499439,2.32050828675067
Le Templier,4.5,€€€,French,25 bis rue Armorique 75015 Paris France,48.83878,2.31456
Bistrotters,4.5,€€€,"French, Modern European",9 rue Decrès 75014 Paris France,48.83304,2.31498
Le Kigawa,4.5,€€€,French,186 rue du Chateau 75014 Paris France,48.83313,2.32428
Chez Kim Ly,4.4,€,"Vietnamese, Imported Food",86 Rue Didot 75014 Paris France,48.82843,2.31618
Smoke,4.2,€,"Bars, French",29 rue Delambre 75014 Paris France,48.84143,2.32664
L'Atelier B,4.4,N/A,"Burgers, Bars",129 rue du Chateau 75014 Paris France,48.83496,2.32071
Aux Vignobles du Plaisir,4.4,N/A,"Wine Bars, French",88 rue Didot 75014 Paris France,48.8284499,2.31603
Augustin,4.0,€€€,French,79 rue Daguerre 75014 Paris France,48.83558,2.32502
Jazz Café Montparnasse,4.0,N/A,"French, Jazz & Blues",13 rue du Commandant René Mouchotte 75014 Paris France,48.839001,2.320895
Poinçon,3.8,N/A,"French, Cocktail Bars",124 avenue du Général Leclerc 75014 Paris France,48.82464,2.32566
Les Petits Plats,4.2,€€€,Bistros,39 Rue Plantes 75014 Paris France,48.82861,2.32206
Swann et Vincent,4.2,€€,Italian,22 place Denfert-Rochereau 75014 Paris France,48.8339127001802,2.33092251319158
Angkor Monorom,4.7,N/A,"Cambodian, Pan Asian",3 rue des Plantes 75014 Paris France,48.83017,2.32342
Pastamore,4.3,N/A,Italian,39 boulevard du Montparnasse 75006 Paris France,48.84492,2.32139
Le Château Poivre,4.1,€€€,French,145 rue du Château 75014 Paris France,48.83426,2.32207
Le Bistrot de l'Echanson,4.2,€€,"French, Bars",20 rue de la Gaîté 75014 Paris France,48.8397,2.3236
La Cantine Du Troquet,3.9,€€€,Basque,101 Rue De L Ouest 75014 Paris France,48.83414,2.31587
La Basilicata,3.9,€€,Italian,36 Avenue Jean Moulin 75014 Paris France,48.8266747,2.3228551
Le Grand Comptoir d'Alésia,3.7,€€,"French, Bars",125 rue d'Alésia 75014 Paris France,48.829235,2.322792
Les Saveurs du Sichuan,4.6,€€,"Szechuan, Asian Fusion",34 rue Friant 75014 Paris France,48.825039,2.32348
Le Saut du Crapaud,4.3,€€€,"French, Bistros",16 rue des Plantes 75014 Paris France,48.8315684,2.3242502
Le Lithographe,4.3,€€,Cafes,234 boulevard Raspail 75014 Paris France,48.83898,2.33043
Pinocchio,3.9,€€,"Pizza, Italian",19 bd Edgar Quinet 75014 Paris France,48.8411903,2.32388
Crêperie Parisienne,4.4,€€,Creperies,70 avenue Jean Moulin 75014 Paris France,48.8262,2.32311
Apulia,4.5,N/A,"Italian, Vegan, Vegetarian",32 rue Liancourt 75014 Paris France,48.83437,2.32601
La Petite Auberge,4.3,€€,French,13 rue du Hameau 75015 Paris France,48.8349057,2.2886852
Etoile d'Asie,4.3,€€,Chinese,17 rue Daguerre 75014 Paris France,48.83377,2.32993
La Table de Bezout,4.5,€€,French,31 Rue Bézout 75014 Paris France,48.82889,2.33005
Bistro D'indochine,4.5,€€,Vietnamese,49 rue de Dantzig 75015 Paris France,48.8307953,2.2965558
La Belle Ronde,3.5,€€,"Creperies, French",19 rue Daguerre 75014 Paris France,48.83385,2.329774
Kwon,4.0,N/A,Korean,7 rue Ernest Cresson 75014 Paris France,48.832474,2.329622
Chez Joy,4.1,€€,Pan Asian,84 rue Daguerre 75014 Paris France,48.835746,2.3248179
Prik Thaï,4.3,€€€,Thai,160 avenue du Maine 75014 Paris France,48.83344,2.32463
Septième Raffinement,5.0,N/A,French,64 rue Daguerre 75014 Paris France,48.8351510713223,2.32661046087742
La Crêperie de Josselin,4.1,€€,Creperies,67 rue du Montparnasse 75014 Paris France,48.841704,2.325412
Le Severo,3.8,€€€€,"French, Steakhouses",8 rue des Plantes 75014 Paris France,48.83198,2.32456
Feyrouz,5.0,N/A,Lebanese,91 bis rue d'Alésia 75014 Paris France,48.827975,2.325993
Le 48,4.5,N/A,"Tapas/Small Plates, Cocktail Bars",48 rue du Montparnasse 75014 Paris France,48.84244,2.32577
Crêperie Génia,4.5,€,"Creperies, Salad",98 boulevard du Montparnasse 75014 Paris France,48.84244,2.32763
La Closerie des Lilas,4.0,€€€,"Brasseries, Bars",171 bd Montparnasse 75006 Paris France,48.8397,2.33655
Le Jeroboam,4.7,€€€,French,72 rue Didot 75014 Paris France,48.82906,2.31693
Le Daudet,3.9,€€,Brasseries,16 rue Alphonse Daudet 75014 Paris France,48.826808,2.327117
L'Alcôve,5.0,N/A,French,46 rue Didot 75014 Paris France,48.8310699,2.31956
Les Fauves,4.2,€€€,"French, Breakfast & Brunch",33 boulevard Edgar Quinet 75014 Paris France,48.84256,2.322584
Le Comptoir du Bo Bun,3.8,N/A,Vietnamese,22 rue Raymond Losserand 75014 Paris France,48.83571,2.32125
Le Bouquet d'Alesia,3.5,€€,"Bars, French, Brasseries",75 avenue du Général Leclerc 75014 Paris France,48.82799,2.32709
Backstage Café,3.8,€€,"French, Bars",31 bis rue Gaîté 75014 Paris France,48.8395,2.32353
Maison Edgar,4.0,N/A,"Cocktail Bars, French, Breakfast & Brunch",232 boulevard Raspail 75014 Paris France,48.83967,2.33008
Le Verre Siffleur,3.4,€€,"French, Bistros, Brasseries",73 rue d'Alésia 75014 Paris France,48.82779,2.32901
L'Esprit Parisien,5.0,N/A,Restaurants,179 Boulevard Brune 75014 Paris France,48.8238483,2.3235069
Café Signes,4.0,€,"Coffee & Tea, French, Cafes",33 ave Jean Moulin 75014 Paris France,48.82589,2.3226
66 rue raymond losserand,5.0,N/A,Brasseries,44 Rue Pernety 75014 Paris France,48.8341133,2.3179997
Le Baribal,4.1,€€,"Bars, French",186 rue Vaugirard 75015 Paris France,48.841890513781,2.3089872879311
Blue Buoï Café,4.3,€,"Bars, Brasseries",50 bd Vaugirard 75015 Paris France,48.84089,2.31568
Aux Artistes,3.9,€€,French,63 Rue Falguière 75015 Paris France,48.84048,2.31291
Thai Phanthong,5.0,€€,Thai,37 rue de l'Ouest 75014 Paris France,48.836478,2.3202945
Le Cantal 15,5.0,N/A,"Auvergnat, Brasseries",31 avenue du Maine 75015 Paris France,48.842823736077,2.32102278499986
Armandie,4.1,€€€,"French, Seafood",2 bis rue Petel 75015 Paris France,48.841843,2.29889
Pietro,4.0,€€,"Italian, Pizza",81 Rue Lecourne 75015 Paris France,48.84322,2.30475
Le Café du Commerce,3.6,€€€,French,51 rue du Commerce 75015 Paris France,48.84641,2.29533
Les Artisans,3.5,€€,"Brasseries, Cocktail Bars",106 rue Lecourbe 75015 Paris 15 France,48.8429,2.3031094
Les Nouilles Fraiches,4.9,N/A,"Chinese, Ramen",32 rue Frémicourt 75015 Paris France,48.8475092,2.29966
Le P'tit Gavroche,3.8,€€,"French, Bistros",88 rue Blomet 75015 Paris France,48.84115,2.3012
Au Roi du Café,4.1,€€,Bistros,59 rue Lecourbe 75015 Paris France,48.84374,2.30652
Dans ma cuisine,4.4,€,Sandwiches,140 bis rue recourbe 75015 Paris France,48.8419426,2.3002787
A la Tour Eiffel,3.7,€€,Brasseries,96 rue du Commerce 75015 Paris France,48.8437,2.29303
Au Dernier Métro,4.1,€€,French,70 boulevard de Grenelle 75015 Paris France,48.85036,2.29311
Le Petit Voisin,4.6,€€,French,167 rue Saint Charles 75015 Paris France,48.84466,2.28379
Caffé Cambronne,3.8,€€,"French, Cafes, Brasseries",5 place Cambronne 75015 Paris France,48.84747,2.30175
Good News Coffee Shop,4.8,N/A,"Breakfast & Brunch, Coffee & Tea",27 bis rue Mademoiselle 75004 Paris France,48.84368,2.2955899
L'Oustal,4.2,€€,"Brasseries, French",139 bd de Grenelle 75015 Paris France,48.8483632,2.3010924
Chez Eusebio,4.3,€€,Spanish,14 rue Miollis 75015 Paris France,48.84618,2.30496
Le Cosmos,5.0,N/A,Brasseries,10 rue Henri Duchêne 75015 Paris France,48.8471,2.29361
Akasaka,4.8,N/A,Korean,11 rue Beaugrenelle 75015 Paris France,48.84767,2.28564
Guylas,4.8,€€€,Persian/Iranian,68 rue des Entrepreneurs 75015 Paris France,48.845085,2.28945
Maison Privat,4.7,€,"Desserts, Bakeries, Sandwiches",7 place Cambronne 75015 Paris France,48.84754,2.30209
Senatore Caffé,4.0,N/A,"Pizza, Italian",54 rue Mademoiselle 75015 Paris France,48.8432977699984,2.30002608150244
Neige d'Eté,4.9,€€€€,French,12 rue de l'Amiral Roussin 75015 Paris France,48.8453598,2.2990401
Myung Ka,4.6,€€,Korean,19 Boulevard Garibaldi 75015 Paris France,48.84722,2.3043
Bong,4.1,€€€,Korean,42 rue Blomet 75015 Paris France,48.84272,2.30578
Cheminée,4.4,€€€,Persian/Iranian,60 bis rue Entrepreneurs 75015 Paris France,48.8455299,2.28811
Restaurant Le Bélisaire,4.0,€€€,Restaurants,2 rue Marmontel 75015 Paris France,48.83741,2.30094
Au Rendez Vous des Amis,4.2,€€,"French, Vietnamese",114 rue Blomet Paris 75015 Paris France,48.84035,2.2985
O Fil Rouge,4.5,N/A,French,69 rue Saint Charles 75015 Paris France,48.8481903,2.2869899
Le Borromée,4.5,N/A,"Bars, French, Brasseries",224 rue de Vaugirard 75015 Paris France,48.84073,2.30531
Le Coin d'Alexandre,5.0,€€€,French,86 rue Olivier de Serres 75015 Paris France,48.832253,2.293413
Le Radis Beurre,4.5,N/A,"Bistros, French",51 bd Garibaldi 75015 Paris France,48.84632,2.3078
142 Crêperie Contemporaine,4.4,€€,Creperies,59 rue Saint-Charles 75015 Paris France,48.848798,2.28751
Les Cafééries de Paris,5.0,€€,Cafes,201 rue de la Convention 75015 Paris France,48.83676,2.29807
Nonno,5.0,N/A,"Pizza, Italian",23 rue Lecourbe 75015 Paris France,48.844259142201,2.30892296880484
Chez Milo,4.3,N/A,Cafes,16 rue Maublanc 75015 75015 Paris France,48.8394761495658,2.3000156879425
Aux Cerises,4.5,€€,Cafes,47 avenue Suffren 75007 Paris 07 France,48.85367,2.29725
Bokko,5.0,N/A,Korean,11 place du Commerce 75015 Paris France,48.845282,2.292987
Khao Tip,4.8,€€,Thai,8 rue de la Procession 75015 Paris France,48.840206,2.305251
Novotel Café,5.0,N/A,French,Novotel Paris Vaugirard Montparnasse 257 rue de Vaugirard 75015 Paris France,48.8401108,2.3036101
L'Epopée,4.6,€€€,French,89 avenue Emile Zola 75015 Paris France,48.846744436209,2.2879467620389
Le Cherine,4.9,N/A,"Lebanese, Mediterranean",74 rue de la Croix Nivert 75015 Paris France,48.84457,2.2967
Cafe Beaugrenelle,3.8,€€,"Bars, French",89 rue Saint-Charles 75015 Paris France,48.8463732,2.2855172
O Coffeeshop,4.7,€€,"Cafes, Breakfast & Brunch",23 rue de Lourmel 75015 Paris France,48.84911,2.291145
Marie Edith,4.0,€€€,French,34 Rue Du Laos 75015 Paris France,48.84873,2.30126
Brasserie Laura,4.0,N/A,Brasseries,44 rue Paul Barruel 75015 Paris France,48.8373599,2.30583
Le Bon Pari!,5.0,N/A,French,225 rue de Vaugirard 75015 Paris France,48.8415514405984,2.30826321426057
Le Casse Noix,4.6,€€€,French,56 rue de la Fédération 75015 Paris 15 France,48.85348,2.29511
Amalfi,4.4,€€,"Italian, Pizza",4 rue Viala 75015 Paris France,48.85067,2.2918
Les Ecrivains,4.0,N/A,"Bars, Breakfast & Brunch",15 rue des Favorites 75015 Paris France,48.83892,2.30349
L'Antre Amis,4.2,€€€,French,9 rue Bouchut 75015 Paris France,48.846746,2.310219
Métropolitan,3.6,€€,"French, Cafes, Burgers",83 bd Grenelle 75015 Paris France,48.8501601,2.2950849
Ayothaya,4.3,€€,Thai,8 rue Tiphaine 75015 Paris France,48.84917,2.29515
L'Orchidée Asiatique,4.5,€,Chinese,20 bd Garibaldi 75015 Paris France,48.8469771,2.3038745
la Table Médiévale,5.0,€€,Restaurants,7 rue de Cadix 75015 Paris France,48.8344,2.28885
Café Basile,4.2,€€,Brasseries,2 boulevard Pasteur 75015 Paris France,48.84484,2.31063
Le Drapeau de la Fidelité,4.1,€,"Vietnamese, Asian Fusion",21 rue Copreaux 75015 Paris France,48.841676,2.307036
Le Commerce,3.3,€€,Brasseries,80 rue Commerce 75015 Paris France,48.8449893,2.2939925
Deuz,4.3,€€€,French,37 rue d'Alleray 75015 Paris France,48.8368587,2.3032243
Il Bari,4.4,N/A,"Cafes, Cocktail Bars",4 boulevard Garibaldi 75015 Paris France,48.8476041,2.30224
Arzeh,5.0,€,Lebanese,111 rue Cambronne 75015 Paris France,48.8413506,2.30373
Bernard du 15,4.0,€€,"French, Caribbean",62 rue des Entrepreneurs 75015 Paris France,48.845351,2.2887368
Le Primerose,3.5,€€,"Brasseries, Cafes",64 avenue de la Motte-Picquet 75015 Paris France,48.849707,2.298466
Le Roi du Couscous,4.0,€€,Moroccan,112 bd de Grenelle 75015 Paris France,48.8493578,2.296419
Le Cambodge,4.5,N/A,"Vietnamese, Cambodian, Chinese",2 rue Leriche 75015 Paris France,48.83592,2.29405
Le Relais du 15ème,4.2,N/A,Italian,78 avenue Emile Zola 75015 Paris France,48.84648,2.28674
Ristorantino Shardana,4.3,€€€,"Mediterranean, Italian",134 rue du Theatre 75015 Paris France,48.8456761230786,2.29639302939177
El Colissio,4.6,€,"Pizza, Italian",27 rue Violet 75015 Paris France,48.84847,2.29392
Au Moka,4.1,€€,"Brasseries, Wine Bars",92 boulevard de Grenelle 75015 PARIS 15 France,48.84983,2.29478
Lido Restaurant Chinois,4.5,€€,Restaurants,1 Rue D Ouessant 75015 Paris 15 France,48.85013,2.29652
Le 41 Pasteur,5.0,N/A,French,41 boulevard Pasteur 75015 Paris France,48.842496575623,2.31318801641464
Le Bistrot 12,4.5,€€,"Bistros, Cafes",22 avenue Félix Faure 75015 Paris France,48.84209,2.29035
Le Pierrot,3.2,€€,"French, Cafes, Breakfast & Brunch",67 avenue la Motte Picquet 75015 Paris France,48.8492135351766,2.29846577182775
La Cuillère en Bois,4.1,€,Creperies,108 Rue Entrepreneurs 75015 Paris France,48.84334,2.2939
Kohyang,4.6,€€,Korean,6 rue du Général Estienne 75015 Paris France,48.84406,2.28427
Les Pères Siffleurs,4.0,N/A,French,15 rue Gerbert 75015 Paris France,48.83934,2.29886
Au Goût Dujour,4.7,€€€,French,12 Rue Beaugrenelle 75015 Paris France,48.8475279,2.285597
Le Bois,4.4,N/A,"French, Bistros",29 rue Bois le Vent 75016 Paris France,48.8576,2.27402
Le Scheffer,4.3,€€,"Bistros, Brasseries",22 Rue Scheffer 75016 Paris France,48.861375787434,2.2830187002285
La Place Longchamp,4.4,N/A,French,84 rue de Longchamp 75116 Paris France,48.86549,2.28379
Bouillon Passy,4.4,€€,"Food, Italian",34 Rue Annonciation 75016 Paris France,48.8572381,2.2784151
Café à la Fontaine,4.0,€,Brasseries,12 rue de Boulainvilliers 75016 Paris France,48.85294804619,2.2759776947232
Le Forty-One,4.5,€,"Bistros, Brasseries, Cocktail Bars",41 rue Poussin 75016 Paris France,48.8484082,2.2607847
La Petite Tour,4.4,€€€,French,11 rue de la Tour 75016 Paris France,48.8591197309771,2.28314827036138
Maison Belleguic,5.0,€€,"Delicatessen, Creperies",1 rue Bois le Vent 75016 Paris France,48.85747,2.27729
Marcello,4.4,€€,Italian,10 bd Delessert 75016 75016 Paris France,48.8588295,2.2850399
Il Far'niente,4.5,€€,Italian,44 rue des Perchamps 75016 Paris France,48.849545,2.268463
Le Passy,3.9,€€,"French, Brasseries",2 rue de Passy 75016 Paris France,48.85844,2.28409
La Causerie,5.0,N/A,French,31 rue Vital 75116 Paris France,48.85895,2.27831
Jacques,5.0,N/A,French,129 avenue Victor Hugo 75116 Paris France,48.86791,2.2815
Crêperie Framboise Passy-Trocadéro,4.3,€€,"Creperies, Gluten-Free",10 bd Delessert 75016 Paris France,48.8588295,2.2850399
Le Beaujolais d'Auteuil,4.4,€€,Bistros,99 Boulevard de Montmorency 75016 Paris France,48.8485518362964,2.26078380985643
Chez Tony,4.4,N/A,Greek,34 rue Bois de Vent 75016 Paris France,48.8576813417333,2.2744495421648
Chez Antoine,4.1,€€,French,97 avenue Versailles 75016 Paris France,48.84529,2.27182
Pop's,4.8,N/A,"Pizza, Italian",38 rue du Ranelagh 75016 Paris France,48.85418,2.2759
Le National,4.8,N/A,Brasseries,30 rue de la Convention 75015 Paris France,48.8445974,2.2800116
Le Poincaré,3.9,€€€,"French, Brasseries, Wine Bars",22 avenue Raymond Poincaré 75116 Paris France,48.8650573,2.2865211
Schum,4.6,€€,"French, Bars",50 rue Lauriston 75116 Paris France,48.870032,2.290631
N°41,3.8,€€€,"Bistros, French",41 avenue Mozart 75016 Paris France,48.8552,2.27006
Bô Zinc,3.7,€€,"Brasseries, Bars, Breakfast & Brunch",59 ave Mozart 75016 Paris France,48.8545855,2.2693466
Palais du Bonheur,4.7,€€,"Chinese, Thai",131 rue Michel-Ange 75016 Paris France,48.839062,2.257758
Ozio,4.2,€€,"Italian, Pizza",29 bis rue St Didier 75016 Paris France,48.86631,2.28581
Le Stella,3.9,€€€,"French, Brasseries",133 avenue Victor Hugo 75016 Paris France,48.867555427657,2.28070483011613
Marcello Ristorante,4.5,€€,Bistros,10 bd Delessert 75016 Paris France,48.8587935,2.2851472
Lac Hong,4.2,€€,Vietnamese,67 rue Lauriston 75016 Paris France,48.869011,2.289861
Maison Eudes,5.0,€€,"Bakeries, Salad, Sandwiches",2 rue Girodet 75016 Paris France,48.84832,2.26411
La Regalia,4.1,€€,Cafes,1 rue de la Convention 75015 Paris France,48.84589,2.27763
Essaouira,4.5,€€,Moroccan,16 rue de Magdebourg 75116 Paris France,48.86445,2.28973
Le Bistro des Vignes,4.0,€€,"Breakfast & Brunch, French",1 rue Jean Bologne 75016 Paris France,48.856782,2.279785
L'Archeste,5.0,N/A,French,79 rue de la Tour 75116 Paris France,48.86179,2.27811
Amadeus Café,4.0,€€€,"French, Breakfast & Brunch",54 bis avenue Mozart 75016 Paris France,48.854944,2.269438
La Cantina,4.8,€€,Italian,11 rue Claude Terrasse 75016 Paris France,48.83976183757,2.26372328495764
Siu Yu,4.7,€€€,Chinese,3 rue Sextius Michel 75015 Paris France,48.851707,2.288904
Le Brandevin,3.9,N/A,"French, Bistros",29 rue du Docteur-Blanche 75016 Paris France,48.85375,2.26545
Aux Cocottes,4.4,N/A,French,29 rue Vineuse 75116 Paris France,48.86025,2.2844
La Cave de l'Os à Moelle,4.0,€€€,"French, Wine Bars",181 rue de Lourmel 75015 Paris France,48.83818,2.2819
La Rotonde de la Muette,3.2,€€€,Brasseries,12 chaussée de la Muette 75116 Paris France,48.8584108475904,2.273045
Pizzeria d'Auteuil,3.8,€€,"Italian, Pizza",81 rue Jean de la Fontaine 75016 Paris France,48.848561,2.265715
La Pieta,4.7,€€,Italian,8 ave Emila-Zola 75015 Paris France,48.8461021,2.2786725
Chez Nous2,4.5,€€,French,46 rue Balard 75015 Paris France,48.841747,2.277586
Le Viaduc d'Auteuil,3.5,N/A,Brasseries,52 rue Molitor 75016 Paris France,48.8454474522773,2.259098450902
La Matta,3.9,€€€,"Italian, Pizza",23 rue de l'Annonciation 75016 Paris France,48.85659,2.27935
Bistrot Bleriot,4.2,€€€,"Bistros, Wine Bars",7 avenue de Versailles 75016 Paris France,48.8507719,2.2775587
Bistrot 31,4.4,€€€,French,31 avenue Théophile Gautier 75016 Paris France,48.849906887964,2.2725124449354
Le Petit Boileau,4.5,€€,Bistros,98 rue Boileau 75016 Paris France,48.83986,2.26165
La Librairie,3.8,€€,"French, Breakfast & Brunch",2 rue Duban 75016 Paris France,48.8562453,2.2778825
Le Chalet,4.0,€€€,French,63 rue de la Pompe 75116 Paris France,48.86289342,2.27634616
Madison Caffe,3.8,N/A,"Pizza, Italian, Breakfast & Brunch",10 chaussée de la Muette 75116 Paris France,48.85834,2.27321
Nem 101,4.0,€€,Vietnamese,101 Rue Ranelagh 75016 Paris France,48.8556904,2.2695582
Bon,3.8,€€€€,"French, Pan Asian",25 rue de la Pompe 75116 Paris France,48.86018,2.2749799
L'Ogre,3.9,€€€,Bistros,1 avenue de Versailles 75016 Paris France,48.851161,2.278534
Au 16 Vin,4.0,€€,French,11 ave de Versailles 75016 Paris France,48.8504982,2.27741
Bistrot 41,5.0,N/A,"Brasseries, Bars",41 rue Rouget de Lisle 92130 Issy-les-Moulineaux France,48.827995,2.267317
Le Chasse-Marée,4.8,N/A,Seafood,62 Avenue Mozart 75016 Paris France,48.8543282,2.2690301
Honest Lawyer,3.9,€€,"Pubs, Sports Bars, Gastropubs",176 rue Pompe 75116 Paris France,48.8711174,2.2836364
Chaumette,4.1,€€€,"French, Brasseries",7 rue Gros 75016 Paris France,48.851249726523,2.2774143478267
Settebello,4.4,€€€,Italian,9 rue Duban 75016 Paris France,48.8568826,2.2777089
Giallo Oro,4.4,€€,"French, Italian",90 bis ave de Versailles 75016 Paris France,48.84528,2.27158
Le Polo,3.3,€€,French,109 ave Mozart 75016 Paris France,48.8509806873574,2.26746395859081
Radioeat,5.0,N/A,French,116 avenue du Président Kennedy Galerie Seine - 1er étage Maison de la Radio 75016 Paris France,48.852102,2.279131
Café Lamartine,4.0,€€,Cafes,182 avenue Victor Hugo 75116 Paris France,48.86591,2.27614
Le Gros 7,5.0,N/A,Italian,7 rue Gros 75016 Paris France,48.8512688,2.2773499
Les Petits Insolents,4.1,€€€,"Burgers, Bistros",2 place Léon Deubel 75016 Paris France,48.837666,2.259634
Big Buddha,3.5,N/A,Pan Asian,17 rue Bois le Vent 75016 Paris France,48.85754,2.27548
Café de la Mairie,4.0,N/A,Brasseries,82 rue de la Pompe 75116 Paris France,48.863765,2.2772812
Gloriette Café,4.2,N/A,Cafes,58 rue de la Convention 75015 Paris France,48.843359,2.282809
Mon Bistrot,4.4,€€€,"French, Bistros",33 rue Marcel Dassault 92100 Boulogne Billancourt France,48.8357,2.25355
Le Chalet des Iles,3.8,€€€,"French, Bars",14 chemin de Ceinture du Lac 75016 Paris France,48.863454,2.260424
Le Tournesol,3.2,€€€,French,2 avenue Lamballe 75016 Paris France,48.8545,2.28086
Le Bois le Vent,5.0,N/A,Lebanese,59 rue de Boulainvilliers 75016 Paris France,48.85765,2.27474
Le Récepteur,4.3,€€€,"French, Bistros",3 avenue Théophile Gauthier 75016 Paris France,48.851052,2.275261
Tagawa,4.4,€€€,Japanese,37 bis rue Rouelle 75015 Paris France,48.849828,2.289007
Bistrot Clara,4.8,N/A,Bistros,136 avenue Félix Faure 75015 Paris France,48.8376884,2.2799201
Les Filaos,4.1,€€,Restaurants,5 rue Guy de Maupassant 75116 Paris France,48.862764,2.2733143
Comice,4.7,N/A,French,31 avenue de Versailles 75016 Paris France,48.8495,2.2761
La Grenouille bleue,4.0,€€,"French, Tapas Bars",48 Rue Balard 75015 Paris France,48.84176,2.277731
Bistrot Paul Chêne,4.5,€€€€,Bistros,123 rue Lauriston 75116 Paris France,48.865739,2.285838
Chez Nelly,5.0,N/A,"Thai, Pan Asian",39 rue Jean de la Fontaine 75016 Paris France,48.85037,2.27052
Restaurant Roland-Garros,3.8,N/A,"French, Breakfast & Brunch",2 Avenue Gordon bennett 75016 Paris France,48.847398,2.251075
Au Relais Chardon,4.0,€€,"Bistros, Brasseries",81 rue Chardon Lagache 75016 Paris France,48.8412,2.26362
Da Enzo,4.2,€,Italian,129 rue de la Tour 75116 Paris 16 France,48.86344353,2.27397872
L'Astrance,4.3,€€€€,French,4 rue Beethoven 75016 Paris France,48.85844,2.28734
Eizosushi,4.6,N/A,"Japanese, Sushi Bars",98 Rue Balard 75015 Paris France,48.8377,2.27841
Woo-Jung,4.1,€€,Korean,8 Boulevard Delessert 75016 Paris France,48.85887,2.2852199
Le Pergolèse,4.4,€€,French,40 rue Pergolèse 75016 Paris France,48.87439,2.28289
L'Insolite,5.0,N/A,Brasseries,86 avenue de Villiers 75017 Paris France,48.8845,2.302087
Zino,4.0,€€€,Italian,97 avenue de Villiers 75017 Paris France,48.8842865,2.3001673
Il Etait une Oie dans le Sud Ouest,4.3,€€€,"French, French Southwest",8 Rue Gustave Flaubert 75017 Paris France,48.88145,2.2991
L'Aligot,4.9,N/A,Auvergnat,73 avenue Niel 75017 Paris France,48.8823099,2.29584
Le Tocqueville,4.0,N/A,"Bistros, Brasseries",55 Boulevard Pereire 75017 Paris France,48.887422,2.307471
Wim à Table,4.7,N/A,Bistros,45 rue des Moines 75017 Paris France,48.8899,2.320232
Le Trois-Quart,4.9,€€€,Bistros,49 Rue Laugier 75017 Paris France,48.88253,2.29417
ApéRock,4.4,€€,"French, Burgers, American",7 rue Bayen 75017 Paris France,48.8788,2.29549
La Braisière - Jacques Faussat,4.2,€€€,French Southwest,54 rue Cardinet 75017 Paris France,48.883273,2.306439
Fratelli,4.4,N/A,"Italian, Pizza",130 boulevard Malesherbes 75017 Paris France,48.884934,2.307959
L'Ecole Buissonnière,4.0,€€,Bistros,95 rue de Tocqueville 75017 Paris France,48.8881627461938,2.30648394746374
Le Refuge des Moines,4.6,€€€,"French, Bistros",85 Rue Moines 75017 Paris France,48.89192,2.32213
Le Comptoir d'alphonse,4.2,€€,French,10 place du Marechal Juin 75017 Paris France,48.8853,2.29696
Le P'tit Bougnat,3.8,€€,"French, Steakhouses, Wine Bars",118 boulevard Courcelles 75017 Paris France,48.8786783632371,2.29996385767208
Aux dés Calés,4.3,€€,Brasseries,181 rue Legendre 75017 Paris France,48.8920300545488,2.32612578732983
L'Imprévu,4.1,€€,French,2 rue Tocqueville 75017 Paris France,48.88188,2.31481
Le Bistrot de Mauna Loa,5.0,€€,Bistros,25 rue Jouffroy d'Abbans 75017 Paris France,48.8860207,2.31006
Le Jardin d'Ampère,4.1,€€€€,"French, Bars",102 Avenue de Villiers 75017 Paris France,48.884626,2.299764
Restaurant Brigitte,4.4,€€€€,French,16 avenue de Villiers 75017 Paris France,48.882,2.31401
Café des dames,5.0,€€,"Bistros, Brasseries",8 Avenue de Villiers Metro villiers 75017 Paris France,48.881681,2.315392
Le Cercle Rouge,4.0,€€,French,136 Avenue Wagram 75017 Paris France,48.88566,2.30366
Puerta del Sol,4.9,€€,Peruvian,13 rue de la Félicite 75017 Paris France,48.88676,2.30981
Le Franc Tireur,4.2,€€,Brasseries,34 rue d'Armaillé 75017 Paris France,48.8790379940633,2.29108138528464
Les Messugues,4.5,€€€,French,8 rue Léon Jost 75017 Paris France,48.880122248126,2.30326132650721
Chez Karl et Erick,3.9,€€,French,20 rue de Tocqueville 75017 Paris France,48.88281,2.31352
Le Dome,2.6,€€€€,"Bars, Cafes",4 avenue de Villiers 75017 Paris France,48.8816275,2.3157601
Formaticus,4.7,N/A,"Cheese Shops, Desserts, Salad",16 rue Brochant 75017 Paris France,48.88877,2.3179599
Little Nonna,4.1,N/A,"Pizza, Gluten-Free",12 avenue Niel 75017 Paris France,48.87957,2.294911
Le Boeuf Maillot,4.3,€€€,Bistros,99 avenue des Ternes 75017 Paris France,48.8803580232901,2.28566989302635
Rooster,5.0,N/A,French,137 rue Cardinet 75017 Paris France,48.886745,2.313088
Le Bordeluche,4.5,€€,French,103 rue des Dames 75017 Paris France,48.8829160692409,2.3179941996932
Les Deux Coupoles,4.0,N/A,French,192 avenue de Clichy 75017 Paris France,48.894272,2.314278
La Zuppiera,3.7,N/A,Italian,154 Avenue Wagram 75017 Paris France,48.88699,2.30462
Misa Bulgogi,4.7,N/A,Korean,26 rue Brey 75017 Paris France,48.877174,2.295449
Le Café Ponce,4.6,€€,"Cafes, Coffee & Tea",17 rue Poncelet 75017 Paris France,48.8791809,2.2969899
La Marée,4.0,€€€,Seafood,1 rue Daru 75008 Paris France,48.877449,2.300583
A l'Improviste,4.2,N/A,French,21 rue Médéric 75017 Paris France,48.88105,2.30404
Les Vendanges,5.0,N/A,"French, Gastropubs",65 bd Jean Jaures 92110 Clichy France,48.9011051891588,2.30526470127753
L'Huîtrier,4.2,€€€,"French, Seafood",16 rue Saussier Leroy 75017 Paris France,48.879802,2.296048
Break,4.3,N/A,"Cocktail Bars, French, American",119 boulevard Pereire 75017 Paris France,48.8855,2.29888
Petrus Exploitation,4.8,N/A,Restaurants,12 place Mar Juin 75017 Paris France,48.8852199,2.29653
Le Petit Monceau,4.6,N/A,French,93 Rue Monceau 75008 Paris France,48.8805,2.31647
T Thaï,4.6,€€,Thai,18 Rue Brey 75017 Paris France,48.87659,2.29564
L'Elysée Saint Honoré,3.6,€€€,French,205 rue du Faubourg Saint-Honoré Saint-Honoré 75008 Paris France,48.876504,2.301671
Le Poncelet,4.5,N/A,Cafes,83 avenue de Wagram 75017 Paris France,48.88024,2.29949
La P'tite Cuisine,4.6,N/A,Brasseries,23 rue Poncelet 75017 Paris France,48.879462,2.2975133
Le Vieux Crapaud,4.9,N/A,French,16 rue Lauriston 75116 Paris France,48.8717885462766,2.29239356812286
Coretta,4.5,€€€,Bistros,151bis rue Cardinet 75017 Paris France,48.88966,2.31628
La Marmite de Boeuf,3.8,€€,Chinese,9 Rue Barye 75017 Paris France,48.8816,2.30318
Le Verre Moutarde,4.0,€€,"Bistros, Wine Bars",145 rue de Saussure 75017 Paris France,48.889787,2.3058463
Le Hameau,4.1,N/A,French,84 avenue des Ternes 75017 Paris France,48.880267,2.288061
Phô 520,4.8,N/A,Vietnamese,10 rue de Constantinople 75008 Paris France,48.8801217,2.320406
La Recoleta,4.3,€€,Argentine,119 ave de Villiers 75017 Paris 17 France,48.8851034,2.295054
Phébé,4.8,€€,French,190 rue de Courcelles 75017 Paris 17 France,48.885498,2.296771
Le Jean Bart,4.0,N/A,"French, Brasseries, Tea Rooms",2 rue Jouffroy D'Abbans 75017 Paris France,48.887547,2.313331
LeGendre Idéal,4.9,€€€,French,92 rue Legendre 75017 Paris France,48.88726,2.31952
L'Endroit,3.8,€€,Bistros,67 place du Docteur Félix Lobligeois 75017 Paris France,48.8863352740086,2.318149
Abydoise,4.4,N/A,"French, Seafood",3 villa Berthier 75017 Paris France,48.8853071775556,2.29329639464572
Petit Boutary,4.5,N/A,"French, Bistros, Gastropubs",16 rue Jacquemont 75017 Paris France,48.887825,2.322425
Au Petit Chavignol,3.6,€€,French,78 Rue Tocqueville 75017 Paris France,48.88544,2.31024
Bouclier de Bacchus,5.0,N/A,"Wine Bars, Beer, Wine & Spirits, French",3 rue de Phalsbourg 75017 Paris France,48.8814,2.30891
La Halte du Sacré Coeur,4.0,€€,"French, Brasseries, Cafes",45 Rue Custine 75018 Paris France,48.88942,2.34422
Alix et Mika French Cut Lovers,4.4,N/A,French,37 rue Lamarck 75018 Paris France,48.88929,2.3415499
La Mascotte,4.1,€€€,"Brasseries, Bars",52 rue des Abbesses 75018 Paris France,48.88561,2.3354092
La Maison Rose,3.8,€€€,French,2 rue de l'Abreuvoir 75018 Paris France,48.887969665002,2.33965104092
Le Cépage Montmartrois,3.8,€€,Brasseries,65 Rue Caulaincourt 75018 Paris France,48.889605,2.335844
La Boîte aux Lettres,4.8,€€€,French,108 rue Lepic 75018 Paris France,48.8868300540186,2.3381794989109
Chez Plumeau,4.1,€€€,French,4 place du Calvaire 75018 Paris France,48.88632,2.3403
Le Consulat,3.9,€€,French,18 rue Norvins 75018 Paris France,48.887,2.34005
La Souris Verte,4.3,€€,"Nightlife, French, Corsican",190 rue Marcadet 75018 Paris France,48.89155,2.33599
Le Moulin de la Galette,3.9,€€€,French,83 rue Lepic 75018 Paris France,48.88734,2.33705
Mademoiselle Raymonde,4.6,N/A,Bistros,1 bis rue Félix Ziem 75018 Paris France,48.88917,2.33334
Le Grain de Folie Montmartre,4.5,N/A,Bistros,28 rue la Vieuville 75018 Paris France,48.884914,2.340528
La Taverne de Montmartre,4.1,€€,French,25 rue Gabrielle 75018 Paris France,48.885775,2.340414
Le Coq & Fils - The Poultry House,4.4,€€€€,Rotisserie Chicken,98 Rue Lepic 75018 Paris France,48.887261205041,2.3370014478986
La Renaissance,4.2,€€,Bistros,112 rue Championnet 75018 Paris France,48.8957649,2.3395743
The Hardware Société,4.6,€€,"Coffee & Tea, Breakfast & Brunch, Australian",10 rue Lamarck 75018 Paris France,48.88688,2.3445299
Bistrot le Sainte Isaure,4.4,€,"Bars, Cafes, Coffee & Tea",4 rue Saint Isaure 75018 Paris France,48.893,2.34396
La Part des Anges,4.7,€€€,French,10 rue Garreau 75018 Paris France,48.886047,2.336955
Soul Kitchen,4.5,€€,"Coffee & Tea, Desserts, Breakfast & Brunch",33 rue Lamarck 75018 Paris France,48.88916,2.342305
LouLou Montmartre,4.4,N/A,French,8 rue Lamarck 75018 Paris France,48.88676,2.34446
Les Deux Chauves,5.0,N/A,"Wine Bars, Bistros, Tapas Bars",8 rue Durantin 75018 Paris France,48.88547,2.33732
Au Rendez-Vous des Amis,3.8,€,French,23 rue Gabrielle 75018 Paris France,48.88574,2.34051
Café Tabac,4.7,€,Cafes,1 bis rue Ravignan 75018 Paris France,48.8851649,2.337411
Tartempion,5.0,N/A,French,15 Rue du Mont-Cenis 75018 Paris France,48.8873024612625,2.34136864017703
La Midinette,4.5,€€,"Food, Restaurants",2 rue Robert Planquette 75018 Paris France,48.8851,2.3341
B&M,4.9,N/A,Burgers,98 rue des Martyrs 75018 Paris France,48.884396,2.339872
La Station Damrémont,5.0,N/A,"Fish & Chips, Burgers, Bars",103 rue Damrémont 75018 Paris France,48.895045,2.337199
"Terrass"" Restaurant & Bar - Rooftop",4.1,N/A,"Bars, French",12 Rue Joseph de Maistre 75018 Paris France,48.88651,2.333017
Au Pied du Sacré Coeur,4.3,€€,French,85 rue Lamarck 75018 Paris France,48.890208,2.3356074
Bululú Arepera,4.2,€€,Venezuelan,20 rue de la Fontaine du But 75018 Paris France,48.8909454704663,2.33958390532431
Le Myrha,4.5,€€,"Gluten-Free, Vegetarian, Vegan",70 rue Myrha 75018 Paris France,48.88682,2.35115
Breizh Café Abbesses | La Crêpe Autrement,4.8,N/A,"Creperies, French, Coffee & Tea",93 rue des Martyrs 75018 Paris France,48.8843,2.33967
La Bonne Franquette,4.2,€€,French,18 rue Saint-Rustique 75018 Paris France,48.887163,2.339806
Au Garage à Velos,5.0,€,Bistros,19 rue Gérando 75009 Paris France,48.8829256675887,2.34628949762725
Mamma Roma,3.8,€€,Pizza,2 rue Francoeur 75018 Paris France,48.890001,2.342861
Sur la Route de Plouescat,4.5,€€,Creperies,4 rue Lamarck 75018 Paris France,48.886529,2.344296
Le Sourire de Saigon,4.0,€€€,Vietnamese,54 rue du Mont Cenis 75018 Paris France,48.89059,2.34343
La Chope du Château Rouge,4.2,€,Brasseries,40 rue de Clignancourt 75018 Paris France,48.88694,2.34778
Au Relais,3.7,€€,"French, Bars, Coffee & Tea, Cafes",48 rue Lamarck 75018 Paris France,48.88927,2.34238
Au Soleil de Montmartre,4.2,N/A,French,6 rue Paul Albert 75018 Paris France,48.8862,2.34513
La Mandigotte,4.6,€€,French,68 rue Lepic 75018 Paris 18 France,48.8872873,2.3341602
La Pericole,4.3,€,French,2 Rue jules Valles 93400 Saint-Ouen France,48.903032,2.336487
La Vache et le Cuisinier,4.8,€€€,French,18 rue des Trois Frères 75018 Paris France,48.8846092,2.3412001
Antoine de Montmartre,4.4,€€€€,Tapas Bars,102 ter rue Lepic 75018 Paris France,48.88725,2.3373
La Traversée,4.4,N/A,Bistros,2 rue Ramey 75018 Paris France,48.8872799,2.34754
Le Ruisseau,4.4,€€,"Burgers, French",65 rue du Ruisseau 75018 Paris France,48.89449,2.34065
Virage Lepic,4.4,€€,French,61 Rue Lepic 75018 Paris France,48.8877909,2.3344973
Le Super Coin,4.3,€,"Bars, Bistros",3 rue Baudelique 75018 Paris France,48.89212,2.347
In Bocca al Lupo,4.7,€€,"Pizza, Italian",14 Rue Francoeur 75018 Paris France,48.89028,2.34182
le petit moulin,5.0,N/A,Restaurants,17 rue tholozé 75018 Paris France,48.8865761,2.3355096
Le Vin au Vert,4.2,€€,"French, Wine Bars",70 Rue Dunkerque 75009 Paris France,48.88213,2.34628
Chez Ta Soeur,5.0,N/A,"Coffee & Tea, Breakfast & Brunch, Patisserie/Cake Shop",57 rue du Mont-Cenis 75018 Paris France,48.890538,2.34337
La Travesia,5.0,N/A,"Lebanese, Falafel",19 rue Muller 75018 Paris France,48.8863820345042,2.34558452300873
Tast Eat,4.0,€,"Vietnamese, Thai",78 Rue Lamarck 75018 Paris France,48.88996,2.3383
La Porteña,4.4,€€,Argentine,3 rue Muller 75018 Paris France,48.8867493,2.34708
Tentazioni,4.1,€€,Italian,26 Rue Tholozé 75018 Paris France,48.8869,2.33581
Colchide,5.0,N/A,Restaurants,79 rue des Martyrs 75018 Paris France,48.88299,2.33961
Polissons,5.0,N/A,French,35 rue Ramey 75018 Paris France,48.889113,2.34627
Le Chant des Oliviers,4.2,€€€,French,88 rue Ordener 75018 Paris France,48.89282,2.343
Le Brio,4.1,€€,Brasseries,216 Rue Marcadet 75018 Paris France,48.89177,2.33378
La Cantine du 18,4.1,€€,French,46 rue Ramey 75018 Paris France,48.890304,2.345812
Le Petit Moulin,3.9,€,"Wine Bars, Bistros",17 rue Tholozé 75018 Paris France,48.886614,2.3353844
Pizzeria Mancini,4.7,€€,"Pizza, Italian",20 rue Bachelet 75018 Paris France,48.88893,2.34476
Pichet du Tertre,4.5,N/A,French,10 rue Norvins 75018 Paris France,48.88682,2.34059
Proibido,4.1,€,"Bars, Tapas Bars",34 rue Durantin 75018 Paris France,48.88659,2.3357199
Le Vintimille,4.5,€,"Brasseries, African",1 Place Adolphe Max place Adolphe Max 75009 Paris France,48.8833,2.3305
Ma Biche,4.3,€€€,French,12 rue Véron 75018 Paris France,48.8845,2.3367
L'Accordologue,4.5,€€€,"Mediterranean, Tapas Bars",127 rue Caulaincourt 75018 Paris France,48.88986,2.34218
Chez Ginette,3.7,€€,"Bars, French",101 rue Caulaincourt 75018 Paris France,48.889723740067,2.3386966968475
La Laverie,4.5,N/A,Bistros,122 rue Caulaincourt 75018 Paris France,48.88968,2.3426
Pizzeria Babalou,4.5,€€,"Italian, Pizza",4 rue Lamarck 75018 Paris France,48.886483,2.344328
No Problemo,4.1,€€,French,21 rue André Del Sarte 75018 Paris France,48.8857799,2.3452099
L'Esquisse,4.0,€€€,French,151 bis rue Marcadet 75018 Paris France,48.8913146766818,2.3384715244174
Les Comestibles,3.8,€€,French,4 rue du Mont-Cenis 75018 Paris France,48.886857,2.341349
Il Padrino,3.8,€€,"Italian, Seafood, Mediterranean",49 Rue Custine 75018 Paris France,48.88952,2.34389
Marcel et Clémentine,3.8,€€€,Bistros,74 rue de Dunkerque 75009 Paris France,48.88233,2.34594
Boulom,4.1,N/A,"Bakeries, Breakfast & Brunch, Cocktail Bars",181 rue Ordener 75018 Paris France,48.89363,2.3356499
La Balançoire,4.3,€€€,French,6 rue Aristide Bruant 75018 Paris France,48.8853453,2.3352066
Le Café de la Poste,3.8,€€,Bistros,76 rue Damrémont 75018 Paris France,48.891558,2.335125
Coq & Bock,4.7,€,"Pubs, French",59 rue Ramey 75018 Paris France,48.8904,2.3454799
Le Pavillon des Canaux,4.3,€€,"Bars, Cafes, Modern European",39 quai de la Loire 75019 Paris France,48.8874,2.37871
Café Odilon,4.6,€€,"Pizza, French, Wine Bars",16 quai de la Marne 75019 Paris France,48.8891849554352,2.38175801932812
Brasserie Napoléon III,3.8,€€,"Bistros, Brasseries",1 place Armand Carrel 75019 Paris France,48.882236,2.3819342
Les Bancs Publics,4.3,€€,"French, Bars",2 rue de Nantes 75019 Paris France,48.8908797,2.38388
Sunny,4.0,N/A,"Breakfast & Brunch, French",84 avenue Secrétan 75019 Paris France,48.87902,2.37797
Paname Brewing Company,4.1,€€,"Breweries, Beer Bar, Pizza",41 bis quai de la Loire 75019 Paris France,48.887828,2.378784
Café Bolivar,5.0,N/A,Bistros,31 avenue Secrétan 75019 Paris France,48.881461,2.3731075
Aux Arts et Sciences Réunis,4.2,€€,French,161 avenue Jean Jaurès 75019 Paris France,48.887363406083,2.3867853048297
Au Boeuf Couronné,4.1,€€€,French,188 avenue Jean Jaurès 75019 Paris France,48.88831,2.39135
Franco et Giacomo,4.1,€€,"Pizza, Italian",115 avenue Jean Jaurès 75019 Paris France,48.885851,2.380093
Simonetta,4.1,N/A,Italian,32 quai de la Marne 75019 Paris France,48.8902828134029,2.38396789842577
Kim-Phuc,4.4,€,Chinese,176 Rue Crimée 75019 Paris France,48.8902611,2.377369
La Bicyclette,4.3,€€,Bistros,5 rue de Chaumont 75019 Paris France,48.88139,2.37206
Le Bastringue,4.0,€€,Bistros,67 quai de la Seine 75019 Paris France,48.88792,2.3769
Baladi,3.9,€,Restaurants,105 Rue Meaux 75019 Paris France,48.8841885,2.3779891
Chez Louis,4.6,€€,Bistros,13 Rue Des Ardennes 75019 Paris 19 France,48.88807,2.38628
L'Atlantide,4.2,€€,Moroccan,7 ave Laumière 75019 Paris France,48.882984,2.381117
Au Cochon de Lait,4.1,N/A,French,23 Avenue Corentin Cariou 75019 Paris France,48.89634,2.38414
Biclowne Cafe,4.4,€€,"French, Cafes",210 ave Jean Jaurès 75019 Paris France,48.88871,2.3929
Kaffee Bar 19,4.4,€€,Cafes,26B rue de l'Ourcq 75019 Paris France,48.8906403445757,2.38230418413877
L'Etoile,5.0,N/A,"French, Breakfast & Brunch",144 Avenue Jean jaurès 75019 Paris France,48.887099,2.386653
Bistrot M,4.5,N/A,Bistros,137 avenue Jean Jaurès 75019 Paris France,48.88649,2.38373
Palais de Wenzhou,5.0,€,Chinese,15 rue de Joinville 75019 Paris France,48.89079,2.37818
Le Barbouquin,4.6,€€,"Bookstores, Cafes",1 rue Dénoyez 75020 Paris France,48.871052,2.3787811
À la Folie,3.8,€€,"Bars, Barbeque, Dance Clubs",26 avenue Corentin Cariou Folie L2 Parc de la Villette 75019 Paris France,48.8965699,2.38467
Pho Hanoi,4.5,€€,Vietnamese,82-84 rue Pixérécourt 75020 Paris France,48.8748017998448,2.39552234354335
L’eau et les rêves,5.0,N/A,"Cafes, Bookstores, Tapas Bars",9 quai de l'Oise 75019 Paris France,48.889428,2.381193
Les Chics Types,3.1,€€,"Bistros, Breakfast & Brunch",20 ave de Laumière 75019 Paris France,48.88402,2.38037
Le Chaumontois,5.0,N/A,"Bars, Mediterranean",12 rue Armand Carel 75019 Paris France,48.88258,2.3803
La Rizière,4.2,N/A,African,38 rue de Lorraine 75019 Paris France,48.88668,2.38155
Formidable,4.2,€€,Brasseries,2 avenue Jean Jaurès 75019 Paris France,48.88273,2.37064
Le Bellerive,3.3,€€,French,71 quai de la Seine 75019 Paris France,48.888187,2.37728945910931
Camarade Boris,3.9,€€€,French,90 quai de Loire 75019 Paris 19 France,48.88739,2.37906
Mensae,4.3,€€€,French,23 rue Mélingue 75020 Paris France,48.87574,2.38571
Aux Trois Arbres,5.0,N/A,"Mediterranean, French",154 avenue de Flandre 75019 Paris France,48.89416,2.3816799
Big Corner,3.1,€€,Burgers,143 avenue Jean Jaurès 75019 Paris France,48.8866730860423,2.38468330353498
Le Pavillon du Lac,3.1,€€€,"French, Bars",Parc de Buttes Chamount Place Armand Carrel 75019 Paris France,48.8808427176867,2.38119916067236
Novarts,4.0,N/A,"Caribbean, Reunion",66 Rue Armand Carrel 75019 Paris France,48.88289,2.37383
Les Marmites Volantes,4.4,€€,Modern European,69 rue Armand Carrel 75019 Paris France,48.88282,2.37321
Makido,4.6,€,"Japanese, Burgers, Pan Asian",178 avenue Jean Jaurès 75019 Paris France,48.887817,2.389888
Chez Kim,3.8,€€,Vietnamese,3 rue de la Mouzaïa 75019 Paris France,48.88018,2.39094
Cedars,4.4,N/A,Lebanese,101 avenue Jean Jaurès 75019 Paris France,48.88561,2.3803899
Au Comptoir du Temp,4.2,N/A,"French, Italian, Pizza",35 avenue Corentin Cariou 75019 Paris France,48.8975339728673,2.38505318574828
Chez Arnaud,4.1,€€,"Burgers, Pizza, French",16 rue Eugene Jumin 75019 Paris France,48.8874759985102,2.39266354590654
O Divin,4.5,€€€€,"Wine Bars, French",35 rue des Annelets 75019 Paris France,48.87888197,2.38977844
A l'Endroit,3.8,N/A,French,9 rue du Tunnel 75019 Paris France,48.8788986,2.3852799
Triplettes,3.3,€€,"French, Bars, Breakfast & Brunch",102 boulevard de Belleville 75020 Paris France,48.87058,2.378975
Le Balcon,3.5,€€€,French,221 Avenue Jean Jaurès 75019 Paris France,48.889174,2.3936148
Brasserie des Buttes-Chaumont,5.0,N/A,"Bistros, Brasseries",84 Avenue Sécretan 75019 Paris France,48.878948,2.378319
La Guincheuse,4.6,€€,"Cafes, Bars",266 rue du Faubourg Saint-Martin 75010 Paris France,48.88325,2.36782
Latinogourmand,4.5,€€,"Latin American, Peruvian",233 rue la Fayette 75010 Paris France,48.88218,2.36755
Café Parisien,4.4,N/A,Cafes,2 place de Rhin et Danube 75019 Paris France,48.88202,2.39255
Bombay curry,3.5,€€,Indian,119 Rue Meaux 75019 Paris France,48.88453,2.37874
La Brick,4.9,€€,Middle Eastern,13 Rue Pradier buttes Chaumont 75019 Paris France,48.87559,2.38188
Auberge du Bonheur,4.7,N/A,Pan Asian,26 rue Mathis 75019 Paris France,48.89106,2.37373
Mianguan,4.5,€,Pan Asian,34 rue de Belleville 75020 Paris France,48.8729899924544,2.38043727106792
LOAN spécialités vietnamiennes,4.3,€€,"Vietnamese, Pan Asian",25 boulevard de la Villette 75010 Paris France,48.873403,2.375082
Belushi's,2.8,€€,"Sports Bars, Burgers, Music Venues",159 rue de Crimée 75019 Paris France,48.8884753,2.3791826
Santa Monica Grill,4.3,N/A,"Italian, Imported Food",15 rue henri ribiere 75019 Paris France,48.8769781,2.395389
L'Ecluse Café,5.0,N/A,Restaurants,98 Rue Ourcq 75019 Paris France,48.89372,2.37331
Dav and Jo,4.0,€€,Kosher,49 quai de Seine 75019 Paris France,48.8867,2.37466
Bistro Les Frangins,4.0,€€,"Bars, French",19 ave Mathurin Moreau 75019 Paris France,48.8783188,2.37251
Múkura,4.4,€€,Latin American,82 rue Rébeval 75019 Paris France,48.874054,2.382217
Paradis de Sushi,4.5,N/A,"Sushi Bars, Japanese",77 quai de la Seine 75019 Paris France,48.8885099,2.3779499
Kimsou,5.0,N/A,"Pizza, Sandwiches",30 ave de Flandre 75019 Paris France,48.88593,2.37117
Point Ephémère,3.8,€€,"Music Venues, French",200 quai de Valmy 75010 Paris France,48.88194,2.36876
24 Zones,5.0,N/A,African,40 rue de Nantes 75019 Paris France,48.8929556090036,2.3803273960948
Le Cadoret,5.0,N/A,Bistros,1 rue Pradier 75019 Paris France,48.8747186967947,2.38108499289667
Hanoi Vietnamien,3.4,€,Vietnamese,3 rue Adolphe Mille 75019 Paris France,48.8881250091626,2.38907081530352
TopKnot Café,4.4,N/A,Cafes,6 rue Melingue 75019 Paris France,48.87488,2.38607
Café des Dames,2.9,€€,"Cafes, French",6 place Colonel Fabien 75019 Paris France,48.87805,2.37071
Moncœur Belleville,2.2,€€,"Bars, Cafes, Music Venues",1 rue des Envierges 75020 Paris France,48.8716,2.38586
Kaskad Cafe,3.5,€€,"Bars, Brasseries",2 Pce Armand Carrel 75019 Paris 19 France,48.88271,2.38281
Saigon Sandwich,4.6,€,"Vietnamese, Sandwiches",8 rue de la Présentation 75011 Paris France,48.8714299,2.37636
Toda l'Akel,4.8,N/A,"Pizza, Italian",169 Rue Crimée 75019 Paris France,48.8895627,2.3779289
K'pital,5.0,€,Pizza,317 rue des Pyrénées 75020 Paris France,48.87094849,2.39320689
Fleuve Rouge,4.1,€€,Thai,1 rue Pradier 75019 Paris France,48.8747878,2.3810765
Chamroueun Crimée,3.7,€€,Vietnamese,4 rue Mathis 75019 Paris France,48.8906,2.37627
Le Vieux Belleville,4.3,€,Bistros,12 rue Envierges 75020 Paris France,48.87168,2.38638
Le Refuge,5.0,N/A,"Salad, Beer, Wine & Spirits, Pizza",6-8 Place de Stalingrad 75019 Paris France,48.8831967,2.3697504
Le Petit Vingtième,4.2,€€€,French,381 rue des Pyrénées 75020 Paris France,48.87370300732,2.38921254873276
Primeur,4.3,N/A,"Vegetarian, Vegan",4 rue Lemon 75020 Paris France,48.87156,2.37837
L'Heure Bleue,3.8,N/A,"French, Venues & Event Spaces",57 rue Arthur Rozier 75019 Paris France,48.87916,2.39112
L'Entrepot's,3.9,€€,"French, Cafes",2 rue Sorbier 75020 Paris 20 France,48.86706,2.39085
Aux Bons Amis,3.9,€€,"Moroccan, Cafes",1 rue de l'Atlas 75019 Paris France,48.874272,2.375493
Délices Park,3.0,N/A,"Bagels, Salad, Sandwiches",98 Rue Villette 75019 Paris France,48.8795,2.38833
Dame Jane,5.0,€€€,"French, Wine Bars, Delicatessen",39 rue Ramponeau 75020 Paris France,48.871481,2.380795
Ah ! La Pompe À Bière,4.0,€,Brasseries,7 ter rue Duvergier 75019 Paris France,48.88913,2.37728
Le Barouf,4.0,N/A,"Bars, French",115 rue de Belleville 75019 Paris France,48.87474,2.38731
Café Jean,3.7,€€,French,181 Avenue Jean Jaurès 75019 Paris France,48.88763,2.38876
Dima,4.5,N/A,Lebanese,6 rue Mathis 75019 Paris France,48.89063,2.37606
Les Buttes Chaumont,3.8,€,French,38 avenue Simon Bolivar 75019 Paris France,48.8753713,2.3823121
La Pelouse,2.9,€€,French,86 rue Botzaris 75019 Paris France,48.87943,2.3894
Trois B,4.0,N/A,Meatballs,48 avenue Jean Jaurès 75019 Paris France,48.8837856016397,2.37474590863303
Chéri-Chérie,4.4,€€,"French, Bars",203 avenue Gambetta 75020 Paris France,48.8730507,2.4047599
Dynamo,3.0,€€,Brasseries,104 avenue Simon Bolivar 75019 Paris France,48.8786286,2.3745425
Le Baratin,4.0,€€€,French,3 rue Jouye Rouve 75020 Paris France,48.87323,2.38265
Le Petit Tibet,4.3,€€,Himalayan/Nepalese,5 ter rue d'Aubervilliers 75019 Paris France,48.8848940934691,2.36512117221061
Rosa Bonheur,3.4,€€,"Bars, Dance Clubs, Tapas Bars",2 allée de la Cascade Parc des Buttes Chaumont 75019 Paris France,48.879938,2.386241
Le Ptit Hugo,4.2,€€,Creperies,34 rue de Cambrai 75019 Paris France,48.89589,2.38266
Les Fleurs de la Pensée,5.0,N/A,Pan Asian,2 rue de Palestine 75020 Paris France,48.87552,2.3896799
Monsieur Culbuto,4.3,N/A,Bistros,294 rue des Pyrénées 75020 Paris France,48.8717036,2.392525
Les Mères Veilleuses,3.8,€,"Bars, Jazz & Blues, French, Food",67 rue Mouzaia 75019 Paris France,48.88051,2.39687
Chez Mezig,3.6,€€€,"Bars, French, Coffee & Tea",44bis quai de la Loire 75019 Paris France,48.8855096655198,2.37505326320046
Wanted,3.3,€€€,"Brasseries, Bars, Italian",46 bis rue de Meaux 75019 Paris France,48.8815571731293,2.37377292746792
Le Tablier Rouge,4.5,€€,French,40 Rue Chine 75020 Paris France,48.86887,2.3972
Le Danube,2.6,N/A,"Bistros, Cafes, Brasseries, Public Transportation",3 Place Rhin et Danube 75019 Paris France,48.8821258,2.3930229
Oasis Geode,4.3,N/A,"Kebab, Pizza, Creperies",23 avenue Corentin Cariou 75019 Paris France,48.896873,2.384373
Grillade d'Afrique,1.0,N/A,African,141 rue de Crimée 75019 Paris France,48.88695,2.38091
Le Hang Art,3.8,N/A,"Venues & Event Spaces, Bistros, Buffets",63 quai de la Seine 75019 Paris France,48.88773,2.37651
La Plaine,5.0,N/A,Brasseries,77 avenue Gambetta 75020 Paris France,48.86504,2.39763
Café Lumière,5.0,N/A,Cafes,15 rue Saint-Blaise 75020 Paris France,48.8596306,2.40503
Aux Petits Oignons,4.2,€€,Bistros,11 rue Dupont de l'Eure 75020 Paris France,48.868136,2.399965
Le P'tit Père,4.0,€€,"African, French, Bars",20 rue Orfila 75020 Paris France,48.86585,2.39567
Palais de l'Inde,4.0,€€,Indian,57 ave Gambetta 75020 Paris France,48.86497,2.39574
Café Martin,3.7,€€,Cafes,2 place Martin Nadaud 75020 Paris France,48.865199,2.395051
Traiteur Argana,4.7,€,Moroccan,13 rue de Bagnolet 75020 Paris France,48.85678,2.3955099
Shingané,4.0,€€,Korean,63 ave de Gambetta 75020 Paris France,48.86497,2.39603
Ma Pomme en Colimaçon,4.4,€€,Cafes,107 rue de Ménilmontant 75020 Paris France,48.869257,2.392259
Chez Wuhan,4.4,€€,Chinese,32 rue Pelleport 75020 Paris France,48.8639195228482,2.40420311070864
Cantine Sicilienne 19/29,4.0,€€€,Italian,49 rue Orfila 75020 Paris France,48.8669276,2.3976682
Les Chaises,4.7,€€,"Bars, French",33 rue de la Chine 75020 Paris France,48.8682785,2.39785
Boti,4.6,€€€,"French, Japanese, Vegetarian",74 bd de Ménilmontant 75020 Paris-20E-Arrondissement France,48.86416,2.38645
Blaise et Basile,4.1,€€,"Bistros, French",2 place Saint-Blaise 75020 Paris France,48.8601008,2.4042019
Bistrot Blanc Bec,4.6,€€€,"Bistros, French",15 rue des Panoyaux 75020 Paris France,48.8665619,2.38533
Saveur Maison,5.0,€,French,108 rue de Bagnolet 75020 Paris France,48.8597521,2.4034356
Il Sorriso,4.6,€,Italian,1 rue Pierre Bayle 75020 Paris France,48.85857,2.39018
Chantefable,3.7,€€,"French, Seafood",93 ave Gambetta 75020 Paris France,48.866365027816,2.3994134187262
Pizza Clip,4.0,€€,Pizza,13 Avenue du Père Lachaise 75020 Paris 20 France,48.8644411,2.3980233
Aux Ours,3.5,€€,"Cafes, French, Bars",236 rue des Pyrénées 75020 Paris France,48.8675003,2.39661
rajistan,5.0,N/A,"Pakistani, Indian",63 avenue gambetta gambetta 75020 Paris France,48.8648758,2.3968314
La Terra Madre,4.5,€€,Italian,46 rue de Ménilmontant 75020 Paris France,48.8680803,2.3874428
Charlotte,2.4,€€,"Modern European, Cafes",4 rue Belgrand 75020 Paris France,48.86485,2.39906
Yard,4.1,€€€,"French, Wine Bars, Tapas Bars",6 rue de Mont-Louis 75011 Paris France,48.858153,2.38838
Le Bistro du Parisien,3.5,€€,"French, Bistros",31 rue Pelleport 75020 Paris France,48.863604020502,2.40388959646225
Couscous Deli,4.7,€€,"Moroccan, Gluten-Free",128 rue du Chemin Vert 75011 Paris France,48.86211,2.38463
Le Cherfa,4.3,N/A,French,198 rue des pyrénées 75020 Paris France,48.8640480041504,2.39916205406189
Chez Mimi,4.5,€€,Japanese,4 ave Gambetta 75020 Paris France,48.8629592,2.3882272
Zagros,3.9,€€,Greek,58 bd de Ménilmontant 75020 Paris France,48.86362,2.38707
Au Poulet Braisé,4.1,€€,"Halal, Barbeque, Chicken Shop",4-6 rue Etienne Dolet 75020 Paris France,48.867518,2.383461
Aimé,5.0,N/A,Bistros,116 boulevard de Ménilmontant 75020 Paris France,48.865738,2.384644
Le Saveur,5.0,N/A,Restaurants,7 rue Sorbier 75020 Paris France,48.8682299,2.39027
Le Relais des Pyrénnées,5.0,N/A,French,256 rue des Pyrénnées 75020 Paris France,48.868939,2.395507
Les Grands Enfants,3.8,€€€,French,160 boulevard de Charonne 75020 Paris France,48.856888,2.394338
Le Bistrot des Soupirs,3.9,€€,French,49 Rue De La Chine 75020 Paris France,48.8693,2.39665
L'Office,3.8,€€€,Cafes,148 bd de Charonne 75020 Paris France,48.8564534,2.3947267
Nakagawa,4.1,€,"Japanese, Sushi Bars",17 rue des Gâtines 75020 Paris France,48.8658102,2.3983134
El Juanchito,4.1,€€,Latin American,69 Rue De La Folie Regnault 75011 Paris France,48.86193,2.38542
El Khyam,4.0,€€,Moroccan,28 avenue Gambetta 75020 Paris France,48.86489,2.39637
Café Mirabelle,5.0,N/A,"Breakfast & Brunch, Tea Rooms",16 rue la Vacquerie 75011 Paris France,48.85841,2.38497
Les Polissons,3.5,€€€,"Modern European, French, Steakhouses",1 avenue Gambetta 75020 Paris France,48.863289,2.388517
Le Restaurant 217,4.0,N/A,Brasseries,217 avenue Daumesnil 75012 Paris France,48.83852,2.39908
Bobar Café,5.0,€€,Brasseries,108 bd de Menilmontant 75020 Paris France,48.8654518,2.38498
Demain c'est loin..,4.2,€€,"French, Tapas Bars",9 rue Julien Lacroix 75020 Paris France,48.8686451,2.3859892
Garden Sushi,4.7,€€,"Japanese, Sushi Bars",28 avenue Gambetta 75020 Paris France,48.86489,2.39637
Viens Poupoule,4.5,€€,French,40 rue Etienne Dolet 75020 Paris France,48.8681166,2.3861135
Mémère Louise,4.7,N/A,Bistros,299-301 rue du Faubourg Saint Antoine 75011 Paris France,48.84919,2.39143
Mineirinho Bar,5.0,€€,"Bars, Brazilian, Tapas Bars",7 rue Henri Chevreau 75020 Paris France,48.8689228408305,2.38950421525988
